{"type": "FeatureCollection", "features": [{"type": "Feature", "properties": {"name": "Franja de anularidad 2028", "source": "NASA GSFC"}, "geometry": {"type": "Polygon", "coordinates": [[[-99.93666666666667, 2.5666666666666664], [-94.89, 1.0166666666666666], [-91.74666666666667, 0.14], [-89.3, -0.48333333333333334], [-87.24666666666667, -0.9633333333333333], [-85.455, -1.345], [-83.85333333333334, -1.6549999999999998], [-82.39666666666666, -1.9083333333333332], [-81.05833333333334, -2.115], [-79.81333333333333, -2.285], [-78.65, -2.421666666666667], [-77.55666666666667, -2.5283333333333333], [-76.52166666666666, -2.61], [-75.54, -2.67], [-74.605, -2.71], [-73.71, -2.73], [-72.85333333333334, -2.7333333333333334], [-72.03, -2.7216666666666667], [-71.23833333333333, -2.6950000000000003], [-70.475, -2.655], [-69.73666666666666, -2.6016666666666666], [-69.02333333333333, -2.535], [-68.33166666666666, -2.4583333333333335], [-67.66, -2.3716666666666666], [-67.00833333333334, -2.2733333333333334], [-66.37333333333333, -2.165], [-65.755, -2.0483333333333333], [-65.15333333333334, -1.9216666666666666], [-64.565, -1.7866666666666666], [-63.99166666666667, -1.6416666666666666], [-63.43, -1.49], [-62.88166666666667, -1.33], [-62.343333333333334, -1.1633333333333333], [-61.81666666666667, -0.9883333333333333], [-61.3, -0.8049999999999999], [-60.791666666666664, -0.615], [-60.29333333333334, -0.41833333333333333], [-59.803333333333335, -0.215], [-59.321666666666665, -0.005], [-58.846666666666664, 0.21166666666666664], [-58.37833333333333, 0.435], [-57.91833333333334, 0.6649999999999999], [-57.46333333333333, 0.9], [-57.013333333333335, 1.1433333333333333], [-56.57, 1.3916666666666666], [-56.13, 1.6466666666666665], [-55.695, 1.9066666666666667], [-55.265, 2.1733333333333333], [-54.83833333333333, 2.4466666666666668], [-54.416666666666664, 2.725], [-53.99666666666667, 3.01], [-53.58, 3.3016666666666667], [-53.166666666666664, 3.598333333333333], [-52.75333333333333, 3.901666666666667], [-52.343333333333334, 4.21], [-51.935, 4.525], [-51.528333333333336, 4.846666666666667], [-51.12166666666667, 5.173333333333334], [-50.71666666666667, 5.506666666666667], [-50.31166666666667, 5.846666666666667], [-49.905, 6.191666666666666], [-49.5, 6.545], [-49.09166666666667, 6.903333333333333], [-48.685, 7.2683333333333335], [-48.275, 7.64], [-47.86333333333333, 8.016666666666667], [-47.45, 8.401666666666667], [-47.03333333333333, 8.793333333333333], [-46.61333333333333, 9.193333333333333], [-46.19, 9.598333333333333], [-45.76166666666667, 10.011666666666667], [-45.33, 10.433333333333334], [-44.89333333333333, 10.861666666666666], [-44.45, 11.296666666666667], [-44.0, 11.741666666666667], [-43.54333333333334, 12.195], [-43.08, 12.655], [-42.608333333333334, 13.125], [-42.126666666666665, 13.605], [-41.635, 14.093333333333334], [-41.13333333333333, 14.591666666666667], [-40.62, 15.101666666666667], [-40.093333333333334, 15.62], [-39.553333333333335, 16.151666666666667], [-38.998333333333335, 16.693333333333335], [-38.425, 17.248333333333335], [-37.835, 17.816666666666666], [-37.225, 18.398333333333333], [-36.59166666666667, 18.995], [-35.935, 19.606666666666666], [-35.25333333333333, 20.235], [-34.54, 20.881666666666668], [-33.795, 21.546666666666667], [-33.013333333333335, 22.233333333333334], [-32.19166666666667, 22.941666666666666], [-31.321666666666665, 23.676666666666666], [-30.401666666666667, 24.438333333333333], [-29.42, 25.23], [-28.368333333333332, 26.05666666666667], [-27.235, 26.925], [-26.003333333333334, 27.838333333333335], [-24.653333333333332, 28.805], [-23.158333333333335, 29.838333333333335], [-21.473333333333333, 30.955], [-19.536666666666665, 32.17666666666667], [-17.24, 33.54833333333333], [-14.373333333333333, 35.15], [-10.395, 37.185], [-0.9033333333333334, 41.281666666666666], [-7.071666666666666, 35.071666666666665], [-11.318333333333333, 33.05166666666667], [-14.311666666666667, 31.483333333333334], [-16.69, 30.14666666666667], [-18.69, 28.955], [-20.425, 27.868333333333332], [-21.965, 26.86], [-23.351666666666667, 25.915], [-24.615, 25.02166666666667], [-25.78, 24.173333333333332], [-26.858333333333334, 23.361666666666668], [-27.865, 22.583333333333332], [-28.81, 21.835], [-29.701666666666668, 21.111666666666668], [-30.545, 20.413333333333334], [-31.346666666666668, 19.735], [-32.11, 19.076666666666668], [-32.84, 18.436666666666667], [-33.54, 17.813333333333333], [-34.211666666666666, 17.206666666666667], [-34.858333333333334, 16.613333333333333], [-35.483333333333334, 16.033333333333335], [-36.08833333333333, 15.466666666666667], [-36.67333333333333, 14.911666666666667], [-37.24166666666667, 14.368333333333334], [-37.795, 13.836666666666666], [-38.333333333333336, 13.315], [-38.858333333333334, 12.803333333333333], [-39.37, 12.301666666666666], [-39.87166666666667, 11.808333333333334], [-40.36333333333334, 11.325], [-40.845, 10.848333333333333], [-41.318333333333335, 10.381666666666666], [-41.78333333333333, 9.921666666666667], [-42.24166666666667, 9.47], [-42.693333333333335, 9.025], [-43.14, 8.588333333333333], [-43.58, 8.158333333333333], [-44.015, 7.735], [-44.446666666666665, 7.318333333333333], [-44.873333333333335, 6.908333333333333], [-45.29666666666667, 6.505], [-45.718333333333334, 6.108333333333333], [-46.13666666666666, 5.718333333333334], [-46.553333333333335, 5.333333333333333], [-46.968333333333334, 4.955], [-47.38166666666667, 4.581666666666667], [-47.79333333333334, 4.215], [-48.205, 3.8533333333333335], [-48.61666666666667, 3.498333333333333], [-49.03, 3.1483333333333334], [-49.44166666666667, 2.8049999999999997], [-49.855, 2.466666666666667], [-50.27, 2.135], [-50.685, 1.8083333333333333], [-51.10333333333333, 1.4866666666666666], [-51.52333333333333, 1.17], [-51.945, 0.86], [-52.37, 0.5566666666666666], [-52.8, 0.25666666666666665], [-53.23166666666667, -0.03666666666666667], [-53.666666666666664, -0.3233333333333333], [-54.10666666666667, -0.605], [-54.55166666666667, -0.8816666666666666], [-55.0, -1.1516666666666666], [-55.455, -1.4166666666666667], [-55.915, -1.675], [-56.38166666666667, -1.9266666666666667], [-56.855, -2.1733333333333333], [-57.333333333333336, -2.413333333333333], [-57.82, -2.6483333333333334], [-58.315, -2.875], [-58.81666666666667, -3.0966666666666667], [-59.32833333333333, -3.31], [-59.848333333333336, -3.5183333333333335], [-60.37833333333333, -3.7183333333333333], [-60.91833333333334, -3.9116666666666666], [-61.47, -4.098333333333334], [-62.031666666666666, -4.276666666666666], [-62.60666666666667, -4.446666666666666], [-63.195, -4.61], [-63.79666666666667, -4.763333333333334], [-64.41166666666666, -4.91], [-65.04333333333334, -5.046666666666667], [-65.69166666666666, -5.175], [-66.35666666666667, -5.293333333333333], [-67.04, -5.401666666666666], [-67.745, -5.498333333333333], [-68.47, -5.585], [-69.22, -5.66], [-69.995, -5.721666666666667], [-70.79666666666667, -5.7716666666666665], [-71.62666666666667, -5.806666666666667], [-72.49, -5.826666666666666], [-73.38833333333334, -5.831666666666667], [-74.32666666666667, -5.818333333333333], [-75.30833333333334, -5.786666666666667], [-76.33833333333334, -5.733333333333333], [-77.42333333333333, -5.656666666666666], [-78.57, -5.555], [-79.79, -5.425], [-81.095, -5.26], [-82.5, -5.056666666666667], [-84.02833333333334, -4.805], [-85.71166666666667, -4.495], [-87.59833333333333, -4.111666666666666], [-89.76666666666667, -3.625], [-92.37, -2.985], [-95.76833333333333, -2.066666666666667]]]}}]}