{"type": "FeatureCollection", "features": [{"type": "Feature", "properties": {"t": "2028-01-26T13:20:00Z", "ut_min": 800, "lat": 0.073, "lon": -97.39}, "geometry": {"type": "Polygon", "coordinates": [[[-97.6759101314313, -0.9225042972891554], [-97.1040898685687, 1.0691042972891553], [-97.6759101314313, -0.9225042972891554]]]}}, {"type": "Feature", "properties": {"t": "2028-01-26T13:21:00Z", "ut_min": 801, "lat": -0.489, "lon": -95.431}, "geometry": {"type": "Polygon", "coordinates": [[[-95.71677973138843, -1.4850015949618867], [-95.14492026861156, 0.5066015949618867], [-95.71677973138843, -1.4850015949618867]]]}}, {"type": "Feature", "properties": {"t": "2028-01-26T13:22:00Z", "ut_min": 802, "lat": -1.052, "lon": -93.472}, "geometry": {"type": "Polygon", "coordinates": [[[-93.4717, -1.0517], [-93.4717, -1.0517], [-93.4717, -1.0517]]]}}, {"type": "Feature", "properties": {"t": "2028-01-26T13:23:00Z", "ut_min": 803, "lat": -1.419, "lon": -92.066}, "geometry": {"type": "Polygon", "coordinates": [[[-92.32802885196968, -2.4215348154128877], [-91.80367114803032, -0.4168651845871121], [-92.32802885196968, -2.4215348154128877]]]}}, {"type": "Feature", "properties": {"t": "2028-01-26T13:24:00Z", "ut_min": 804, "lat": -1.787, "lon": -90.66}, "geometry": {"type": "Polygon", "coordinates": [[[-90.66, -1.7867], [-90.66, -1.7867], [-90.66, -1.7867]]]}}, {"type": "Feature", "properties": {"t": "2028-01-26T13:25:00Z", "ut_min": 805, "lat": -2.059, "lon": -89.519}, "geometry": {"type": "Polygon", "coordinates": [[[-89.76014633847684, -3.0668539186424333], [-89.27815366152315, -1.051546081357567], [-89.76014633847684, -3.0668539186424333]]]}}, {"type": "Feature", "properties": {"t": "2028-01-26T13:26:00Z", "ut_min": 806, "lat": -2.332, "lon": -88.378}, "geometry": {"type": "Polygon", "coordinates": [[[-88.3783, -2.3317], [-88.3783, -2.3317], [-88.3783, -2.3317]]]}}, {"type": "Feature", "properties": {"t": "2028-01-26T13:27:00Z", "ut_min": 807, "lat": -2.545, "lon": -87.402}, "geometry": {"type": "Polygon", "coordinates": [[[-87.6231359815194, -3.557132082587432], [-87.18016401848058, -1.5328679174125677], [-87.6231359815194, -3.557132082587432]]]}}, {"type": "Feature", "properties": {"t": "2028-01-26T13:28:00Z", "ut_min": 808, "lat": -2.758, "lon": -86.425}, "geometry": {"type": "Polygon", "coordinates": [[[-86.425, -2.7583], [-86.425, -2.7583], [-86.425, -2.7583]]]}}, {"type": "Feature", "properties": {"t": "2028-01-26T13:29:00Z", "ut_min": 809, "lat": -2.929, "lon": -85.561}, "geometry": {"type": "Polygon", "coordinates": [[[-85.76230987888432, -3.945462239563642], [-85.35939012111568, -1.912837760436358], [-85.76230987888432, -3.945462239563642]]]}}, {"type": "Feature", "properties": {"t": "2028-01-26T13:30:00Z", "ut_min": 810, "lat": -3.1, "lon": -84.697}, "geometry": {"type": "Polygon", "coordinates": [[[-84.6967, -3.1], [-84.6967, -3.1], [-84.6967, -3.1]]]}}, {"type": "Feature", "properties": {"t": "2028-01-26T13:31:00Z", "ut_min": 811, "lat": -3.239, "lon": -83.918}, "geometry": {"type": "Polygon", "coordinates": [[[-84.10020881196114, -4.259000350472312], [-83.73479118803887, -2.219299649527688], [-84.10020881196114, -4.259000350472312]]]}}, {"type": "Feature", "properties": {"t": "2028-01-26T13:32:00Z", "ut_min": 812, "lat": -3.378, "lon": -83.138}, "geometry": {"type": "Polygon", "coordinates": [[[-83.1383, -3.3783], [-83.1383, -3.3783], [-83.1383, -3.3783]]]}}, {"type": "Feature", "properties": {"t": "2028-01-26T13:33:00Z", "ut_min": 813, "lat": -3.492, "lon": -82.426}, "geometry": {"type": "Polygon", "coordinates": [[[-82.58917216783817, -4.5147722813547535], [-82.26242783216185, -2.4685277186452463], [-82.58917216783817, -4.5147722813547535]]]}}, {"type": "Feature", "properties": {"t": "2028-01-26T13:34:00Z", "ut_min": 814, "lat": -3.605, "lon": -81.713}, "geometry": {"type": "Polygon", "coordinates": [[[-81.7133, -3.605], [-81.7133, -3.605], [-81.7133, -3.605]]]}}, {"type": "Feature", "properties": {"t": "2028-01-26T13:35:00Z", "ut_min": 815, "lat": -3.697, "lon": -81.054}, "geometry": {"type": "Polygon", "coordinates": [[[-81.19872392998221, -4.723441505358146], [-80.90957607001778, -2.671558494641854], [-81.19872392998221, -4.723441505358146]]]}}, {"type": "Feature", "properties": {"t": "2028-01-26T13:36:00Z", "ut_min": 816, "lat": -3.79, "lon": -80.395}, "geometry": {"type": "Polygon", "coordinates": [[[-80.395, -3.79], [-80.395, -3.79], [-80.395, -3.79]]]}}, {"type": "Feature", "properties": {"t": "2028-01-26T13:37:00Z", "ut_min": 817, "lat": -3.864, "lon": -79.781}, "geometry": {"type": "Polygon", "coordinates": [[[-79.90559744111391, -4.892682653425554], [-79.65610255888609, -2.8356173465744456], [-79.90559744111391, -4.892682653425554]]]}}, {"type": "Feature", "properties": {"t": "2028-01-26T13:38:00Z", "ut_min": 818, "lat": -3.938, "lon": -79.167}, "geometry": {"type": "Polygon", "coordinates": [[[-79.1667, -3.9383], [-79.1667, -3.9383], [-79.1667, -3.9383]]]}}, {"type": "Feature", "properties": {"t": "2028-01-26T13:39:00Z", "ut_min": 819, "lat": -3.998, "lon": -78.59}, "geometry": {"type": "Polygon", "coordinates": [[[-78.69631023587708, -5.028093871316758], [-78.48368976412293, -2.966906128683242], [-78.69631023587708, -5.028093871316758]]]}}, {"type": "Feature", "properties": {"t": "2028-01-26T13:40:00Z", "ut_min": 820, "lat": -4.057, "lon": -78.013}, "geometry": {"type": "Polygon", "coordinates": [[[-78.0133, -4.0567], [-78.0133, -4.0567], [-78.0133, -4.0567]]]}}, {"type": "Feature", "properties": {"t": "2028-01-26T13:41:00Z", "ut_min": 821, "lat": -4.102, "lon": -77.47}, "geometry": {"type": "Polygon", "coordinates": [[[-77.55595735623048, -5.134182349564716], [-77.38404264376952, -3.0692176504352844], [-77.55595735623048, -5.134182349564716]]]}}, {"type": "Feature", "properties": {"t": "2028-01-26T13:42:00Z", "ut_min": 822, "lat": -4.147, "lon": -76.927}, "geometry": {"type": "Polygon", "coordinates": [[[-76.9267, -4.1467], [-76.9267, -4.1467], [-76.9267, -4.1467]]]}}, {"type": "Feature", "properties": {"t": "2028-01-26T13:43:00Z", "ut_min": 823, "lat": -4.181, "lon": -76.412}, "geometry": {"type": "Polygon", "coordinates": [[[-76.48061519946171, -5.214603648780191], [-76.34278480053828, -3.147096351219808], [-76.48061519946171, -5.214603648780191]]]}}, {"type": "Feature", "properties": {"t": "2028-01-26T13:44:00Z", "ut_min": 824, "lat": -4.215, "lon": -75.897}, "geometry": {"type": "Polygon", "coordinates": [[[-75.8967, -4.215], [-75.8967, -4.215], [-75.8967, -4.215]]]}}, {"type": "Feature", "properties": {"t": "2028-01-26T13:45:00Z", "ut_min": 825, "lat": -4.237, "lon": -75.407}, "geometry": {"type": "Polygon", "coordinates": [[[-75.45448362646691, -5.272439543832241], [-75.35891637353309, -3.2025604561677588], [-75.45448362646691, -5.272439543832241]]]}}, {"type": "Feature", "properties": {"t": "2028-01-26T13:46:00Z", "ut_min": 826, "lat": -4.26, "lon": -74.917}, "geometry": {"type": "Polygon", "coordinates": [[[-74.9167, -4.26], [-74.9167, -4.26], [-74.9167, -4.26]]]}}, {"type": "Feature", "properties": {"t": "2028-01-26T13:47:00Z", "ut_min": 827, "lat": -4.272, "lon": -74.449}, "geometry": {"type": "Polygon", "coordinates": [[[-74.47704609947013, -5.308163828862708], [-74.42135390052988, -3.236836171137292], [-74.47704609947013, -5.308163828862708]]]}}, {"type": "Feature", "properties": {"t": "2028-01-26T13:48:00Z", "ut_min": 828, "lat": -4.285, "lon": -73.982}, "geometry": {"type": "Polygon", "coordinates": [[[-73.9817, -4.285], [-73.9817, -4.285], [-73.9817, -4.285]]]}}, {"type": "Feature", "properties": {"t": "2028-01-26T13:49:00Z", "ut_min": 829, "lat": -4.289, "lon": -73.534}, "geometry": {"type": "Polygon", "coordinates": [[[-73.54386155870125, -5.325141237598357], [-73.52453844129874, -3.253158762401643], [-73.54386155870125, -5.325141237598357]]]}}, {"type": "Feature", "properties": {"t": "2028-01-26T13:50:00Z", "ut_min": 830, "lat": -4.293, "lon": -73.087}, "geometry": {"type": "Polygon", "coordinates": [[[-73.0867, -4.2933], [-73.0867, -4.2933], [-73.0867, -4.2933]]]}}, {"type": "Feature", "properties": {"t": "2028-01-26T13:51:00Z", "ut_min": 831, "lat": -4.289, "lon": -72.657}, "geometry": {"type": "Polygon", "coordinates": [[[-72.64664527443576, -5.325137517275566], [-72.66675472556425, -3.2531624827244343], [-72.64664527443576, -5.325137517275566]]]}}, {"type": "Feature", "properties": {"t": "2028-01-26T13:52:00Z", "ut_min": 832, "lat": -4.285, "lon": -72.227}, "geometry": {"type": "Polygon", "coordinates": [[[-72.2267, -4.285], [-72.2267, -4.285], [-72.2267, -4.285]]]}}, {"type": "Feature", "properties": {"t": "2028-01-26T13:53:00Z", "ut_min": 833, "lat": -4.273, "lon": -71.814}, "geometry": {"type": "Polygon", "coordinates": [[[-71.78478825044539, -5.30897078973106], [-71.84361174955461, -3.237729210268942], [-71.78478825044539, -5.30897078973106]]]}}, {"type": "Feature", "properties": {"t": "2028-01-26T13:54:00Z", "ut_min": 834, "lat": -4.262, "lon": -71.402}, "geometry": {"type": "Polygon", "coordinates": [[[-71.4017, -4.2617], [-71.4017, -4.2617], [-71.4017, -4.2617]]]}}, {"type": "Feature", "properties": {"t": "2028-01-26T13:55:00Z", "ut_min": 835, "lat": -4.242, "lon": -71.004}, "geometry": {"type": "Polygon", "coordinates": [[[-70.95394104517241, -5.277322945896401], [-71.05445895482758, -3.2076770541035984], [-70.95394104517241, -5.277322945896401]]]}}, {"type": "Feature", "properties": {"t": "2028-01-26T13:56:00Z", "ut_min": 836, "lat": -4.223, "lon": -70.607}, "geometry": {"type": "Polygon", "coordinates": [[[-70.6067, -4.2233], [-70.6067, -4.2233], [-70.6067, -4.2233]]]}}, {"type": "Feature", "properties": {"t": "2028-01-26T13:57:00Z", "ut_min": 837, "lat": -4.197, "lon": -70.222}, "geometry": {"type": "Polygon", "coordinates": [[[-70.15271084959433, -5.231195427146218], [-70.29228915040567, -3.1638045728537807], [-70.15271084959433, -5.231195427146218]]]}}, {"type": "Feature", "properties": {"t": "2028-01-26T13:58:00Z", "ut_min": 838, "lat": -4.172, "lon": -69.838}, "geometry": {"type": "Polygon", "coordinates": [[[-69.8383, -4.1717], [-69.8383, -4.1717], [-69.8383, -4.1717]]]}}, {"type": "Feature", "properties": {"t": "2028-01-26T13:59:00Z", "ut_min": 839, "lat": -4.139, "lon": -69.467}, "geometry": {"type": "Polygon", "coordinates": [[[-69.37592441495553, -5.171276750927472], [-69.55737558504447, -3.107123249072529], [-69.37592441495553, -5.171276750927472]]]}}, {"type": "Feature", "properties": {"t": "2028-01-26T14:00:00Z", "ut_min": 840, "lat": -4.107, "lon": -69.095}, "geometry": {"type": "Polygon", "coordinates": [[[-69.095, -4.1067], [-69.095, -4.1067], [-69.095, -4.1067]]]}}, {"type": "Feature", "properties": {"t": "2028-01-26T14:01:00Z", "ut_min": 841, "lat": -4.069, "lon": -68.736}, "geometry": {"type": "Polygon", "coordinates": [[[-68.62771749399587, -5.099606185627338], [-68.84398250600412, -3.0387938143726627], [-68.62771749399587, -5.099606185627338]]]}}, {"type": "Feature", "properties": {"t": "2028-01-26T14:02:00Z", "ut_min": 842, "lat": -4.032, "lon": -68.377}, "geometry": {"type": "Polygon", "coordinates": [[[-68.3767, -4.0317], [-68.3767, -4.0317], [-68.3767, -4.0317]]]}}, {"type": "Feature", "properties": {"t": "2028-01-26T14:03:00Z", "ut_min": 843, "lat": -3.987, "lon": -68.028}, "geometry": {"type": "Polygon", "coordinates": [[[-67.8967745771214, -5.015295781689249], [-68.1582254228786, -2.9597042183107503], [-67.8967745771214, -5.015295781689249]]]}}, {"type": "Feature", "properties": {"t": "2028-01-26T14:04:00Z", "ut_min": 844, "lat": -3.943, "lon": -67.678}, "geometry": {"type": "Polygon", "coordinates": [[[-67.6783, -3.9433], [-67.6783, -3.9433], [-67.6783, -3.9433]]]}}, {"type": "Feature", "properties": {"t": "2028-01-26T14:05:00Z", "ut_min": 845, "lat": -3.895, "lon": -67.34}, "geometry": {"type": "Polygon", "coordinates": [[[-67.19289527036638, -4.920587986379752], [-67.48710472963363, -2.8694120136202472], [-67.19289527036638, -4.920587986379752]]]}}, {"type": "Feature", "properties": {"t": "2028-01-26T14:06:00Z", "ut_min": 846, "lat": -3.847, "lon": -67.002}, "geometry": {"type": "Polygon", "coordinates": [[[-67.0017, -3.8467], [-67.0017, -3.8467], [-67.0017, -3.8467]]]}}, {"type": "Feature", "properties": {"t": "2028-01-26T14:07:00Z", "ut_min": 847, "lat": -3.792, "lon": -66.672}, "geometry": {"type": "Polygon", "coordinates": [[[-66.50346154755503, -4.814714106209053], [-66.84153845244496, -2.770285893790947], [-66.50346154755503, -4.814714106209053]]]}}, {"type": "Feature", "properties": {"t": "2028-01-26T14:08:00Z", "ut_min": 848, "lat": -3.738, "lon": -66.343}, "geometry": {"type": "Polygon", "coordinates": [[[-66.3433, -3.7383], [-66.3433, -3.7383], [-66.3433, -3.7383]]]}}, {"type": "Feature", "properties": {"t": "2028-01-26T14:09:00Z", "ut_min": 849, "lat": -3.679, "lon": -66.023}, "geometry": {"type": "Polygon", "coordinates": [[[-65.83421957621017, -4.697858238016281], [-66.21238042378984, -2.6604417619837184], [-65.83421957621017, -4.697858238016281]]]}}, {"type": "Feature", "properties": {"t": "2028-01-26T14:10:00Z", "ut_min": 850, "lat": -3.62, "lon": -65.703}, "geometry": {"type": "Polygon", "coordinates": [[[-65.7033, -3.62], [-65.7033, -3.62], [-65.7033, -3.62]]]}}, {"type": "Feature", "properties": {"t": "2028-01-26T14:11:00Z", "ut_min": 851, "lat": -3.557, "lon": -65.391}, "geometry": {"type": "Polygon", "coordinates": [[[-65.18418224276994, -4.571954910651252], [-65.59741775723006, -2.541345089348749], [-65.18418224276994, -4.571954910651252]]]}}, {"type": "Feature", "properties": {"t": "2028-01-26T14:12:00Z", "ut_min": 852, "lat": -3.493, "lon": -65.078}, "geometry": {"type": "Polygon", "coordinates": [[[-65.0783, -3.4933], [-65.0783, -3.4933], [-65.0783, -3.4933]]]}}, {"type": "Feature", "properties": {"t": "2028-01-26T14:13:00Z", "ut_min": 853, "lat": -3.425, "lon": -64.774}, "geometry": {"type": "Polygon", "coordinates": [[[-64.54635708112352, -4.4357750754822955], [-65.00194291887647, -2.414224924517704], [-64.54635708112352, -4.4357750754822955]]]}}, {"type": "Feature", "properties": {"t": "2028-01-26T14:14:00Z", "ut_min": 854, "lat": -3.357, "lon": -64.47}, "geometry": {"type": "Polygon", "coordinates": [[[-64.47, -3.3567], [-64.47, -3.3567], [-64.47, -3.3567]]]}}, {"type": "Feature", "properties": {"t": "2028-01-26T14:15:00Z", "ut_min": 855, "lat": -3.284, "lon": -64.173}, "geometry": {"type": "Polygon", "coordinates": [[[-63.9265992688224, -4.29052230029607], [-64.4201007311776, -2.2778776997039305], [-63.9265992688224, -4.29052230029607]]]}}, {"type": "Feature", "properties": {"t": "2028-01-26T14:16:00Z", "ut_min": 856, "lat": -3.212, "lon": -63.877}, "geometry": {"type": "Polygon", "coordinates": [[[-63.8767, -3.2117], [-63.8767, -3.2117], [-63.8767, -3.2117]]]}}, {"type": "Feature", "properties": {"t": "2028-01-26T14:17:00Z", "ut_min": 857, "lat": -3.135, "lon": -63.586}, "geometry": {"type": "Polygon", "coordinates": [[[-63.32090204623991, -4.136690171937327], [-63.85079795376009, -2.1333098280626723], [-63.32090204623991, -4.136690171937327]]]}}, {"type": "Feature", "properties": {"t": "2028-01-26T14:18:00Z", "ut_min": 858, "lat": -3.058, "lon": -63.295}, "geometry": {"type": "Polygon", "coordinates": [[[-63.295, -3.0583], [-63.295, -3.0583], [-63.295, -3.0583]]]}}, {"type": "Feature", "properties": {"t": "2028-01-26T14:19:00Z", "ut_min": 859, "lat": -2.978, "lon": -63.012}, "geometry": {"type": "Polygon", "coordinates": [[[-62.726800222851885, -3.9737179476846474], [-63.29649977714812, -1.9812820523153527], [-62.726800222851885, -3.9737179476846474]]]}}, {"type": "Feature", "properties": {"t": "2028-01-26T14:20:00Z", "ut_min": 860, "lat": -2.897, "lon": -62.728}, "geometry": {"type": "Polygon", "coordinates": [[[-62.7283, -2.8967], [-62.7283, -2.8967], [-62.7283, -2.8967]]]}}, {"type": "Feature", "properties": {"t": "2028-01-26T14:21:00Z", "ut_min": 861, "lat": -2.812, "lon": -62.451}, "geometry": {"type": "Polygon", "coordinates": [[[-62.14928961554786, -3.8038026937818596], [-62.752310384452144, -1.8211973062181404], [-62.14928961554786, -3.8038026937818596]]]}}, {"type": "Feature", "properties": {"t": "2028-01-26T14:22:00Z", "ut_min": 862, "lat": -2.728, "lon": -62.173}, "geometry": {"type": "Polygon", "coordinates": [[[-62.1733, -2.7283], [-62.1733, -2.7283], [-62.1733, -2.7283]]]}}, {"type": "Feature", "properties": {"t": "2028-01-26T14:23:00Z", "ut_min": 863, "lat": -2.64, "lon": -61.901}, "geometry": {"type": "Polygon", "coordinates": [[[-61.580787856883376, -3.625484733726161], [-62.22081214311663, -1.6545152662738385], [-61.580787856883376, -3.625484733726161]]]}}, {"type": "Feature", "properties": {"t": "2028-01-26T14:24:00Z", "ut_min": 864, "lat": -2.552, "lon": -61.628}, "geometry": {"type": "Polygon", "coordinates": [[[-61.6283, -2.5517], [-61.6283, -2.5517], [-61.6283, -2.5517]]]}}, {"type": "Feature", "properties": {"t": "2028-01-26T14:25:00Z", "ut_min": 865, "lat": -2.459, "lon": -61.362}, "geometry": {"type": "Polygon", "coordinates": [[[-61.02150984617751, -3.4379177067857656], [-61.701790153822486, -1.4804822932142343], [-61.02150984617751, -3.4379177067857656]]]}}, {"type": "Feature", "properties": {"t": "2028-01-26T14:26:00Z", "ut_min": 866, "lat": -2.367, "lon": -61.095}, "geometry": {"type": "Polygon", "coordinates": [[[-61.095, -2.3667], [-61.095, -2.3667], [-61.095, -2.3667]]]}}, {"type": "Feature", "properties": {"t": "2028-01-26T14:27:00Z", "ut_min": 867, "lat": -2.271, "lon": -60.833}, "geometry": {"type": "Polygon", "coordinates": [[[-60.47645210752641, -3.2435753183201252], [-61.19024789247358, -1.2981246816798744], [-60.47645210752641, -3.2435753183201252]]]}}, {"type": "Feature", "properties": {"t": "2028-01-26T14:28:00Z", "ut_min": 868, "lat": -2.175, "lon": -60.572}, "geometry": {"type": "Polygon", "coordinates": [[[-60.5717, -2.175], [-60.5717, -2.175], [-60.5717, -2.175]]]}}, {"type": "Feature", "properties": {"t": "2028-01-26T14:29:00Z", "ut_min": 869, "lat": -2.076, "lon": -60.315}, "geometry": {"type": "Polygon", "coordinates": [[[-59.941251594669126, -3.0422174650915332], [-60.68874840533087, -1.1094825349084665], [-59.941251594669126, -3.0422174650915332]]]}}, {"type": "Feature", "properties": {"t": "2028-01-26T14:30:00Z", "ut_min": 870, "lat": -1.977, "lon": -60.058}, "geometry": {"type": "Polygon", "coordinates": [[[-60.0583, -1.9767], [-60.0583, -1.9767], [-60.0583, -1.9767]]]}}, {"type": "Feature", "properties": {"t": "2028-01-26T14:31:00Z", "ut_min": 871, "lat": -1.874, "lon": -59.807}, "geometry": {"type": "Polygon", "coordinates": [[[-59.415446882600975, -2.833624037764646], [-60.197853117399035, -0.914775962235354], [-59.415446882600975, -2.833624037764646]]]}}, {"type": "Feature", "properties": {"t": "2028-01-26T14:32:00Z", "ut_min": 872, "lat": -1.772, "lon": -59.555}, "geometry": {"type": "Polygon", "coordinates": [[[-59.555, -1.7717], [-59.555, -1.7717], [-59.555, -1.7717]]]}}, {"type": "Feature", "properties": {"t": "2028-01-26T14:33:00Z", "ut_min": 873, "lat": -1.666, "lon": -59.307}, "geometry": {"type": "Polygon", "coordinates": [[[-58.900118045661664, -2.618867368664076], [-59.713181954338346, -0.7128326313359241], [-58.900118045661664, -2.618867368664076]]]}}, {"type": "Feature", "properties": {"t": "2028-01-26T14:34:00Z", "ut_min": 874, "lat": -1.56, "lon": -59.058}, "geometry": {"type": "Polygon", "coordinates": [[[-59.0583, -1.56], [-59.0583, -1.56], [-59.0583, -1.56]]]}}, {"type": "Feature", "properties": {"t": "2028-01-26T14:35:00Z", "ut_min": 875, "lat": -1.45, "lon": -58.814}, "geometry": {"type": "Polygon", "coordinates": [[[-58.38832148366787, -2.3945405507847317], [-59.23997851633212, -0.5054594492152688], [-58.38832148366787, -2.3945405507847317]]]}}, {"type": "Feature", "properties": {"t": "2028-01-26T14:36:00Z", "ut_min": 876, "lat": -1.34, "lon": -58.57}, "geometry": {"type": "Polygon", "coordinates": [[[-58.57, -1.34], [-58.57, -1.34], [-58.57, -1.34]]]}}, {"type": "Feature", "properties": {"t": "2028-01-26T14:37:00Z", "ut_min": 877, "lat": -1.228, "lon": -58.33}, "geometry": {"type": "Polygon", "coordinates": [[[-57.89008751086831, -2.1655492952298054], [-58.769912489131684, -0.28945070477019486], [-57.89008751086831, -2.1655492952298054]]]}}, {"type": "Feature", "properties": {"t": "2028-01-26T14:38:00Z", "ut_min": 878, "lat": -1.115, "lon": -58.09}, "geometry": {"type": "Polygon", "coordinates": [[[-58.09, -1.115], [-58.09, -1.115], [-58.09, -1.115]]]}}, {"type": "Feature", "properties": {"t": "2028-01-26T14:39:00Z", "ut_min": 879, "lat": -0.999, "lon": -57.853}, "geometry": {"type": "Polygon", "coordinates": [[[-57.39769724666055, -1.929641465283438], [-58.30900275333946, -0.06865853471656203], [-57.39769724666055, -1.929641465283438]]]}}, {"type": "Feature", "properties": {"t": "2028-01-26T14:40:00Z", "ut_min": 880, "lat": -0.883, "lon": -57.617}, "geometry": {"type": "Polygon", "coordinates": [[[-57.6167, -0.8833], [-57.6167, -0.8833], [-57.6167, -0.8833]]]}}, {"type": "Feature", "properties": {"t": "2028-01-26T14:41:00Z", "ut_min": 881, "lat": -0.764, "lon": -57.383}, "geometry": {"type": "Polygon", "coordinates": [[[-56.91213268754728, -1.6868441021755247], [-57.85456731245272, 0.15854410217552473], [-56.91213268754728, -1.6868441021755247]]]}}, {"type": "Feature", "properties": {"t": "2028-01-26T14:42:00Z", "ut_min": 882, "lat": -0.645, "lon": -57.15}, "geometry": {"type": "Polygon", "coordinates": [[[-57.15, -0.645], [-57.15, -0.645], [-57.15, -0.645]]]}}, {"type": "Feature", "properties": {"t": "2028-01-26T14:43:00Z", "ut_min": 883, "lat": -0.523, "lon": -56.919}, "geometry": {"type": "Polygon", "coordinates": [[[-56.43611768526103, -1.4399032810519996], [-57.40218231473897, 0.39320328105199953], [-56.43611768526103, -1.4399032810519996]]]}}, {"type": "Feature", "properties": {"t": "2028-01-26T14:44:00Z", "ut_min": 884, "lat": -0.402, "lon": -56.688}, "geometry": {"type": "Polygon", "coordinates": [[[-56.6883, -0.4017], [-56.6883, -0.4017], [-56.6883, -0.4017]]]}}, {"type": "Feature", "properties": {"t": "2028-01-26T14:45:00Z", "ut_min": 885, "lat": -0.277, "lon": -56.462}, "geometry": {"type": "Polygon", "coordinates": [[[-55.96130230279274, -1.1839092859581588], [-56.96199769720726, 0.6305092859581587], [-55.96130230279274, -1.1839092859581588]]]}}, {"type": "Feature", "properties": {"t": "2028-01-26T14:46:00Z", "ut_min": 886, "lat": -0.152, "lon": -56.235}, "geometry": {"type": "Polygon", "coordinates": [[[-56.235, -0.1517], [-56.235, -0.1517], [-56.235, -0.1517]]]}}, {"type": "Feature", "properties": {"t": "2028-01-26T14:47:00Z", "ut_min": 887, "lat": -0.023, "lon": -56.01}, "geometry": {"type": "Polygon", "coordinates": [[[-55.49664987510901, -0.9232624185205902], [-56.52335012489099, 0.8765624185205902], [-55.49664987510901, -0.9232624185205902]]]}}, {"type": "Feature", "properties": {"t": "2028-01-26T14:48:00Z", "ut_min": 888, "lat": 0.105, "lon": -55.785}, "geometry": {"type": "Polygon", "coordinates": [[[-55.785, 0.10499999999999998], [-55.785, 0.10499999999999998], [-55.785, 0.10499999999999998]]]}}, {"type": "Feature", "properties": {"t": "2028-01-26T14:49:00Z", "ut_min": 889, "lat": 0.237, "lon": -55.563}, "geometry": {"type": "Polygon", "coordinates": [[[-55.03427097394844, -0.6541085685921938], [-56.09242902605156, 1.1274085685921937], [-55.03427097394844, -0.6541085685921938]]]}}, {"type": "Feature", "properties": {"t": "2028-01-26T14:50:00Z", "ut_min": 890, "lat": 0.368, "lon": -55.342}, "geometry": {"type": "Polygon", "coordinates": [[[-55.3417, 0.3683], [-55.3417, 0.3683], [-55.3417, 0.3683]]]}}, {"type": "Feature", "properties": {"t": "2028-01-26T14:51:00Z", "ut_min": 891, "lat": 0.503, "lon": -55.122}, "geometry": {"type": "Polygon", "coordinates": [[[-54.582138827086176, -0.38195847888245216], [-55.66126117291383, 1.3869584788824523], [-54.582138827086176, -0.38195847888245216]]]}}, {"type": "Feature", "properties": {"t": "2028-01-26T14:52:00Z", "ut_min": 892, "lat": 0.637, "lon": -54.902}, "geometry": {"type": "Polygon", "coordinates": [[[-54.9017, 0.6367], [-54.9017, 0.6367], [-54.9017, 0.6367]]]}}, {"type": "Feature", "properties": {"t": "2028-01-26T14:53:00Z", "ut_min": 893, "lat": 0.773, "lon": -54.684}, "geometry": {"type": "Polygon", "coordinates": [[[-54.13295075956482, -0.10389016118458838], [-55.23544924043519, 1.6505901611845883], [-54.13295075956482, -0.10389016118458838]]]}}, {"type": "Feature", "properties": {"t": "2028-01-26T14:54:00Z", "ut_min": 894, "lat": 0.91, "lon": -54.467}, "geometry": {"type": "Polygon", "coordinates": [[[-54.4667, 0.91], [-54.4667, 0.91], [-54.4667, 0.91]]]}}, {"type": "Feature", "properties": {"t": "2028-01-26T14:55:00Z", "ut_min": 895, "lat": 1.051, "lon": -54.251}, "geometry": {"type": "Polygon", "coordinates": [[[-53.68451415972602, 0.18324279471778693], [-54.81718584027398, 1.918457205282213], [-53.68451415972602, 0.18324279471778693]]]}}, {"type": "Feature", "properties": {"t": "2028-01-26T14:56:00Z", "ut_min": 896, "lat": 1.192, "lon": -54.035}, "geometry": {"type": "Polygon", "coordinates": [[[-54.035, 1.1917], [-54.035, 1.1917], [-54.035, 1.1917]]]}}, {"type": "Feature", "properties": {"t": "2028-01-26T14:57:00Z", "ut_min": 897, "lat": 1.334, "lon": -53.822}, "geometry": {"type": "Polygon", "coordinates": [[[-53.245951346107404, 0.47273531035147454], [-54.39734865389259, 2.1956646896485257], [-53.245951346107404, 0.47273531035147454]]]}}, {"type": "Feature", "properties": {"t": "2028-01-26T14:58:00Z", "ut_min": 898, "lat": 1.477, "lon": -53.608}, "geometry": {"type": "Polygon", "coordinates": [[[-53.6083, 1.4767], [-53.6083, 1.4767], [-53.6083, 1.4767]]]}}, {"type": "Feature", "properties": {"t": "2028-01-26T14:59:00Z", "ut_min": 899, "lat": 1.623, "lon": -53.397}, "geometry": {"type": "Polygon", "coordinates": [[[-52.808514806619215, 0.7694203025113979], [-53.98478519338079, 2.475579697488602], [-52.808514806619215, 0.7694203025113979]]]}}, {"type": "Feature", "properties": {"t": "2028-01-26T15:00:00Z", "ut_min": 900, "lat": 1.768, "lon": -53.185}, "geometry": {"type": "Polygon", "coordinates": [[[-53.185, 1.7683], [-53.185, 1.7683], [-53.185, 1.7683]]]}}, {"type": "Feature", "properties": {"t": "2028-01-26T15:01:00Z", "ut_min": 901, "lat": 1.917, "lon": -52.974}, "geometry": {"type": "Polygon", "coordinates": [[[-52.375150703958276, 1.0719396979671063], [-53.57314929604173, 2.7630603020328937], [-52.375150703958276, 1.0719396979671063]]]}}, {"type": "Feature", "properties": {"t": "2028-01-26T15:02:00Z", "ut_min": 902, "lat": 2.067, "lon": -52.763}, "geometry": {"type": "Polygon", "coordinates": [[[-52.7633, 2.0667], [-52.7633, 2.0667], [-52.7633, 2.0667]]]}}, {"type": "Feature", "properties": {"t": "2028-01-26T15:03:00Z", "ut_min": 903, "lat": 2.218, "lon": -52.554}, "geometry": {"type": "Polygon", "coordinates": [[[-51.945232556774904, 1.379812132956256], [-53.163067443225096, 3.056887867043744], [-51.945232556774904, 1.379812132956256]]]}}, {"type": "Feature", "properties": {"t": "2028-01-26T15:04:00Z", "ut_min": 904, "lat": 2.37, "lon": -52.345}, "geometry": {"type": "Polygon", "coordinates": [[[-52.345, 2.37], [-52.345, 2.37], [-52.345, 2.37]]]}}, {"type": "Feature", "properties": {"t": "2028-01-26T15:05:00Z", "ut_min": 905, "lat": 2.525, "lon": -52.138}, "geometry": {"type": "Polygon", "coordinates": [[[-51.51649009024804, 1.6952615697163655], [-52.758509909751965, 3.354738430283635], [-51.51649009024804, 1.6952615697163655]]]}}, {"type": "Feature", "properties": {"t": "2028-01-26T15:06:00Z", "ut_min": 906, "lat": 2.68, "lon": -51.93}, "geometry": {"type": "Polygon", "coordinates": [[[-51.93, 2.68], [-51.93, 2.68], [-51.93, 2.68]]]}}, {"type": "Feature", "properties": {"t": "2028-01-26T15:07:00Z", "ut_min": 907, "lat": 2.838, "lon": -51.723}, "geometry": {"type": "Polygon", "coordinates": [[[-51.09407640500613, 2.0138764149970667], [-52.352623594993865, 3.661123585002934], [-51.09407640500613, 2.0138764149970667]]]}}, {"type": "Feature", "properties": {"t": "2028-01-26T15:08:00Z", "ut_min": 908, "lat": 2.995, "lon": -51.517}, "geometry": {"type": "Polygon", "coordinates": [[[-51.5167, 2.995], [-51.5167, 2.995], [-51.5167, 2.995]]]}}, {"type": "Feature", "properties": {"t": "2028-01-26T15:09:00Z", "ut_min": 909, "lat": 3.156, "lon": -51.31}, "geometry": {"type": "Polygon", "coordinates": [[[-50.672161358605905, 2.3386807673627064], [-51.9478386413941, 3.9730192326372937], [-50.672161358605905, 2.3386807673627064]]]}}, {"type": "Feature", "properties": {"t": "2028-01-26T15:10:00Z", "ut_min": 910, "lat": 3.317, "lon": -51.103}, "geometry": {"type": "Polygon", "coordinates": [[[-51.1033, 3.3167], [-51.1033, 3.3167], [-51.1033, 3.3167]]]}}, {"type": "Feature", "properties": {"t": "2028-01-26T15:11:00Z", "ut_min": 911, "lat": 3.48, "lon": -50.898}, "geometry": {"type": "Polygon", "coordinates": [[[-50.250859438016924, 2.670224812250632], [-51.545740561983074, 4.289775187749369], [-50.250859438016924, 2.670224812250632]]]}}, {"type": "Feature", "properties": {"t": "2028-01-26T15:12:00Z", "ut_min": 912, "lat": 3.643, "lon": -50.693}, "geometry": {"type": "Polygon", "coordinates": [[[-50.6933, 3.6433], [-50.6933, 3.6433], [-50.6933, 3.6433]]]}}, {"type": "Feature", "properties": {"t": "2028-01-26T15:13:00Z", "ut_min": 913, "lat": 3.809, "lon": -50.488}, "geometry": {"type": "Polygon", "coordinates": [[[-49.83435550981078, 3.0044049329775206], [-51.14224449018921, 4.613895067022479], [-49.83435550981078, 3.0044049329775206]]]}}, {"type": "Feature", "properties": {"t": "2028-01-26T15:14:00Z", "ut_min": 914, "lat": 3.975, "lon": -50.283}, "geometry": {"type": "Polygon", "coordinates": [[[-50.2833, 3.975], [-50.2833, 3.975], [-50.2833, 3.975]]]}}, {"type": "Feature", "properties": {"t": "2028-01-26T15:15:00Z", "ut_min": 915, "lat": 4.144, "lon": -50.079}, "geometry": {"type": "Polygon", "coordinates": [[[-49.41538583706057, 3.3472254780583746], [-50.74291416293943, 4.941074521941625], [-49.41538583706057, 3.3472254780583746]]]}}, {"type": "Feature", "properties": {"t": "2028-01-26T15:16:00Z", "ut_min": 916, "lat": 4.313, "lon": -49.875}, "geometry": {"type": "Polygon", "coordinates": [[[-49.875, 4.3133], [-49.875, 4.3133], [-49.875, 4.3133]]]}}, {"type": "Feature", "properties": {"t": "2028-01-26T15:17:00Z", "ut_min": 917, "lat": 4.486, "lon": -49.67}, "geometry": {"type": "Polygon", "coordinates": [[[-48.99969892116729, 3.6940831469514395], [-50.34030107883272, 5.277516853048559], [-48.99969892116729, 3.6940831469514395]]]}}, {"type": "Feature", "properties": {"t": "2028-01-26T15:18:00Z", "ut_min": 918, "lat": 4.658, "lon": -49.465}, "geometry": {"type": "Polygon", "coordinates": [[[-49.465, 4.6583], [-49.465, 4.6583], [-49.465, 4.6583]]]}}, {"type": "Feature", "properties": {"t": "2028-01-26T15:19:00Z", "ut_min": 919, "lat": 4.833, "lon": -49.261}, "geometry": {"type": "Polygon", "coordinates": [[[-48.58277988732249, 4.047898400755892], [-49.93892011267752, 5.618701599244107], [-48.58277988732249, 4.047898400755892]]]}}, {"type": "Feature", "properties": {"t": "2028-01-26T15:20:00Z", "ut_min": 920, "lat": 5.008, "lon": -49.057}, "geometry": {"type": "Polygon", "coordinates": [[[-49.0567, 5.0083], [-49.0567, 5.0083], [-49.0567, 5.0083]]]}}, {"type": "Feature", "properties": {"t": "2028-01-26T15:21:00Z", "ut_min": 921, "lat": 5.187, "lon": -48.852}, "geometry": {"type": "Polygon", "coordinates": [[[-48.16657539176645, 4.407725686693481], [-49.53842460823355, 5.9655743133065195], [-48.16657539176645, 4.407725686693481]]]}}, {"type": "Feature", "properties": {"t": "2028-01-26T15:22:00Z", "ut_min": 922, "lat": 5.365, "lon": -48.648}, "geometry": {"type": "Polygon", "coordinates": [[[-48.6483, 5.365], [-48.6483, 5.365], [-48.6483, 5.365]]]}}, {"type": "Feature", "properties": {"t": "2028-01-26T15:23:00Z", "ut_min": 923, "lat": 5.547, "lon": -48.443}, "geometry": {"type": "Polygon", "coordinates": [[[-47.751159351975396, 4.772836355620756], [-49.135440648024606, 6.3204636443792435], [-47.751159351975396, 4.772836355620756]]]}}, {"type": "Feature", "properties": {"t": "2028-01-26T15:24:00Z", "ut_min": 924, "lat": 5.728, "lon": -48.238}, "geometry": {"type": "Polygon", "coordinates": [[[-48.2383, 5.7283], [-48.2383, 5.7283], [-48.2383, 5.7283]]]}}, {"type": "Feature", "properties": {"t": "2028-01-26T15:25:00Z", "ut_min": 925, "lat": 5.912, "lon": -48.033}, "geometry": {"type": "Polygon", "coordinates": [[[-47.33509588522293, 5.1436993683098065], [-48.73150411477707, 6.681300631690193], [-47.33509588522293, 5.1436993683098065]]]}}, {"type": "Feature", "properties": {"t": "2028-01-26T15:26:00Z", "ut_min": 926, "lat": 6.097, "lon": -47.828}, "geometry": {"type": "Polygon", "coordinates": [[[-47.8283, 6.0967], [-47.8283, 6.0967], [-47.8283, 6.0967]]]}}, {"type": "Feature", "properties": {"t": "2028-01-26T15:27:00Z", "ut_min": 927, "lat": 6.284, "lon": -47.622}, "geometry": {"type": "Polygon", "coordinates": [[[-46.91895512731329, 5.519015820523243], [-48.324344872686716, 7.049384179476758], [-46.91895512731329, 5.519015820523243]]]}}, {"type": "Feature", "properties": {"t": "2028-01-26T15:28:00Z", "ut_min": 928, "lat": 6.472, "lon": -47.415}, "geometry": {"type": "Polygon", "coordinates": [[[-47.415, 6.4717], [-47.415, 6.4717], [-47.415, 6.4717]]]}}, {"type": "Feature", "properties": {"t": "2028-01-26T15:29:00Z", "ut_min": 929, "lat": 6.662, "lon": -47.208}, "geometry": {"type": "Polygon", "coordinates": [[[-46.49817215835405, 5.903680463005155], [-47.91852784164594, 7.421319536994845], [-46.49817215835405, 5.903680463005155]]]}}, {"type": "Feature", "properties": {"t": "2028-01-26T15:30:00Z", "ut_min": 930, "lat": 6.853, "lon": -47.002}, "geometry": {"type": "Polygon", "coordinates": [[[-47.0017, 6.8533], [-47.0017, 6.8533], [-47.0017, 6.8533]]]}}, {"type": "Feature", "properties": {"t": "2028-01-26T15:31:00Z", "ut_min": 931, "lat": 7.047, "lon": -46.793}, "geometry": {"type": "Polygon", "coordinates": [[[-46.078687481541515, 6.292306947912619], [-47.50801251845849, 7.80269305208738], [-46.078687481541515, 6.292306947912619]]]}}, {"type": "Feature", "properties": {"t": "2028-01-26T15:32:00Z", "ut_min": 932, "lat": 7.242, "lon": -46.585}, "geometry": {"type": "Polygon", "coordinates": [[[-46.585, 7.2417], [-46.585, 7.2417], [-46.585, 7.2417]]]}}, {"type": "Feature", "properties": {"t": "2028-01-26T15:33:00Z", "ut_min": 933, "lat": 7.439, "lon": -46.376}, "geometry": {"type": "Polygon", "coordinates": [[[-45.65530369416905, 6.688941981924711], [-47.09639630583095, 8.189458018075289], [-45.65530369416905, 6.688941981924711]]]}}, {"type": "Feature", "properties": {"t": "2028-01-26T15:34:00Z", "ut_min": 934, "lat": 7.637, "lon": -46.167}, "geometry": {"type": "Polygon", "coordinates": [[[-46.1667, 7.6367], [-46.1667, 7.6367], [-46.1667, 7.6367]]]}}, {"type": "Feature", "properties": {"t": "2028-01-26T15:35:00Z", "ut_min": 935, "lat": 7.837, "lon": -45.956}, "geometry": {"type": "Polygon", "coordinates": [[[-45.23258778968318, 7.088376715063097], [-46.679112210316816, 8.585023284936904], [-45.23258778968318, 7.088376715063097]]]}}, {"type": "Feature", "properties": {"t": "2028-01-26T15:36:00Z", "ut_min": 936, "lat": 8.037, "lon": -45.745}, "geometry": {"type": "Polygon", "coordinates": [[[-45.745, 8.0367], [-45.745, 8.0367], [-45.745, 8.0367]]]}}, {"type": "Feature", "properties": {"t": "2028-01-26T15:37:00Z", "ut_min": 937, "lat": 8.241, "lon": -45.532}, "geometry": {"type": "Polygon", "coordinates": [[[-44.80334333466586, 7.497462975655271], [-46.26165666533414, 8.98423702434473], [-44.80334333466586, 7.497462975655271]]]}}, {"type": "Feature", "properties": {"t": "2028-01-26T15:38:00Z", "ut_min": 938, "lat": 8.445, "lon": -45.32}, "geometry": {"type": "Polygon", "coordinates": [[[-45.32, 8.445], [-45.32, 8.445], [-45.32, 8.445]]]}}, {"type": "Feature", "properties": {"t": "2028-01-26T15:39:00Z", "ut_min": 939, "lat": 8.652, "lon": -45.105}, "geometry": {"type": "Polygon", "coordinates": [[[-44.37294545283607, 7.91115278473401], [-45.83705454716394, 9.39384721526599], [-44.37294545283607, 7.91115278473401]]]}}, {"type": "Feature", "properties": {"t": "2028-01-26T15:40:00Z", "ut_min": 940, "lat": 8.86, "lon": -44.89}, "geometry": {"type": "Polygon", "coordinates": [[[-44.89, 8.86], [-44.89, 8.86], [-44.89, 8.86]]]}}, {"type": "Feature", "properties": {"t": "2028-01-26T15:41:00Z", "ut_min": 941, "lat": 9.071, "lon": -44.673}, "geometry": {"type": "Polygon", "coordinates": [[[-43.93690123650333, 8.332951405576571], [-45.40979876349667, 9.80874859442343], [-43.93690123650333, 8.332951405576571]]]}}, {"type": "Feature", "properties": {"t": "2028-01-26T15:42:00Z", "ut_min": 942, "lat": 9.282, "lon": -44.457}, "geometry": {"type": "Polygon", "coordinates": [[[-44.4567, 9.2817], [-44.4567, 9.2817], [-44.4567, 9.2817]]]}}, {"type": "Feature", "properties": {"t": "2028-01-26T15:43:00Z", "ut_min": 943, "lat": 9.497, "lon": -44.237}, "geometry": {"type": "Polygon", "coordinates": [[[-43.49679519655747, 8.762082944258626], [-44.97820480344252, 10.231317055741375], [-43.49679519655747, 8.762082944258626]]]}}, {"type": "Feature", "properties": {"t": "2028-01-26T15:44:00Z", "ut_min": 944, "lat": 9.712, "lon": -44.018}, "geometry": {"type": "Polygon", "coordinates": [[[-44.0183, 9.7117], [-44.0183, 9.7117], [-44.0183, 9.7117]]]}}, {"type": "Feature", "properties": {"t": "2028-01-26T15:45:00Z", "ut_min": 945, "lat": 9.93, "lon": -43.796}, "geometry": {"type": "Polygon", "coordinates": [[[-43.0535452327635, 9.195961836813947], [-44.5380547672365, 10.664038163186053], [-43.0535452327635, 9.195961836813947]]]}}, {"type": "Feature", "properties": {"t": "2028-01-26T15:46:00Z", "ut_min": 946, "lat": 10.148, "lon": -43.573}, "geometry": {"type": "Polygon", "coordinates": [[[-43.5733, 10.1483], [-43.5733, 10.1483], [-43.5733, 10.1483]]]}}, {"type": "Feature", "properties": {"t": "2028-01-26T15:47:00Z", "ut_min": 947, "lat": 10.37, "lon": -43.348}, "geometry": {"type": "Polygon", "coordinates": [[[-42.60291655170773, 9.6380325595334], [-44.093683448292275, 11.101967440466602], [-42.60291655170773, 9.6380325595334]]]}}, {"type": "Feature", "properties": {"t": "2028-01-26T15:48:00Z", "ut_min": 948, "lat": 10.592, "lon": -43.123}, "geometry": {"type": "Polygon", "coordinates": [[[-43.1233, 10.5917], [-43.1233, 10.5917], [-43.1233, 10.5917]]]}}, {"type": "Feature", "properties": {"t": "2028-01-26T15:49:00Z", "ut_min": 949, "lat": 10.818, "lon": -42.895}, "geometry": {"type": "Polygon", "coordinates": [[[-42.145184418499376, 10.089683922666158], [-43.644815581500616, 11.54701607733384], [-42.145184418499376, 10.089683922666158]]]}}, {"type": "Feature", "properties": {"t": "2028-01-26T15:50:00Z", "ut_min": 950, "lat": 11.045, "lon": -42.667}, "geometry": {"type": "Polygon", "coordinates": [[[-42.6667, 11.045], [-42.6667, 11.045], [-42.6667, 11.045]]]}}, {"type": "Feature", "properties": {"t": "2028-01-26T15:51:00Z", "ut_min": 951, "lat": 11.275, "lon": -42.434}, "geometry": {"type": "Polygon", "coordinates": [[[-41.68396067839138, 10.545597327615786], [-43.18443932160863, 12.004402672384215], [-41.68396067839138, 10.545597327615786]]]}}, {"type": "Feature", "properties": {"t": "2028-01-26T15:52:00Z", "ut_min": 952, "lat": 11.505, "lon": -42.202}, "geometry": {"type": "Polygon", "coordinates": [[[-42.2017, 11.505], [-42.2017, 11.505], [-42.2017, 11.505]]]}}, {"type": "Feature", "properties": {"t": "2028-01-26T15:53:00Z", "ut_min": 953, "lat": 11.739, "lon": -41.966}, "geometry": {"type": "Polygon", "coordinates": [[[-41.21242838764752, 11.011672248842759], [-42.719271612352486, 12.466627751157242], [-41.21242838764752, 11.011672248842759]]]}}, {"type": "Feature", "properties": {"t": "2028-01-26T15:54:00Z", "ut_min": 954, "lat": 11.973, "lon": -41.73}, "geometry": {"type": "Polygon", "coordinates": [[[-41.73, 11.9733], [-41.73, 11.9733], [-41.73, 11.9733]]]}}, {"type": "Feature", "properties": {"t": "2028-01-26T15:55:00Z", "ut_min": 955, "lat": 12.212, "lon": -41.489}, "geometry": {"type": "Polygon", "coordinates": [[[-40.73494946341447, 11.48363735605004], [-42.24335053658552, 12.939662643949957], [-40.73494946341447, 11.48363735605004]]]}}, {"type": "Feature", "properties": {"t": "2028-01-26T15:56:00Z", "ut_min": 956, "lat": 12.45, "lon": -41.248}, "geometry": {"type": "Polygon", "coordinates": [[[-41.2483, 12.45], [-41.2483, 12.45], [-41.2483, 12.45]]]}}, {"type": "Feature", "properties": {"t": "2028-01-26T15:57:00Z", "ut_min": 957, "lat": 12.693, "lon": -41.002}, "geometry": {"type": "Polygon", "coordinates": [[[-40.24605032233388, 11.966175588730572], [-41.758949677666116, 13.420524411269426], [-40.24605032233388, 11.966175588730572]]]}}, {"type": "Feature", "properties": {"t": "2028-01-26T15:58:00Z", "ut_min": 958, "lat": 12.937, "lon": -40.757}, "geometry": {"type": "Polygon", "coordinates": [[[-40.7567, 12.9367], [-40.7567, 12.9367], [-40.7567, 12.9367]]]}}, {"type": "Feature", "properties": {"t": "2028-01-26T15:59:00Z", "ut_min": 959, "lat": 13.185, "lon": -40.506}, "geometry": {"type": "Polygon", "coordinates": [[[-39.74724637734418, 12.458479437360502], [-41.26445362265582, 13.911520562639495], [-39.74724637734418, 12.458479437360502]]]}}, {"type": "Feature", "properties": {"t": "2028-01-26T16:00:00Z", "ut_min": 960, "lat": 13.433, "lon": -40.255}, "geometry": {"type": "Polygon", "coordinates": [[[-40.255, 13.4333], [-40.255, 13.4333], [-40.255, 13.4333]]]}}, {"type": "Feature", "properties": {"t": "2028-01-26T16:01:00Z", "ut_min": 961, "lat": 13.686, "lon": -39.999}, "geometry": {"type": "Polygon", "coordinates": [[[-39.239287758288434, 12.95895655630312], [-40.75901224171157, 14.412643443696881], [-39.239287758288434, 12.95895655630312]]]}}, {"type": "Feature", "properties": {"t": "2028-01-26T16:02:00Z", "ut_min": 962, "lat": 13.938, "lon": -39.743}, "geometry": {"type": "Polygon", "coordinates": [[[-39.7433, 13.9383], [-39.7433, 13.9383], [-39.7433, 13.9383]]]}}, {"type": "Feature", "properties": {"t": "2028-01-26T16:03:00Z", "ut_min": 963, "lat": 14.196, "lon": -39.48}, "geometry": {"type": "Polygon", "coordinates": [[[-38.721042108076304, 13.466419615691228], [-40.238957891923704, 14.925180384308772], [-38.721042108076304, 13.466419615691228]]]}}, {"type": "Feature", "properties": {"t": "2028-01-26T16:04:00Z", "ut_min": 964, "lat": 14.453, "lon": -39.217}, "geometry": {"type": "Polygon", "coordinates": [[[-39.2167, 14.4533], [-39.2167, 14.4533], [-39.2167, 14.4533]]]}}, {"type": "Feature", "properties": {"t": "2028-01-26T16:05:00Z", "ut_min": 965, "lat": 14.717, "lon": -38.948}, "geometry": {"type": "Polygon", "coordinates": [[[-38.18576387489305, 13.988244114534725], [-39.70923612510696, 15.445055885465278], [-38.18576387489305, 13.988244114534725]]]}}, {"type": "Feature", "properties": {"t": "2028-01-26T16:06:00Z", "ut_min": 966, "lat": 14.98, "lon": -38.678}, "geometry": {"type": "Polygon", "coordinates": [[[-38.6783, 14.98], [-38.6783, 14.98], [-38.6783, 14.98]]]}}, {"type": "Feature", "properties": {"t": "2028-01-26T16:07:00Z", "ut_min": 967, "lat": 15.248, "lon": -38.402}, "geometry": {"type": "Polygon", "coordinates": [[[-37.64029064593588, 14.517734705622628], [-39.16300935406413, 15.978965294377373], [-37.64029064593588, 14.517734705622628]]]}}, {"type": "Feature", "properties": {"t": "2028-01-26T16:08:00Z", "ut_min": 968, "lat": 15.517, "lon": -38.125}, "geometry": {"type": "Polygon", "coordinates": [[[-38.125, 15.5167], [-38.125, 15.5167], [-38.125, 15.5167]]]}}, {"type": "Feature", "properties": {"t": "2028-01-26T16:09:00Z", "ut_min": 969, "lat": 15.791, "lon": -37.84}, "geometry": {"type": "Polygon", "coordinates": [[[-37.078812048562334, 15.058135640845695], [-38.60118795143767, 16.523564359154307], [-37.078812048562334, 15.058135640845695]]]}}, {"type": "Feature", "properties": {"t": "2028-01-26T16:10:00Z", "ut_min": 970, "lat": 16.065, "lon": -37.555}, "geometry": {"type": "Polygon", "coordinates": [[[-37.555, 16.065], [-37.555, 16.065], [-37.555, 16.065]]]}}, {"type": "Feature", "properties": {"t": "2028-01-26T16:11:00Z", "ut_min": 971, "lat": 16.346, "lon": -37.261}, "geometry": {"type": "Polygon", "coordinates": [[[-36.49931848106495, 15.611429092308475], [-38.02238151893506, 17.08027090769152], [-36.49931848106495, 15.611429092308475]]]}}, {"type": "Feature", "properties": {"t": "2028-01-26T16:12:00Z", "ut_min": 972, "lat": 16.627, "lon": -36.967}, "geometry": {"type": "Polygon", "coordinates": [[[-36.9667, 16.6267], [-36.9667, 16.6267], [-36.9667, 16.6267]]]}}, {"type": "Feature", "properties": {"t": "2028-01-26T16:13:00Z", "ut_min": 973, "lat": 16.913, "lon": -36.663}, "geometry": {"type": "Polygon", "coordinates": [[[-35.90240676676992, 16.17623124194158], [-37.42429323323008, 17.650468758058423], [-35.90240676676992, 16.17623124194158]]]}}, {"type": "Feature", "properties": {"t": "2028-01-26T16:14:00Z", "ut_min": 974, "lat": 17.2, "lon": -36.36}, "geometry": {"type": "Polygon", "coordinates": [[[-36.36, 17.2], [-36.36, 17.2], [-36.36, 17.2]]]}}, {"type": "Feature", "properties": {"t": "2028-01-26T16:15:00Z", "ut_min": 975, "lat": 17.494, "lon": -36.046}, "geometry": {"type": "Polygon", "coordinates": [[[-35.28484294491899, 16.754844640434335], [-36.80685705508101, 18.23345535956566], [-35.28484294491899, 16.754844640434335]]]}}, {"type": "Feature", "properties": {"t": "2028-01-26T16:16:00Z", "ut_min": 976, "lat": 17.788, "lon": -35.732}, "geometry": {"type": "Polygon", "coordinates": [[[-35.7317, 17.7883], [-35.7317, 17.7883], [-35.7317, 17.7883]]]}}, {"type": "Feature", "properties": {"t": "2028-01-26T16:17:00Z", "ut_min": 977, "lat": 18.089, "lon": -35.406}, "geometry": {"type": "Polygon", "coordinates": [[[-34.646478004048156, 17.34596891266718], [-36.165221995951846, 18.832331087332822], [-34.646478004048156, 17.34596891266718]]]}}, {"type": "Feature", "properties": {"t": "2028-01-26T16:18:00Z", "ut_min": 978, "lat": 18.39, "lon": -35.08}, "geometry": {"type": "Polygon", "coordinates": [[[-35.08, 18.39], [-35.08, 18.39], [-35.08, 18.39]]]}}, {"type": "Feature", "properties": {"t": "2028-01-26T16:19:00Z", "ut_min": 979, "lat": 18.699, "lon": -34.742}, "geometry": {"type": "Polygon", "coordinates": [[[-33.98229012051756, 17.95348846157351], [-35.50100987948244, 19.44481153842649], [-33.98229012051756, 17.95348846157351]]]}}, {"type": "Feature", "properties": {"t": "2028-01-26T16:20:00Z", "ut_min": 980, "lat": 19.008, "lon": -34.403}, "geometry": {"type": "Polygon", "coordinates": [[[-34.4033, 19.0083], [-34.4033, 19.0083], [-34.4033, 19.0083]]]}}, {"type": "Feature", "properties": {"t": "2028-01-26T16:21:00Z", "ut_min": 981, "lat": 19.325, "lon": -34.051}, "geometry": {"type": "Polygon", "coordinates": [[[-33.29375507137229, 18.574655471916408], [-34.807844928627716, 20.07534452808359], [-33.29375507137229, 18.574655471916408]]]}}, {"type": "Feature", "properties": {"t": "2028-01-26T16:22:00Z", "ut_min": 982, "lat": 19.642, "lon": -33.698}, "geometry": {"type": "Polygon", "coordinates": [[[-33.6983, 19.6417], [-33.6983, 19.6417], [-33.6983, 19.6417]]]}}, {"type": "Feature", "properties": {"t": "2028-01-26T16:23:00Z", "ut_min": 983, "lat": 19.968, "lon": -33.33}, "geometry": {"type": "Polygon", "coordinates": [[[-32.573470927288774, 19.214836918507697], [-34.08652907271122, 20.721863081492305], [-32.573470927288774, 19.214836918507697]]]}}, {"type": "Feature", "properties": {"t": "2028-01-26T16:24:00Z", "ut_min": 984, "lat": 20.295, "lon": -32.962}, "geometry": {"type": "Polygon", "coordinates": [[[-32.9617, 20.295], [-32.9617, 20.295], [-32.9617, 20.295]]]}}, {"type": "Feature", "properties": {"t": "2028-01-26T16:25:00Z", "ut_min": 985, "lat": 20.63, "lon": -32.576}, "geometry": {"type": "Polygon", "coordinates": [[[-31.82295358127101, 19.870470246230273], [-33.328746418729, 21.389529753769732], [-31.82295358127101, 19.870470246230273]]]}}, {"type": "Feature", "properties": {"t": "2028-01-26T16:26:00Z", "ut_min": 986, "lat": 20.965, "lon": -32.19}, "geometry": {"type": "Polygon", "coordinates": [[[-32.19, 20.965], [-32.19, 20.965], [-32.19, 20.965]]]}}, {"type": "Feature", "properties": {"t": "2028-01-26T16:27:00Z", "ut_min": 987, "lat": 21.312, "lon": -31.784}, "geometry": {"type": "Polygon", "coordinates": [[[-31.032615902668436, 20.547993294515468], [-32.535684097331554, 22.075306705484532], [-31.032615902668436, 20.547993294515468]]]}}, {"type": "Feature", "properties": {"t": "2028-01-26T16:28:00Z", "ut_min": 988, "lat": 21.658, "lon": -31.378}, "geometry": {"type": "Polygon", "coordinates": [[[-31.3783, 21.6583], [-31.3783, 21.6583], [-31.3783, 21.6583]]]}}, {"type": "Feature", "properties": {"t": "2028-01-26T16:29:00Z", "ut_min": 989, "lat": 22.016, "lon": -30.951}, "geometry": {"type": "Polygon", "coordinates": [[[-30.202283292372112, 21.246498675422032], [-31.69931670762789, 22.785101324577965], [-30.202283292372112, 21.246498675422032]]]}}, {"type": "Feature", "properties": {"t": "2028-01-26T16:30:00Z", "ut_min": 990, "lat": 22.373, "lon": -30.523}, "geometry": {"type": "Polygon", "coordinates": [[[-30.5233, 22.3733], [-30.5233, 22.3733], [-30.5233, 22.3733]]]}}, {"type": "Feature", "properties": {"t": "2028-01-26T16:31:00Z", "ut_min": 991, "lat": 22.744, "lon": -30.071}, "geometry": {"type": "Polygon", "coordinates": [[[-29.32456753602568, 21.969718922071348], [-30.817032463974318, 23.518581077928648], [-29.32456753602568, 21.969718922071348]]]}}, {"type": "Feature", "properties": {"t": "2028-01-26T16:32:00Z", "ut_min": 992, "lat": 23.115, "lon": -29.618}, "geometry": {"type": "Polygon", "coordinates": [[[-29.6183, 23.115], [-29.6183, 23.115], [-29.6183, 23.115]]]}}, {"type": "Feature", "properties": {"t": "2028-01-26T16:33:00Z", "ut_min": 993, "lat": 23.5, "lon": -29.138}, "geometry": {"type": "Polygon", "coordinates": [[[-28.394446178733677, 22.71959584353891], [-29.88055382126633, 24.28040415646109], [-28.394446178733677, 22.71959584353891]]]}}, {"type": "Feature", "properties": {"t": "2028-01-26T16:34:00Z", "ut_min": 994, "lat": 23.885, "lon": -28.657}, "geometry": {"type": "Polygon", "coordinates": [[[-28.6567, 23.885], [-28.6567, 23.885], [-28.6567, 23.885]]]}}, {"type": "Feature", "properties": {"t": "2028-01-26T16:35:00Z", "ut_min": 995, "lat": 24.285, "lon": -28.143}, "geometry": {"type": "Polygon", "coordinates": [[[-27.404799388789232, 23.49748715621956], [-28.881900611210764, 25.07251284378044], [-27.404799388789232, 23.49748715621956]]]}}, {"type": "Feature", "properties": {"t": "2028-01-26T16:36:00Z", "ut_min": 996, "lat": 24.685, "lon": -27.63}, "geometry": {"type": "Polygon", "coordinates": [[[-27.63, 24.685], [-27.63, 24.685], [-27.63, 24.685]]]}}, {"type": "Feature", "properties": {"t": "2028-01-26T16:37:00Z", "ut_min": 997, "lat": 25.104, "lon": -27.078}, "geometry": {"type": "Polygon", "coordinates": [[[-26.342943953765282, 24.310489481900206], [-27.81375604623472, 25.89781051809979], [-26.342943953765282, 24.310489481900206]]]}}, {"type": "Feature", "properties": {"t": "2028-01-26T16:38:00Z", "ut_min": 998, "lat": 25.523, "lon": -26.527}, "geometry": {"type": "Polygon", "coordinates": [[[-26.5267, 25.5233], [-26.5267, 25.5233], [-26.5267, 25.5233]]]}}, {"type": "Feature", "properties": {"t": "2028-01-26T16:39:00Z", "ut_min": 999, "lat": 25.962, "lon": -25.93}, "geometry": {"type": "Polygon", "coordinates": [[[-25.200042888362614, 25.160843228638463], [-26.659957111637386, 26.764156771361534], [-25.200042888362614, 25.160843228638463]]]}}, {"type": "Feature", "properties": {"t": "2028-01-26T16:40:00Z", "ut_min": 1000, "lat": 26.402, "lon": -25.333}, "geometry": {"type": "Polygon", "coordinates": [[[-25.3333, 26.4017], [-25.3333, 26.4017], [-25.3333, 26.4017]]]}}, {"type": "Feature", "properties": {"t": "2028-01-26T16:41:00Z", "ut_min": 1001, "lat": 26.865, "lon": -24.682}, "geometry": {"type": "Polygon", "coordinates": [[[-23.957816033592277, 26.054799385042077], [-25.405483966407726, 27.675200614957927], [-23.957816033592277, 26.054799385042077]]]}}, {"type": "Feature", "properties": {"t": "2028-01-26T16:42:00Z", "ut_min": 1002, "lat": 27.328, "lon": -24.03}, "geometry": {"type": "Polygon", "coordinates": [[[-24.03, 27.3283], [-24.03, 27.3283], [-24.03, 27.3283]]]}}, {"type": "Feature", "properties": {"t": "2028-01-26T16:43:00Z", "ut_min": 1003, "lat": 27.822, "lon": -23.312}, "geometry": {"type": "Polygon", "coordinates": [[[-22.593478006855474, 27.00372965116633], [-24.031521993144526, 28.639570348833665], [-22.593478006855474, 27.00372965116633]]]}}, {"type": "Feature", "properties": {"t": "2028-01-26T16:44:00Z", "ut_min": 1004, "lat": 28.315, "lon": -22.595}, "geometry": {"type": "Polygon", "coordinates": [[[-22.595, 28.315], [-22.595, 28.315], [-22.595, 28.315]]]}}, {"type": "Feature", "properties": {"t": "2028-01-26T16:45:00Z", "ut_min": 1005, "lat": 28.843, "lon": -21.793}, "geometry": {"type": "Polygon", "coordinates": [[[-21.082224967791994, 28.015484684613188], [-22.504475032208006, 29.671215315386814], [-21.082224967791994, 28.015484684613188]]]}}, {"type": "Feature", "properties": {"t": "2028-01-26T16:46:00Z", "ut_min": 1006, "lat": 29.372, "lon": -20.992}, "geometry": {"type": "Polygon", "coordinates": [[[-20.9917, 29.3717], [-20.9917, 29.3717], [-20.9917, 29.3717]]]}}, {"type": "Feature", "properties": {"t": "2028-01-26T16:47:00Z", "ut_min": 1007, "lat": 29.946, "lon": -20.08}, "geometry": {"type": "Polygon", "coordinates": [[[-19.377055380872616, 29.10777595746943], [-20.78294461912738, 30.783924042530572], [-19.377055380872616, 29.10777595746943]]]}}, {"type": "Feature", "properties": {"t": "2028-01-26T16:48:00Z", "ut_min": 1008, "lat": 30.52, "lon": -19.168}, "geometry": {"type": "Polygon", "coordinates": [[[-19.1683, 30.52], [-19.1683, 30.52], [-19.1683, 30.52]]]}}, {"type": "Feature", "properties": {"t": "2028-01-26T16:49:00Z", "ut_min": 1009, "lat": 31.155, "lon": -18.105}, "geometry": {"type": "Polygon", "coordinates": [[[-17.412174862792014, 30.30538786455717], [-18.79782513720798, 32.004612135442834], [-17.412174862792014, 30.30538786455717]]]}}, {"type": "Feature", "properties": {"t": "2028-01-26T16:50:00Z", "ut_min": 1010, "lat": 31.79, "lon": -17.042}, "geometry": {"type": "Polygon", "coordinates": [[[-17.0417, 31.79], [-17.0417, 31.79], [-17.0417, 31.79]]]}}, {"type": "Feature", "properties": {"t": "2028-01-26T16:51:00Z", "ut_min": 1011, "lat": 32.515, "lon": -15.752}, "geometry": {"type": "Polygon", "coordinates": [[[-15.070310697403876, 31.652894353907143], [-16.433089302596123, 33.37710564609286], [-15.070310697403876, 31.652894353907143]]]}}, {"type": "Feature", "properties": {"t": "2028-01-26T16:52:00Z", "ut_min": 1012, "lat": 33.24, "lon": -14.462}, "geometry": {"type": "Polygon", "coordinates": [[[-14.4617, 33.24], [-14.4617, 33.24], [-14.4617, 33.24]]]}}, {"type": "Feature", "properties": {"t": "2028-01-26T16:53:00Z", "ut_min": 1013, "lat": 34.115, "lon": -12.777}, "geometry": {"type": "Polygon", "coordinates": [[[-12.112347164904945, 33.23743959901052], [-13.442652835095055, 34.99256040098948], [-12.112347164904945, 33.23743959901052]]]}}, {"type": "Feature", "properties": {"t": "2028-01-26T16:54:00Z", "ut_min": 1014, "lat": 34.99, "lon": -11.093}, "geometry": {"type": "Polygon", "coordinates": [[[-11.0933, 34.99], [-11.0933, 34.99], [-11.0933, 34.99]]]}}, {"type": "Feature", "properties": {"t": "2028-01-26T16:55:00Z", "ut_min": 1015, "lat": 36.228, "lon": -8.428}, "geometry": {"type": "Polygon", "coordinates": [[[-7.786569782644718, 35.330539788956536], [-9.068430217355282, 37.12616021104348], [-7.786569782644718, 35.330539788956536]]]}}, {"type": "Feature", "properties": {"t": "2028-01-26T16:56:00Z", "ut_min": 1016, "lat": 37.467, "lon": -5.762}, "geometry": {"type": "Polygon", "coordinates": [[[-5.7617, 37.4667], [-5.7617, 37.4667], [-5.7617, 37.4667]]]}}]}