{"type": "FeatureCollection", "source": "NASA GSFC - Path Table SE2027Aug02T (limites N/S WGS84)", "features": [{"type": "Feature", "properties": {"name": "Franja de totalidad 2027", "source": "NASA GSFC"}, "geometry": {"type": "Polygon", "coordinates": [[[-34.225, 30.035], [-28.79, 31.408333333333335], [-24.871666666666666, 32.27333333333333], [-21.648333333333333, 32.89666666666667], [-18.851666666666667, 33.37], [-16.35, 33.736666666666665], [-14.07, 34.02166666666667], [-11.963333333333333, 34.24166666666667], [-9.998333333333333, 34.406666666666666], [-8.151666666666667, 34.528333333333336], [-6.406666666666666, 34.608333333333334], [-4.75, 34.655], [-3.17, 34.67], [-1.6600000000000001, 34.65833333333333], [-0.21166666666666664, 34.62], [1.18, 34.56], [2.5183333333333335, 34.47833333333333], [3.8116666666666665, 34.376666666666665], [5.06, 34.25666666666667], [6.266666666666667, 34.12], [7.4366666666666665, 33.968333333333334], [8.571666666666667, 33.80166666666667], [9.673333333333334, 33.62], [10.743333333333334, 33.425], [11.783333333333333, 33.218333333333334], [12.796666666666667, 32.998333333333335], [13.783333333333333, 32.76833333333333], [14.746666666666666, 32.526666666666664], [15.685, 32.275], [16.6, 32.01166666666666], [17.495, 31.74], [18.37, 31.46], [19.226666666666667, 31.17], [20.063333333333333, 30.871666666666666], [20.883333333333333, 30.566666666666666], [21.688333333333333, 30.251666666666665], [22.475, 29.93], [23.248333333333335, 29.6], [24.006666666666668, 29.261666666666667], [24.751666666666665, 28.918333333333333], [25.485, 28.566666666666666], [26.205, 28.208333333333332], [26.913333333333334, 27.843333333333334], [27.611666666666668, 27.471666666666668], [28.298333333333332, 27.093333333333334], [28.975, 26.71], [29.643333333333334, 26.318333333333335], [30.303333333333335, 25.921666666666667], [30.955, 25.52], [31.6, 25.11], [32.236666666666665, 24.695], [32.86666666666667, 24.275], [33.49166666666667, 23.846666666666668], [34.11, 23.415], [34.725, 22.975], [35.335, 22.531666666666666], [35.94, 22.08], [36.54333333333334, 21.623333333333335], [37.14333333333333, 21.161666666666665], [37.74, 20.693333333333335], [38.336666666666666, 20.218333333333334], [38.931666666666665, 19.736666666666668], [39.525, 19.25], [40.12, 18.756666666666668], [40.715, 18.256666666666668], [41.31166666666667, 17.751666666666665], [41.91, 17.238333333333333], [42.51166666666666, 16.718333333333334], [43.115, 16.191666666666666], [43.725, 15.658333333333333], [44.33833333333333, 15.118333333333334], [44.95666666666666, 14.57], [45.583333333333336, 14.013333333333334], [46.21666666666667, 13.45], [46.86, 12.876666666666667], [47.51166666666666, 12.295], [48.175, 11.705], [48.85, 11.106666666666667], [49.54, 10.496666666666666], [50.24333333333333, 9.876666666666667], [50.965, 9.246666666666666], [51.705, 8.605], [52.46666666666667, 7.95], [53.251666666666665, 7.283333333333333], [54.06166666666667, 6.601666666666667], [54.9, 5.906666666666666], [55.77333333333333, 5.193333333333333], [56.681666666666665, 4.463333333333333], [57.63166666666667, 3.7133333333333334], [58.63, 2.9433333333333334], [59.681666666666665, 2.15], [60.79666666666667, 1.3283333333333334], [61.985, 0.47833333333333333], [63.26, -0.4083333333333333], [64.64, -1.3333333333333333], [66.14833333333333, -2.3083333333333336], [67.81833333333333, -3.3449999999999998], [69.70333333333333, -4.456666666666667], [71.88333333333334, -5.675], [74.51333333333334, -7.046666666666667], [77.93833333333333, -8.686666666666667], [81.26666666666667, -7.991666666666667], [77.27333333333333, -6.138333333333334], [74.39166666666667, -4.663333333333333], [72.06333333333333, -3.38], [70.08166666666666, -2.2183333333333333], [68.34, -1.145], [66.77833333333334, -0.14], [65.35833333333333, 0.8133333333333332], [64.04833333333333, 1.7233333333333332], [62.833333333333336, 2.595], [61.695, 3.435], [60.62166666666667, 4.248333333333333], [59.60666666666667, 5.036666666666667], [58.641666666666666, 5.801666666666667], [57.718333333333334, 6.548333333333334], [56.833333333333336, 7.275], [55.98166666666667, 7.986666666666666], [55.16, 8.681666666666667], [54.365, 9.363333333333333], [53.595, 10.033333333333333], [52.845, 10.688333333333333], [52.115, 11.333333333333334], [51.401666666666664, 11.966666666666667], [50.70333333333333, 12.59], [50.01833333333333, 13.203333333333333], [49.346666666666664, 13.806666666666667], [48.685, 14.401666666666667], [48.035, 14.988333333333333], [47.391666666666666, 15.566666666666666], [46.75666666666667, 16.136666666666667], [46.126666666666665, 16.7], [45.50333333333333, 17.255], [44.885, 17.803333333333335], [44.27, 18.345], [43.65833333333333, 18.878333333333334], [43.04833333333333, 19.406666666666666], [42.44, 19.926666666666666], [41.833333333333336, 20.441666666666666], [41.22666666666667, 20.95], [40.61833333333333, 21.451666666666668], [40.01, 21.948333333333334], [39.4, 22.438333333333333], [38.788333333333334, 22.923333333333332], [38.17166666666667, 23.4], [37.553333333333335, 23.873333333333335], [36.93, 24.338333333333335], [36.303333333333335, 24.8], [35.67, 25.253333333333334], [35.031666666666666, 25.703333333333333], [34.38666666666666, 26.145], [33.735, 26.581666666666667], [33.07666666666667, 27.013333333333332], [32.40833333333333, 27.436666666666667], [31.733333333333334, 27.856666666666666], [31.048333333333332, 28.268333333333334], [30.35333333333333, 28.675], [29.648333333333333, 29.073333333333334], [28.933333333333334, 29.466666666666665], [28.205, 29.85333333333333], [27.465, 30.233333333333334], [26.711666666666666, 30.605], [25.946666666666665, 30.971666666666668], [25.165, 31.33], [24.37, 31.68], [23.558333333333334, 32.02333333333333], [22.73, 32.358333333333334], [21.885, 32.685], [21.02166666666667, 33.00333333333333], [20.138333333333332, 33.31166666666667], [19.236666666666668, 33.61333333333333], [18.311666666666667, 33.903333333333336], [17.366666666666667, 34.18333333333333], [16.398333333333333, 34.455], [15.405, 34.71333333333333], [14.385, 34.961666666666666], [13.34, 35.19833333333333], [12.265, 35.42333333333333], [11.161666666666667, 35.63333333333333], [10.025, 35.83166666666666], [8.856666666666667, 36.013333333333335], [7.65, 36.181666666666665], [6.406666666666666, 36.33166666666666], [5.123333333333333, 36.465], [3.795, 36.58], [2.42, 36.67333333333333], [0.9933333333333334, 36.74666666666667], [-0.48666666666666664, 36.79666666666667], [-2.0283333333333333, 36.82], [-3.6366666666666667, 36.815], [-5.32, 36.78], [-7.086666666666667, 36.708333333333336], [-8.95, 36.6], [-10.921666666666667, 36.445], [-13.023333333333333, 36.24], [-15.281666666666666, 35.971666666666664], [-17.735, 35.62833333333333], [-20.44, 35.18833333333333], [-23.491666666666667, 34.62], [-27.066666666666666, 33.861666666666665], [-31.583333333333332, 32.77], [-38.89333333333333, 30.721666666666668], [-34.225, 30.035]]]}}]}