{"type": "FeatureCollection", "name": "Simulacion umbra eclipse 2027 (footprints 1 min)", "source": "Elementos besselianos NASA GSFC (t0=10h) + tabla de trayectoria; umbra = mag>=1", "features": [{"type": "Feature", "properties": {"t": "2027-08-02T08:26:00Z", "ut_min": 506, "lat": 30.488, "lon": -36.233}, "geometry": {"type": "Polygon", "coordinates": [[[-39.273, 28.738], [-39.193, 28.738], [-38.473, 28.938], [-38.153, 29.038], [-36.633, 29.538], [-36.073, 29.738], [-35.433, 29.988], [-34.793, 30.288], [-34.553, 30.438], [-34.313, 30.588], [-34.233, 30.688], [-34.153, 30.788], [-34.153, 30.938], [-34.233, 30.988], [-34.313, 31.038], [-34.473, 31.088], [-35.913, 31.088], [-36.313, 31.038], [-37.273, 30.888], [-37.833, 30.788], [-38.313, 30.688], [-39.193, 30.488], [-39.273, 30.438], [-39.273, 28.738]]]}}, {"type": "Feature", "properties": {"t": "2027-08-02T08:27:00Z", "ut_min": 507, "lat": 31.303, "lon": -33.162}, "geometry": {"type": "Polygon", "coordinates": [[[-36.202, 29.603], [-35.962, 29.653], [-34.842, 29.953], [-34.202, 30.153], [-33.242, 30.453], [-32.922, 30.553], [-32.522, 30.703], [-32.042, 30.903], [-31.722, 31.053], [-31.562, 31.153], [-31.482, 31.203], [-31.322, 31.303], [-31.162, 31.453], [-31.082, 31.603], [-31.082, 31.703], [-31.162, 31.803], [-31.242, 31.853], [-31.562, 31.953], [-31.882, 32.003], [-32.922, 32.003], [-33.482, 31.953], [-33.962, 31.903], [-34.282, 31.853], [-34.922, 31.753], [-35.642, 31.603], [-36.122, 31.503], [-36.202, 31.453], [-36.202, 29.603]]]}}, {"type": "Feature", "properties": {"t": "2027-08-02T08:28:00Z", "ut_min": 508, "lat": 32.118, "lon": -30.09}, "geometry": {"type": "Polygon", "coordinates": [[[-33.13, 30.468], [-32.97, 30.468], [-32.33, 30.618], [-31.93, 30.718], [-31.37, 30.868], [-30.57, 31.118], [-30.25, 31.218], [-29.85, 31.368], [-29.61, 31.468], [-29.29, 31.618], [-28.89, 31.868], [-28.73, 32.018], [-28.65, 32.168], [-28.65, 32.318], [-28.73, 32.418], [-28.81, 32.468], [-28.89, 32.518], [-29.21, 32.618], [-29.53, 32.668], [-30.97, 32.668], [-31.45, 32.618], [-32.25, 32.518], [-32.81, 32.418], [-33.05, 32.368], [-33.13, 32.318], [-33.13, 30.468]]]}}, {"type": "Feature", "properties": {"t": "2027-08-02T08:29:00Z", "ut_min": 509, "lat": 32.602, "lon": -27.997}, "geometry": {"type": "Polygon", "coordinates": [[[-31.037, 31.002], [-30.237, 31.152], [-29.997, 31.202], [-29.357, 31.352], [-28.957, 31.452], [-28.797, 31.502], [-27.997, 31.752], [-27.837, 31.802], [-27.357, 32.002], [-27.197, 32.102], [-26.797, 32.352], [-26.717, 32.402], [-26.637, 32.502], [-26.557, 32.652], [-26.557, 32.802], [-26.637, 32.902], [-26.797, 33.002], [-26.877, 33.052], [-27.197, 33.152], [-27.517, 33.202], [-29.277, 33.202], [-29.757, 33.152], [-30.717, 33.002], [-30.957, 32.952], [-31.037, 32.902], [-31.037, 31.002]]]}}, {"type": "Feature", "properties": {"t": "2027-08-02T08:30:00Z", "ut_min": 510, "lat": 33.085, "lon": -25.903}, "geometry": {"type": "Polygon", "coordinates": [[[-28.943, 31.535], [-28.863, 31.535], [-28.223, 31.635], [-27.983, 31.685], [-27.743, 31.735], [-27.023, 31.885], [-26.463, 32.035], [-26.143, 32.135], [-25.743, 32.285], [-25.503, 32.385], [-24.863, 32.785], [-24.703, 32.985], [-24.703, 33.235], [-24.783, 33.335], [-24.943, 33.435], [-25.023, 33.485], [-25.343, 33.585], [-25.583, 33.635], [-25.983, 33.685], [-27.263, 33.685], [-27.823, 33.635], [-28.223, 33.585], [-28.863, 33.485], [-28.943, 33.435], [-28.943, 31.535]]]}}, {"type": "Feature", "properties": {"t": "2027-08-02T08:31:00Z", "ut_min": 511, "lat": 33.428, "lon": -24.211}, "geometry": {"type": "Polygon", "coordinates": [[[-27.251, 31.978], [-27.011, 31.978], [-26.611, 32.028], [-26.211, 32.078], [-25.651, 32.178], [-25.411, 32.227], [-25.171, 32.278], [-24.611, 32.428], [-24.451, 32.477], [-24.291, 32.528], [-23.891, 32.678], [-23.571, 32.828], [-23.331, 32.977], [-23.091, 33.178], [-23.011, 33.328], [-23.011, 33.578], [-23.091, 33.678], [-23.331, 33.828], [-23.411, 33.878], [-23.571, 33.928], [-23.731, 33.977], [-23.971, 34.028], [-24.371, 34.078], [-25.731, 34.078], [-26.291, 34.028], [-27.251, 33.878], [-27.251, 31.978]]]}}, {"type": "Feature", "properties": {"t": "2027-08-02T08:32:00Z", "ut_min": 512, "lat": 33.77, "lon": -22.518}, "geometry": {"type": "Polygon", "coordinates": [[[-25.558, 32.37], [-25.078, 32.37], [-24.278, 32.47], [-23.958, 32.52], [-23.478, 32.62], [-23.078, 32.72], [-22.598, 32.87], [-22.438, 32.92], [-22.198, 33.02], [-22.118, 33.07], [-22.038, 33.12], [-21.638, 33.37], [-21.558, 33.47], [-21.478, 33.57], [-21.478, 33.92], [-21.558, 34.02], [-21.798, 34.17], [-22.038, 34.27], [-22.438, 34.37], [-22.838, 34.42], [-24.358, 34.42], [-25.158, 34.32], [-25.398, 34.27], [-25.558, 34.22], [-25.558, 32.37]]]}}, {"type": "Feature", "properties": {"t": "2027-08-02T08:33:00Z", "ut_min": 513, "lat": 34.029, "lon": -21.06}, "geometry": {"type": "Polygon", "coordinates": [[[-24.1, 32.679], [-23.7, 32.679], [-23.06, 32.729], [-22.66, 32.779], [-22.34, 32.829], [-22.1, 32.879], [-21.62, 32.979], [-21.14, 33.129], [-20.98, 33.179], [-20.74, 33.279], [-20.58, 33.379], [-20.18, 33.629], [-20.1, 33.679], [-20.02, 33.779], [-20.02, 34.179], [-20.1, 34.279], [-20.5, 34.529], [-20.66, 34.579], [-21.14, 34.679], [-21.46, 34.729], [-22.9, 34.729], [-23.3, 34.679], [-23.7, 34.629], [-23.94, 34.579], [-24.1, 34.529], [-24.1, 32.679]]]}}, {"type": "Feature", "properties": {"t": "2027-08-02T08:34:00Z", "ut_min": 514, "lat": 34.288, "lon": -19.602}, "geometry": {"type": "Polygon", "coordinates": [[[-22.642, 32.988], [-21.762, 32.988], [-21.282, 33.038], [-20.882, 33.088], [-20.642, 33.138], [-20.162, 33.238], [-20.002, 33.288], [-19.682, 33.388], [-19.522, 33.438], [-19.282, 33.538], [-18.882, 33.788], [-18.802, 33.838], [-18.642, 34.038], [-18.642, 34.438], [-18.802, 34.588], [-18.962, 34.688], [-19.042, 34.738], [-19.362, 34.838], [-19.522, 34.888], [-19.762, 34.938], [-20.082, 34.988], [-21.602, 34.988], [-22.082, 34.938], [-22.642, 34.838], [-22.642, 32.988]]]}}, {"type": "Feature", "properties": {"t": "2027-08-02T08:35:00Z", "ut_min": 515, "lat": 34.488, "lon": -18.303}, "geometry": {"type": "Polygon", "coordinates": [[[-21.343, 33.238], [-20.303, 33.238], [-19.743, 33.288], [-19.103, 33.388], [-18.863, 33.438], [-18.543, 33.538], [-18.223, 33.638], [-18.063, 33.688], [-17.903, 33.788], [-17.503, 34.038], [-17.423, 34.138], [-17.343, 34.238], [-17.343, 34.638], [-17.423, 34.738], [-17.743, 34.938], [-17.823, 34.988], [-18.143, 35.088], [-18.303, 35.138], [-18.543, 35.188], [-18.943, 35.238], [-20.223, 35.238], [-20.703, 35.188], [-21.023, 35.138], [-21.263, 35.088], [-21.343, 35.038], [-21.343, 33.238]]]}}, {"type": "Feature", "properties": {"t": "2027-08-02T08:36:00Z", "ut_min": 516, "lat": 34.688, "lon": -17.003}, "geometry": {"type": "Polygon", "coordinates": [[[-20.043, 33.488], [-18.443, 33.488], [-18.123, 33.538], [-17.803, 33.588], [-17.563, 33.638], [-17.163, 33.738], [-16.763, 33.888], [-16.523, 34.038], [-16.363, 34.138], [-16.283, 34.188], [-16.203, 34.288], [-16.123, 34.388], [-16.043, 34.538], [-16.043, 34.688], [-16.123, 34.838], [-16.203, 34.938], [-16.603, 35.188], [-16.843, 35.288], [-17.083, 35.338], [-17.563, 35.438], [-19.163, 35.438], [-19.803, 35.338], [-20.043, 35.288], [-20.043, 33.488]]]}}, {"type": "Feature", "properties": {"t": "2027-08-02T08:37:00Z", "ut_min": 517, "lat": 34.845, "lon": -15.822}, "geometry": {"type": "Polygon", "coordinates": [[[-18.862, 33.745], [-18.782, 33.695], [-18.222, 33.645], [-17.582, 33.645], [-17.022, 33.695], [-16.622, 33.745], [-16.382, 33.795], [-15.982, 33.895], [-15.582, 34.045], [-15.502, 34.095], [-15.262, 34.245], [-15.102, 34.345], [-14.942, 34.545], [-14.862, 34.695], [-14.862, 34.845], [-14.942, 34.995], [-15.022, 35.095], [-15.182, 35.245], [-15.262, 35.295], [-15.502, 35.395], [-15.982, 35.545], [-16.222, 35.595], [-16.622, 35.645], [-17.822, 35.645], [-18.222, 35.595], [-18.462, 35.545], [-18.702, 35.495], [-18.862, 35.445], [-18.862, 33.745]]]}}, {"type": "Feature", "properties": {"t": "2027-08-02T08:38:00Z", "ut_min": 518, "lat": 35.002, "lon": -14.64}, "geometry": {"type": "Polygon", "coordinates": [[[-17.68, 33.902], [-17.28, 33.852], [-15.84, 33.852], [-15.44, 33.902], [-15.2, 33.952], [-14.96, 34.002], [-14.64, 34.102], [-14.4, 34.202], [-14.16, 34.352], [-14.0, 34.452], [-13.92, 34.502], [-13.84, 34.602], [-13.76, 34.752], [-13.76, 35.052], [-13.84, 35.202], [-14.0, 35.352], [-14.08, 35.402], [-14.24, 35.502], [-14.48, 35.602], [-14.64, 35.652], [-14.8, 35.702], [-15.04, 35.752], [-15.36, 35.802], [-16.8, 35.802], [-17.12, 35.752], [-17.6, 35.652], [-17.68, 35.602], [-17.68, 33.902]]]}}, {"type": "Feature", "properties": {"t": "2027-08-02T08:39:00Z", "ut_min": 519, "lat": 35.123, "lon": -13.55}, "geometry": {"type": "Polygon", "coordinates": [[[-16.59, 34.123], [-16.51, 34.073], [-16.19, 34.023], [-15.79, 33.973], [-14.91, 33.973], [-14.43, 34.023], [-14.11, 34.073], [-13.71, 34.172], [-13.55, 34.223], [-13.31, 34.323], [-13.15, 34.422], [-12.83, 34.623], [-12.75, 34.723], [-12.67, 34.873], [-12.67, 35.172], [-12.75, 35.323], [-12.83, 35.422], [-12.91, 35.473], [-12.99, 35.523], [-13.15, 35.623], [-13.23, 35.672], [-13.47, 35.773], [-13.63, 35.823], [-13.87, 35.873], [-14.11, 35.922], [-14.43, 35.973], [-15.47, 35.973], [-15.87, 35.922], [-16.19, 35.873], [-16.43, 35.823], [-16.59, 35.773], [-16.59, 34.123]]]}}, {"type": "Feature", "properties": {"t": "2027-08-02T08:40:00Z", "ut_min": 520, "lat": 35.243, "lon": -12.46}, "geometry": {"type": "Polygon", "coordinates": [[[-15.5, 34.293], [-15.42, 34.243], [-15.26, 34.193], [-14.94, 34.143], [-14.38, 34.093], [-13.82, 34.093], [-13.34, 34.143], [-13.02, 34.193], [-12.78, 34.243], [-12.62, 34.293], [-12.46, 34.343], [-12.22, 34.443], [-11.82, 34.693], [-11.66, 34.893], [-11.58, 35.093], [-11.58, 35.193], [-11.66, 35.393], [-11.74, 35.493], [-11.9, 35.643], [-12.06, 35.743], [-12.3, 35.843], [-12.54, 35.943], [-12.94, 36.043], [-13.26, 36.093], [-14.54, 36.093], [-14.94, 36.043], [-15.18, 35.993], [-15.5, 35.893], [-15.5, 34.293]]]}}, {"type": "Feature", "properties": {"t": "2027-08-02T08:41:00Z", "ut_min": 521, "lat": 35.336, "lon": -11.445}, "geometry": {"type": "Polygon", "coordinates": [[[-14.485, 34.436], [-14.405, 34.386], [-14.165, 34.336], [-13.925, 34.286], [-13.605, 34.236], [-12.405, 34.236], [-12.005, 34.286], [-11.605, 34.386], [-11.445, 34.436], [-11.205, 34.536], [-11.125, 34.586], [-10.885, 34.736], [-10.805, 34.786], [-10.645, 34.986], [-10.565, 35.186], [-10.565, 35.286], [-10.645, 35.486], [-10.805, 35.686], [-11.125, 35.886], [-11.205, 35.936], [-11.845, 36.136], [-12.085, 36.186], [-12.485, 36.236], [-13.285, 36.236], [-13.685, 36.186], [-14.005, 36.136], [-14.405, 36.036], [-14.485, 35.986], [-14.485, 34.436]]]}}, {"type": "Feature", "properties": {"t": "2027-08-02T08:42:00Z", "ut_min": 522, "lat": 35.428, "lon": -10.43}, "geometry": {"type": "Polygon", "coordinates": [[[-13.47, 34.578], [-13.39, 34.528], [-13.07, 34.428], [-12.83, 34.378], [-12.43, 34.328], [-11.31, 34.328], [-10.99, 34.378], [-10.75, 34.428], [-10.43, 34.528], [-10.19, 34.628], [-10.11, 34.678], [-9.95, 34.778], [-9.87, 34.828], [-9.71, 34.978], [-9.63, 35.128], [-9.63, 35.528], [-9.79, 35.728], [-9.95, 35.878], [-10.11, 35.978], [-10.35, 36.078], [-10.83, 36.228], [-11.07, 36.278], [-11.39, 36.328], [-12.43, 36.328], [-12.75, 36.278], [-12.99, 36.228], [-13.23, 36.178], [-13.39, 36.128], [-13.47, 36.078], [-13.47, 34.578]]]}}, {"type": "Feature", "properties": {"t": "2027-08-02T08:43:00Z", "ut_min": 523, "lat": 35.497, "lon": -9.476}, "geometry": {"type": "Polygon", "coordinates": [[[-12.516, 34.697], [-12.436, 34.647], [-12.116, 34.547], [-11.636, 34.447], [-11.236, 34.397], [-10.516, 34.397], [-10.116, 34.447], [-9.796, 34.497], [-9.636, 34.547], [-9.476, 34.597], [-9.236, 34.697], [-9.076, 34.797], [-8.916, 34.897], [-8.756, 35.047], [-8.676, 35.197], [-8.676, 35.597], [-8.756, 35.697], [-8.916, 35.897], [-8.996, 35.947], [-9.236, 36.097], [-9.476, 36.197], [-9.956, 36.347], [-10.276, 36.397], [-10.836, 36.447], [-11.076, 36.447], [-11.636, 36.397], [-11.876, 36.347], [-12.116, 36.297], [-12.436, 36.197], [-12.516, 36.147], [-12.516, 34.697]]]}}, {"type": "Feature", "properties": {"t": "2027-08-02T08:44:00Z", "ut_min": 524, "lat": 35.565, "lon": -8.522}, "geometry": {"type": "Polygon", "coordinates": [[[-11.562, 34.815], [-11.402, 34.715], [-11.242, 34.665], [-11.082, 34.615], [-10.842, 34.565], [-10.602, 34.515], [-10.202, 34.465], [-9.562, 34.465], [-9.082, 34.515], [-8.842, 34.565], [-8.522, 34.665], [-8.282, 34.765], [-8.202, 34.815], [-8.042, 34.915], [-7.962, 34.965], [-7.882, 35.065], [-7.802, 35.165], [-7.722, 35.315], [-7.722, 35.565], [-7.802, 35.765], [-7.882, 35.865], [-8.122, 36.065], [-8.202, 36.115], [-8.282, 36.165], [-8.522, 36.265], [-8.842, 36.365], [-9.002, 36.415], [-9.242, 36.465], [-9.642, 36.515], [-10.362, 36.515], [-10.762, 36.465], [-11.002, 36.415], [-11.162, 36.365], [-11.482, 36.265], [-11.562, 36.215], [-11.562, 34.815]]]}}, {"type": "Feature", "properties": {"t": "2027-08-02T08:45:00Z", "ut_min": 525, "lat": 35.612, "lon": -7.622}, "geometry": {"type": "Polygon", "coordinates": [[[-10.662, 34.912], [-10.582, 34.862], [-10.342, 34.762], [-10.022, 34.662], [-9.542, 34.562], [-8.902, 34.512], [-8.822, 34.512], [-8.262, 34.562], [-7.942, 34.612], [-7.782, 34.662], [-7.622, 34.712], [-7.382, 34.812], [-7.062, 35.012], [-6.902, 35.212], [-6.822, 35.362], [-6.822, 35.612], [-6.902, 35.812], [-6.982, 35.912], [-7.142, 36.062], [-7.222, 36.112], [-7.382, 36.212], [-7.462, 36.262], [-7.702, 36.362], [-8.022, 36.462], [-8.262, 36.512], [-8.582, 36.562], [-9.622, 36.562], [-9.942, 36.512], [-10.182, 36.462], [-10.342, 36.412], [-10.582, 36.312], [-10.662, 36.262], [-10.662, 34.912]]]}}, {"type": "Feature", "properties": {"t": "2027-08-02T08:46:00Z", "ut_min": 526, "lat": 35.66, "lon": -6.722}, "geometry": {"type": "Polygon", "coordinates": [[[-9.762, 35.01], [-9.602, 34.91], [-9.362, 34.81], [-9.202, 34.76], [-9.042, 34.71], [-8.802, 34.66], [-8.562, 34.61], [-7.362, 34.61], [-7.042, 34.66], [-6.722, 34.76], [-6.482, 34.86], [-6.402, 34.91], [-6.242, 35.01], [-6.082, 35.16], [-6.002, 35.26], [-5.922, 35.51], [-5.922, 35.56], [-6.002, 35.81], [-6.162, 36.01], [-6.322, 36.16], [-6.402, 36.21], [-6.562, 36.31], [-6.802, 36.41], [-6.962, 36.46], [-7.282, 36.56], [-7.602, 36.61], [-8.802, 36.61], [-9.042, 36.56], [-9.282, 36.51], [-9.442, 36.46], [-9.682, 36.36], [-9.762, 36.31], [-9.762, 35.01]]]}}, {"type": "Feature", "properties": {"t": "2027-08-02T08:47:00Z", "ut_min": 527, "lat": 35.689, "lon": -5.866}, "geometry": {"type": "Polygon", "coordinates": [[[-8.906, 35.089], [-8.746, 34.989], [-8.266, 34.789], [-8.106, 34.739], [-7.866, 34.689], [-7.546, 34.639], [-6.506, 34.639], [-6.186, 34.689], [-6.026, 34.739], [-5.866, 34.789], [-5.626, 34.889], [-5.466, 34.989], [-5.386, 35.039], [-5.226, 35.189], [-5.146, 35.339], [-5.066, 35.589], [-5.146, 35.839], [-5.386, 36.139], [-5.786, 36.389], [-6.026, 36.489], [-6.186, 36.539], [-6.346, 36.589], [-6.586, 36.639], [-6.986, 36.689], [-7.706, 36.689], [-8.026, 36.639], [-8.266, 36.589], [-8.426, 36.539], [-8.586, 36.489], [-8.826, 36.389], [-8.906, 36.339], [-8.906, 35.089]]]}}, {"type": "Feature", "properties": {"t": "2027-08-02T08:48:00Z", "ut_min": 528, "lat": 35.718, "lon": -5.01}, "geometry": {"type": "Polygon", "coordinates": [[[-8.05, 35.168], [-7.89, 35.068], [-7.73, 34.968], [-7.49, 34.868], [-7.33, 34.818], [-7.17, 34.768], [-6.69, 34.668], [-5.65, 34.668], [-5.33, 34.718], [-5.01, 34.818], [-4.77, 34.918], [-4.53, 35.068], [-4.29, 35.368], [-4.29, 35.818], [-4.37, 35.968], [-4.45, 36.068], [-4.61, 36.218], [-4.85, 36.368], [-4.93, 36.418], [-5.17, 36.518], [-5.49, 36.618], [-5.73, 36.668], [-6.05, 36.718], [-6.93, 36.718], [-7.25, 36.668], [-7.41, 36.618], [-7.73, 36.518], [-7.81, 36.468], [-7.97, 36.368], [-8.05, 36.318], [-8.05, 35.168]]]}}, {"type": "Feature", "properties": {"t": "2027-08-02T08:49:00Z", "ut_min": 529, "lat": 35.731, "lon": -4.196}, "geometry": {"type": "Polygon", "coordinates": [[[-7.236, 35.281], [-7.156, 35.181], [-6.916, 35.031], [-6.596, 34.881], [-6.276, 34.781], [-6.036, 34.731], [-5.716, 34.681], [-4.836, 34.681], [-4.516, 34.731], [-4.356, 34.781], [-4.196, 34.831], [-3.956, 34.931], [-3.796, 35.031], [-3.716, 35.081], [-3.636, 35.181], [-3.476, 35.381], [-3.476, 35.831], [-3.556, 35.981], [-3.636, 36.081], [-3.716, 36.181], [-3.796, 36.231], [-3.956, 36.331], [-4.196, 36.481], [-4.436, 36.581], [-4.596, 36.631], [-5.076, 36.731], [-6.196, 36.731], [-6.436, 36.681], [-6.756, 36.581], [-6.916, 36.531], [-6.996, 36.481], [-7.236, 36.331], [-7.236, 35.281]]]}}, {"type": "Feature", "properties": {"t": "2027-08-02T08:50:00Z", "ut_min": 530, "lat": 35.743, "lon": -3.382}, "geometry": {"type": "Polygon", "coordinates": [[[-6.422, 35.343], [-6.342, 35.243], [-6.262, 35.193], [-6.022, 35.043], [-5.942, 34.993], [-5.702, 34.893], [-5.382, 34.793], [-5.142, 34.743], [-4.822, 34.693], [-4.022, 34.693], [-3.702, 34.743], [-3.542, 34.793], [-3.382, 34.843], [-3.142, 34.943], [-2.982, 35.043], [-2.822, 35.193], [-2.742, 35.293], [-2.662, 35.443], [-2.662, 35.843], [-2.742, 35.993], [-2.822, 36.093], [-2.982, 36.243], [-3.142, 36.343], [-3.382, 36.493], [-3.622, 36.593], [-3.942, 36.693], [-4.182, 36.743], [-4.662, 36.793], [-4.982, 36.793], [-5.462, 36.743], [-5.862, 36.643], [-6.102, 36.543], [-6.182, 36.493], [-6.422, 36.343], [-6.422, 35.343]]]}}, {"type": "Feature", "properties": {"t": "2027-08-02T08:51:00Z", "ut_min": 531, "lat": 35.741, "lon": -2.603}, "geometry": {"type": "Polygon", "coordinates": [[[-5.643, 35.391], [-5.482, 35.241], [-5.162, 35.041], [-5.082, 34.991], [-4.843, 34.891], [-4.683, 34.841], [-4.522, 34.791], [-4.282, 34.741], [-3.963, 34.691], [-3.243, 34.691], [-3.002, 34.741], [-2.763, 34.791], [-2.603, 34.841], [-2.362, 34.941], [-2.203, 35.041], [-2.042, 35.191], [-1.962, 35.291], [-1.883, 35.441], [-1.883, 35.841], [-1.962, 35.991], [-2.042, 36.091], [-2.123, 36.191], [-2.362, 36.341], [-2.522, 36.441], [-2.683, 36.541], [-2.922, 36.641], [-3.322, 36.741], [-3.643, 36.791], [-4.362, 36.791], [-4.683, 36.741], [-4.922, 36.691], [-5.082, 36.641], [-5.402, 36.491], [-5.482, 36.441], [-5.643, 36.291], [-5.643, 35.391]]]}}, {"type": "Feature", "properties": {"t": "2027-08-02T08:52:00Z", "ut_min": 532, "lat": 35.738, "lon": -1.823}, "geometry": {"type": "Polygon", "coordinates": [[[-4.863, 35.438], [-4.703, 35.288], [-4.463, 35.088], [-4.143, 34.938], [-3.903, 34.838], [-3.503, 34.738], [-3.183, 34.688], [-2.463, 34.688], [-2.143, 34.738], [-1.983, 34.788], [-1.823, 34.838], [-1.503, 34.988], [-1.263, 35.188], [-1.103, 35.488], [-1.103, 35.788], [-1.183, 35.938], [-1.263, 36.088], [-1.423, 36.238], [-1.583, 36.338], [-1.743, 36.438], [-1.823, 36.488], [-1.903, 36.538], [-2.143, 36.638], [-2.303, 36.688], [-2.783, 36.788], [-3.663, 36.788], [-3.983, 36.738], [-4.143, 36.688], [-4.303, 36.638], [-4.383, 36.588], [-4.623, 36.438], [-4.783, 36.338], [-4.863, 36.238], [-4.863, 35.438]]]}}, {"type": "Feature", "properties": {"t": "2027-08-02T08:53:00Z", "ut_min": 533, "lat": 35.723, "lon": -1.077}, "geometry": {"type": "Polygon", "coordinates": [[[-4.117, 35.523], [-3.957, 35.323], [-3.797, 35.173], [-3.717, 35.123], [-3.557, 35.023], [-3.317, 34.923], [-3.077, 34.823], [-2.917, 34.773], [-2.677, 34.723], [-2.277, 34.673], [-1.797, 34.673], [-1.477, 34.723], [-1.237, 34.773], [-1.077, 34.823], [-0.757, 34.973], [-0.517, 35.173], [-0.357, 35.473], [-0.357, 35.773], [-0.517, 36.073], [-0.597, 36.173], [-0.837, 36.373], [-0.917, 36.423], [-1.237, 36.573], [-1.557, 36.673], [-1.717, 36.723], [-1.957, 36.773], [-2.997, 36.773], [-3.237, 36.723], [-3.397, 36.673], [-3.557, 36.623], [-3.717, 36.523], [-3.877, 36.423], [-3.957, 36.373], [-4.037, 36.273], [-4.117, 36.173], [-4.117, 35.523]]]}}, {"type": "Feature", "properties": {"t": "2027-08-02T08:54:00Z", "ut_min": 534, "lat": 35.708, "lon": -0.33}, "geometry": {"type": "Polygon", "coordinates": [[[-3.37, 35.608], [-3.29, 35.458], [-3.21, 35.358], [-3.13, 35.258], [-3.05, 35.208], [-2.89, 35.108], [-2.65, 34.958], [-2.57, 34.908], [-2.41, 34.858], [-2.09, 34.758], [-1.85, 34.708], [-1.53, 34.658], [-1.05, 34.658], [-0.73, 34.708], [-0.49, 34.758], [-0.33, 34.808], [-0.25, 34.858], [0.15, 35.108], [0.31, 35.308], [0.39, 35.558], [0.39, 35.658], [0.31, 35.908], [0.23, 36.008], [0.07, 36.208], [-0.17, 36.408], [-0.49, 36.558], [-0.73, 36.658], [-1.13, 36.758], [-1.61, 36.808], [-1.85, 36.808], [-2.25, 36.758], [-2.49, 36.708], [-2.65, 36.658], [-2.81, 36.608], [-2.97, 36.508], [-3.13, 36.408], [-3.29, 36.258], [-3.37, 36.108], [-3.37, 35.608]]]}}, {"type": "Feature", "properties": {"t": "2027-08-02T08:55:00Z", "ut_min": 535, "lat": 35.68, "lon": 0.388}, "geometry": {"type": "Polygon", "coordinates": [[[-2.652, 35.73], [-2.572, 35.53], [-2.413, 35.33], [-2.333, 35.23], [-1.853, 34.93], [-1.773, 34.88], [-1.532, 34.78], [-1.133, 34.68], [-0.733, 34.63], [-0.332, 34.63], [-0.013, 34.68], [0.228, 34.73], [0.388, 34.78], [0.468, 34.83], [0.708, 34.98], [0.788, 35.03], [0.867, 35.08], [0.948, 35.18], [1.028, 35.28], [1.107, 35.53], [1.107, 35.63], [1.028, 35.88], [0.948, 36.03], [0.867, 36.13], [0.708, 36.28], [0.468, 36.43], [0.388, 36.48], [0.148, 36.58], [-0.332, 36.73], [-0.653, 36.78], [-1.292, 36.78], [-1.613, 36.73], [-1.773, 36.68], [-1.932, 36.63], [-2.172, 36.53], [-2.333, 36.43], [-2.492, 36.28], [-2.572, 36.18], [-2.652, 35.98], [-2.652, 35.73]]]}}, {"type": "Feature", "properties": {"t": "2027-08-02T08:56:00Z", "ut_min": 536, "lat": 35.652, "lon": 1.105}, "geometry": {"type": "Polygon", "coordinates": [[[-1.855, 35.552], [-1.695, 35.302], [-1.535, 35.152], [-1.455, 35.102], [-1.215, 34.952], [-1.135, 34.902], [-0.895, 34.802], [-0.575, 34.702], [-0.335, 34.652], [0.065, 34.602], [0.385, 34.602], [0.705, 34.652], [0.945, 34.702], [1.105, 34.752], [1.185, 34.802], [1.265, 34.852], [1.425, 34.952], [1.585, 35.052], [1.665, 35.152], [1.745, 35.302], [1.745, 35.852], [1.505, 36.152], [1.345, 36.302], [1.185, 36.402], [1.105, 36.452], [0.625, 36.652], [0.145, 36.752], [-0.655, 36.752], [-0.895, 36.702], [-1.055, 36.652], [-1.215, 36.602], [-1.455, 36.502], [-1.535, 36.452], [-1.695, 36.302], [-1.855, 36.102], [-1.855, 35.552]]]}}, {"type": "Feature", "properties": {"t": "2027-08-02T08:57:00Z", "ut_min": 537, "lat": 35.613, "lon": 1.796}, "geometry": {"type": "Polygon", "coordinates": [[[-1.164, 35.663], [-1.084, 35.463], [-0.924, 35.263], [-0.844, 35.163], [-0.444, 34.913], [-0.284, 34.813], [-0.124, 34.763], [0.196, 34.663], [0.356, 34.613], [0.836, 34.563], [0.916, 34.563], [1.396, 34.613], [1.636, 34.663], [1.796, 34.713], [1.876, 34.763], [2.116, 34.913], [2.276, 35.013], [2.356, 35.113], [2.436, 35.263], [2.436, 35.813], [2.356, 35.963], [2.276, 36.063], [2.116, 36.213], [1.956, 36.313], [1.716, 36.463], [1.636, 36.513], [1.476, 36.563], [1.316, 36.613], [1.156, 36.663], [0.916, 36.713], [-0.044, 36.713], [-0.524, 36.563], [-0.924, 36.313], [-1.084, 36.113], [-1.164, 35.913], [-1.164, 35.663]]]}}, {"type": "Feature", "properties": {"t": "2027-08-02T08:58:00Z", "ut_min": 538, "lat": 35.575, "lon": 2.487}, "geometry": {"type": "Polygon", "coordinates": [[[-0.393, 35.525], [-0.313, 35.375], [-0.233, 35.275], [-0.153, 35.175], [-0.073, 35.075], [0.007, 35.025], [0.167, 34.925], [0.247, 34.875], [0.327, 34.825], [0.567, 34.725], [0.727, 34.675], [0.887, 34.625], [1.127, 34.575], [1.527, 34.525], [1.687, 34.525], [2.087, 34.575], [2.327, 34.625], [2.487, 34.675], [2.887, 34.925], [3.047, 35.075], [3.127, 35.225], [3.127, 35.725], [3.047, 35.875], [2.887, 36.075], [2.807, 36.175], [2.727, 36.225], [2.567, 36.325], [2.327, 36.475], [2.007, 36.575], [1.847, 36.625], [1.607, 36.675], [0.647, 36.675], [0.407, 36.625], [0.167, 36.525], [0.087, 36.475], [-0.153, 36.325], [-0.233, 36.275], [-0.313, 36.175], [-0.393, 36.025], [-0.393, 35.525]]]}}, {"type": "Feature", "properties": {"t": "2027-08-02T08:59:00Z", "ut_min": 539, "lat": 35.526, "lon": 3.152}, "geometry": {"type": "Polygon", "coordinates": [[[0.272, 35.576], [0.352, 35.376], [0.592, 35.076], [0.912, 34.876], [1.152, 34.726], [1.392, 34.626], [1.792, 34.526], [2.752, 34.526], [2.992, 34.576], [3.232, 34.676], [3.393, 34.776], [3.552, 34.876], [3.712, 35.076], [3.792, 35.176], [3.792, 35.726], [3.712, 35.876], [3.632, 35.976], [3.472, 36.126], [3.393, 36.176], [2.912, 36.476], [2.752, 36.526], [2.592, 36.576], [2.353, 36.626], [2.032, 36.676], [1.632, 36.676], [1.312, 36.626], [1.072, 36.576], [0.833, 36.476], [0.752, 36.426], [0.512, 36.276], [0.352, 36.076], [0.272, 35.876], [0.272, 35.576]]]}}, {"type": "Feature", "properties": {"t": "2027-08-02T09:00:00Z", "ut_min": 540, "lat": 35.477, "lon": 3.818}, "geometry": {"type": "Polygon", "coordinates": [[[1.018, 35.377], [1.178, 35.177], [1.338, 34.977], [1.738, 34.727], [1.818, 34.677], [2.138, 34.577], [2.298, 34.527], [2.538, 34.477], [3.418, 34.477], [3.658, 34.527], [3.898, 34.627], [3.978, 34.677], [4.058, 34.727], [4.218, 34.827], [4.378, 35.027], [4.458, 35.177], [4.458, 35.627], [4.298, 35.927], [4.138, 36.077], [4.058, 36.127], [3.658, 36.377], [3.578, 36.427], [3.258, 36.527], [3.098, 36.577], [2.778, 36.627], [2.218, 36.627], [1.738, 36.527], [1.498, 36.427], [1.418, 36.377], [1.258, 36.277], [1.178, 36.177], [1.018, 35.977], [1.018, 35.377]]]}}, {"type": "Feature", "properties": {"t": "2027-08-02T09:01:00Z", "ut_min": 541, "lat": 35.418, "lon": 4.462}, "geometry": {"type": "Polygon", "coordinates": [[[1.662, 35.468], [1.742, 35.268], [1.902, 35.068], [1.982, 34.968], [2.062, 34.918], [2.222, 34.818], [2.622, 34.568], [2.942, 34.468], [3.182, 34.418], [4.062, 34.418], [4.302, 34.468], [4.542, 34.568], [4.862, 34.768], [5.022, 34.968], [5.102, 35.118], [5.102, 35.568], [5.022, 35.718], [4.942, 35.868], [4.862, 35.968], [4.622, 36.168], [4.542, 36.218], [4.462, 36.268], [4.142, 36.418], [3.982, 36.468], [3.822, 36.518], [3.502, 36.568], [2.782, 36.568], [2.542, 36.518], [2.382, 36.468], [2.142, 36.368], [1.982, 36.268], [1.822, 36.118], [1.742, 36.018], [1.662, 35.818], [1.662, 35.468]]]}}, {"type": "Feature", "properties": {"t": "2027-08-02T09:02:00Z", "ut_min": 542, "lat": 35.36, "lon": 5.105}, "geometry": {"type": "Polygon", "coordinates": [[[2.305, 35.51], [2.385, 35.26], [2.465, 35.11], [2.545, 35.01], [2.705, 34.86], [3.025, 34.66], [3.185, 34.56], [3.425, 34.46], [3.585, 34.41], [3.825, 34.36], [4.705, 34.36], [4.945, 34.41], [5.185, 34.51], [5.425, 34.66], [5.505, 34.71], [5.665, 34.91], [5.745, 35.11], [5.745, 35.51], [5.585, 35.81], [5.505, 35.91], [5.265, 36.11], [5.105, 36.21], [5.025, 36.26], [4.785, 36.36], [4.465, 36.46], [4.225, 36.51], [3.425, 36.51], [3.185, 36.46], [3.025, 36.41], [2.945, 36.36], [2.865, 36.31], [2.545, 36.11], [2.385, 35.91], [2.305, 35.66], [2.305, 35.51]]]}}, {"type": "Feature", "properties": {"t": "2027-08-02T09:03:00Z", "ut_min": 543, "lat": 35.293, "lon": 5.728}, "geometry": {"type": "Polygon", "coordinates": [[[3.007, 35.293], [3.167, 34.993], [3.248, 34.893], [3.487, 34.693], [3.647, 34.593], [3.728, 34.543], [3.968, 34.443], [4.127, 34.393], [4.287, 34.343], [4.527, 34.293], [5.327, 34.293], [5.808, 34.443], [5.968, 34.543], [6.048, 34.593], [6.207, 34.743], [6.287, 34.843], [6.367, 35.043], [6.367, 35.443], [6.287, 35.593], [6.207, 35.743], [6.128, 35.843], [5.968, 35.993], [5.808, 36.093], [5.728, 36.143], [5.567, 36.243], [5.327, 36.343], [5.168, 36.393], [4.928, 36.443], [4.048, 36.443], [3.808, 36.393], [3.647, 36.343], [3.487, 36.243], [3.248, 36.093], [3.167, 35.993], [3.007, 35.793], [3.007, 35.293]]]}}, {"type": "Feature", "properties": {"t": "2027-08-02T09:04:00Z", "ut_min": 544, "lat": 35.225, "lon": 6.35}, "geometry": {"type": "Polygon", "coordinates": [[[3.63, 35.275], [3.71, 35.075], [3.95, 34.775], [4.11, 34.675], [4.51, 34.425], [4.59, 34.375], [4.91, 34.275], [5.15, 34.225], [5.95, 34.225], [6.11, 34.275], [6.43, 34.375], [6.51, 34.425], [6.67, 34.525], [6.83, 34.675], [6.99, 34.975], [6.99, 35.325], [6.91, 35.525], [6.83, 35.675], [6.75, 35.775], [6.59, 35.925], [6.51, 35.975], [6.35, 36.075], [6.19, 36.175], [5.95, 36.275], [5.79, 36.325], [5.55, 36.375], [5.15, 36.425], [5.07, 36.425], [4.59, 36.375], [4.43, 36.325], [4.27, 36.275], [4.19, 36.225], [3.95, 36.075], [3.87, 36.025], [3.71, 35.825], [3.63, 35.625], [3.63, 35.275]]]}}, {"type": "Feature", "properties": {"t": "2027-08-02T09:05:00Z", "ut_min": 545, "lat": 35.149, "lon": 6.952}, "geometry": {"type": "Polygon", "coordinates": [[[4.312, 35.099], [4.393, 34.949], [4.473, 34.849], [4.633, 34.649], [4.712, 34.599], [5.112, 34.349], [5.352, 34.249], [5.752, 34.149], [6.552, 34.149], [6.712, 34.199], [7.032, 34.299], [7.112, 34.349], [7.272, 34.449], [7.432, 34.599], [7.592, 34.899], [7.592, 35.249], [7.512, 35.449], [7.432, 35.599], [7.353, 35.699], [7.272, 35.799], [6.952, 35.999], [6.712, 36.149], [6.393, 36.249], [6.232, 36.299], [5.912, 36.349], [5.512, 36.349], [5.192, 36.299], [5.032, 36.249], [4.872, 36.199], [4.792, 36.149], [4.712, 36.099], [4.553, 35.999], [4.312, 35.699], [4.312, 35.099]]]}}, {"type": "Feature", "properties": {"t": "2027-08-02T09:06:00Z", "ut_min": 546, "lat": 35.073, "lon": 7.555}, "geometry": {"type": "Polygon", "coordinates": [[[4.915, 35.073], [5.075, 34.773], [5.155, 34.673], [5.315, 34.523], [5.395, 34.473], [5.555, 34.373], [5.635, 34.323], [5.875, 34.223], [6.195, 34.123], [6.435, 34.073], [7.155, 34.073], [7.315, 34.123], [7.635, 34.223], [7.875, 34.373], [8.115, 34.673], [8.195, 34.873], [8.195, 35.173], [8.115, 35.373], [8.035, 35.523], [7.875, 35.723], [7.795, 35.773], [7.395, 36.023], [7.315, 36.073], [7.075, 36.173], [6.595, 36.273], [6.115, 36.273], [5.795, 36.223], [5.635, 36.173], [5.395, 36.073], [5.315, 36.023], [5.235, 35.973], [5.075, 35.823], [4.995, 35.723], [4.915, 35.573], [4.915, 35.073]]]}}, {"type": "Feature", "properties": {"t": "2027-08-02T09:07:00Z", "ut_min": 547, "lat": 34.989, "lon": 8.14}, "geometry": {"type": "Polygon", "coordinates": [[[5.5, 35.089], [5.58, 34.889], [5.66, 34.739], [5.82, 34.539], [5.9, 34.489], [6.3, 34.239], [6.46, 34.139], [6.62, 34.089], [6.78, 34.039], [7.02, 33.989], [7.66, 33.989], [7.9, 34.039], [8.06, 34.089], [8.3, 34.189], [8.38, 34.239], [8.54, 34.389], [8.62, 34.489], [8.7, 34.589], [8.78, 34.789], [8.78, 35.089], [8.7, 35.289], [8.62, 35.439], [8.46, 35.639], [8.22, 35.839], [8.14, 35.889], [8.06, 35.939], [7.82, 36.039], [7.5, 36.139], [7.26, 36.189], [6.62, 36.189], [6.38, 36.139], [6.22, 36.089], [5.98, 35.989], [5.9, 35.939], [5.74, 35.789], [5.58, 35.589], [5.5, 35.389], [5.5, 35.089]]]}}, {"type": "Feature", "properties": {"t": "2027-08-02T09:08:00Z", "ut_min": 548, "lat": 34.905, "lon": 8.725}, "geometry": {"type": "Polygon", "coordinates": [[[6.165, 34.855], [6.245, 34.705], [6.325, 34.605], [6.485, 34.405], [6.565, 34.355], [6.965, 34.105], [7.045, 34.055], [7.365, 33.955], [7.605, 33.905], [8.245, 33.905], [8.485, 33.955], [8.645, 34.005], [8.885, 34.105], [8.965, 34.155], [9.125, 34.305], [9.285, 34.505], [9.365, 34.755], [9.365, 34.955], [9.285, 35.205], [9.205, 35.355], [9.045, 35.555], [8.885, 35.705], [8.805, 35.755], [8.645, 35.855], [8.405, 35.955], [8.245, 36.005], [8.085, 36.055], [7.845, 36.105], [7.205, 36.105], [6.965, 36.055], [6.805, 36.005], [6.405, 35.755], [6.325, 35.705], [6.245, 35.605], [6.165, 35.455], [6.165, 34.855]]]}}, {"type": "Feature", "properties": {"t": "2027-08-02T09:09:00Z", "ut_min": 549, "lat": 34.814, "lon": 9.292}, "geometry": {"type": "Polygon", "coordinates": [[[6.732, 34.814], [6.892, 34.514], [6.972, 34.414], [7.132, 34.264], [7.212, 34.214], [7.372, 34.114], [7.532, 34.014], [7.692, 33.964], [8.012, 33.864], [8.252, 33.814], [8.812, 33.814], [9.052, 33.864], [9.212, 33.914], [9.292, 33.964], [9.532, 34.114], [9.692, 34.214], [9.772, 34.314], [9.852, 34.464], [9.932, 34.664], [9.932, 34.864], [9.852, 35.114], [9.772, 35.264], [9.612, 35.464], [9.452, 35.614], [9.372, 35.664], [9.212, 35.764], [9.132, 35.814], [8.892, 35.914], [8.732, 35.964], [8.492, 36.014], [7.692, 36.014], [7.372, 35.914], [7.132, 35.764], [6.972, 35.664], [6.812, 35.464], [6.732, 35.314], [6.732, 34.814]]]}}, {"type": "Feature", "properties": {"t": "2027-08-02T09:10:00Z", "ut_min": 550, "lat": 34.723, "lon": 9.858}, "geometry": {"type": "Polygon", "coordinates": [[[7.298, 34.823], [7.378, 34.573], [7.538, 34.373], [7.618, 34.273], [7.778, 34.123], [8.018, 33.973], [8.258, 33.873], [8.578, 33.773], [8.818, 33.723], [9.378, 33.723], [9.618, 33.773], [9.778, 33.823], [9.858, 33.873], [10.258, 34.123], [10.338, 34.223], [10.418, 34.373], [10.498, 34.623], [10.498, 34.723], [10.418, 35.023], [10.338, 35.173], [10.258, 35.273], [10.098, 35.473], [10.018, 35.523], [9.618, 35.773], [9.138, 35.923], [8.258, 35.923], [7.938, 35.823], [7.858, 35.773], [7.538, 35.573], [7.378, 35.373], [7.298, 35.173], [7.298, 34.823]]]}}, {"type": "Feature", "properties": {"t": "2027-08-02T09:11:00Z", "ut_min": 551, "lat": 34.625, "lon": 10.409}, "geometry": {"type": "Polygon", "coordinates": [[[7.849, 34.875], [7.929, 34.575], [8.009, 34.425], [8.249, 34.125], [8.569, 33.925], [8.809, 33.775], [9.129, 33.675], [9.369, 33.625], [9.929, 33.625], [10.169, 33.675], [10.329, 33.725], [10.409, 33.775], [10.649, 33.925], [10.809, 34.025], [10.889, 34.125], [10.969, 34.275], [11.049, 34.525], [11.049, 34.675], [10.969, 34.925], [10.889, 35.075], [10.649, 35.375], [10.489, 35.475], [10.329, 35.575], [10.169, 35.675], [9.929, 35.775], [9.689, 35.825], [9.369, 35.875], [9.129, 35.875], [8.809, 35.825], [8.489, 35.725], [8.249, 35.575], [8.169, 35.525], [8.009, 35.325], [7.929, 35.225], [7.849, 34.925], [7.849, 34.875]]]}}, {"type": "Feature", "properties": {"t": "2027-08-02T09:12:00Z", "ut_min": 552, "lat": 34.527, "lon": 10.96}, "geometry": {"type": "Polygon", "coordinates": [[[8.48, 34.527], [8.56, 34.327], [8.64, 34.227], [8.8, 34.027], [8.88, 33.977], [9.28, 33.727], [9.36, 33.677], [9.68, 33.577], [9.92, 33.527], [10.48, 33.527], [10.72, 33.577], [10.88, 33.627], [10.96, 33.677], [11.04, 33.727], [11.2, 33.827], [11.28, 33.877], [11.36, 33.977], [11.52, 34.177], [11.52, 34.827], [11.44, 34.977], [11.2, 35.277], [11.04, 35.377], [10.64, 35.627], [10.32, 35.727], [10.0, 35.777], [9.68, 35.777], [9.36, 35.727], [9.04, 35.627], [8.72, 35.427], [8.56, 35.227], [8.48, 35.077], [8.48, 34.527]]]}}, {"type": "Feature", "properties": {"t": "2027-08-02T09:13:00Z", "ut_min": 553, "lat": 34.422, "lon": 11.496}, "geometry": {"type": "Polygon", "coordinates": [[[9.016, 34.472], [9.096, 34.273], [9.176, 34.172], [9.336, 33.972], [9.496, 33.822], [9.736, 33.672], [9.816, 33.623], [10.056, 33.523], [10.216, 33.472], [10.536, 33.422], [11.016, 33.422], [11.256, 33.472], [11.416, 33.523], [11.496, 33.572], [11.656, 33.672], [11.736, 33.722], [11.816, 33.773], [11.976, 33.972], [12.056, 34.072], [12.056, 34.722], [11.976, 34.873], [11.896, 35.023], [11.576, 35.322], [11.496, 35.373], [11.416, 35.422], [11.176, 35.523], [10.856, 35.623], [10.616, 35.672], [10.136, 35.672], [9.896, 35.623], [9.576, 35.523], [9.336, 35.373], [9.256, 35.273], [9.096, 35.072], [9.016, 34.922], [9.016, 34.472]]]}}, {"type": "Feature", "properties": {"t": "2027-08-02T09:14:00Z", "ut_min": 554, "lat": 34.318, "lon": 12.032}, "geometry": {"type": "Polygon", "coordinates": [[[9.552, 34.418], [9.632, 34.218], [9.712, 34.068], [9.872, 33.868], [10.032, 33.718], [10.112, 33.668], [10.272, 33.568], [10.352, 33.518], [10.592, 33.418], [11.072, 33.318], [11.552, 33.318], [11.792, 33.368], [11.952, 33.418], [12.192, 33.568], [12.352, 33.668], [12.512, 33.868], [12.592, 34.018], [12.592, 34.618], [12.432, 34.918], [12.112, 35.218], [11.952, 35.318], [11.712, 35.418], [11.552, 35.468], [11.392, 35.518], [11.152, 35.568], [10.672, 35.568], [10.432, 35.518], [10.272, 35.468], [10.032, 35.368], [9.952, 35.318], [9.792, 35.168], [9.632, 34.968], [9.552, 34.718], [9.552, 34.418]]]}}, {"type": "Feature", "properties": {"t": "2027-08-02T09:15:00Z", "ut_min": 555, "lat": 34.207, "lon": 12.553}, "geometry": {"type": "Polygon", "coordinates": [[[10.153, 34.157], [10.233, 34.007], [10.313, 33.907], [10.473, 33.707], [10.713, 33.507], [11.033, 33.357], [11.353, 33.257], [11.593, 33.207], [11.993, 33.207], [12.313, 33.257], [12.553, 33.357], [12.633, 33.407], [12.793, 33.507], [12.873, 33.557], [12.953, 33.657], [13.033, 33.757], [13.113, 33.907], [13.113, 34.507], [13.033, 34.707], [12.953, 34.807], [12.873, 34.907], [12.713, 35.057], [12.473, 35.207], [12.393, 35.257], [12.153, 35.357], [11.993, 35.407], [11.753, 35.457], [11.193, 35.457], [10.953, 35.407], [10.793, 35.357], [10.713, 35.307], [10.313, 35.057], [10.233, 34.957], [10.153, 34.807], [10.153, 34.157]]]}}, {"type": "Feature", "properties": {"t": "2027-08-02T09:16:00Z", "ut_min": 556, "lat": 34.097, "lon": 13.075}, "geometry": {"type": "Polygon", "coordinates": [[[10.675, 34.097], [10.755, 33.897], [10.835, 33.797], [10.995, 33.597], [11.075, 33.547], [11.475, 33.297], [11.555, 33.247], [11.875, 33.147], [12.115, 33.097], [12.515, 33.097], [12.835, 33.147], [13.075, 33.247], [13.155, 33.297], [13.315, 33.397], [13.395, 33.447], [13.475, 33.547], [13.555, 33.647], [13.635, 33.797], [13.635, 34.397], [13.555, 34.597], [13.475, 34.697], [13.395, 34.797], [13.235, 34.947], [12.835, 35.197], [12.515, 35.297], [12.275, 35.347], [11.635, 35.347], [11.315, 35.247], [11.235, 35.197], [10.915, 34.997], [10.755, 34.797], [10.675, 34.647], [10.675, 34.097]]]}}, {"type": "Feature", "properties": {"t": "2027-08-02T09:17:00Z", "ut_min": 557, "lat": 33.98, "lon": 13.582}, "geometry": {"type": "Polygon", "coordinates": [[[11.182, 34.03], [11.262, 33.83], [11.422, 33.58], [11.582, 33.43], [11.902, 33.23], [12.062, 33.13], [12.383, 33.03], [12.702, 32.98], [13.022, 32.98], [13.262, 33.03], [13.422, 33.08], [13.582, 33.13], [13.742, 33.23], [13.902, 33.33], [14.062, 33.53], [14.143, 33.68], [14.143, 34.28], [14.062, 34.48], [13.822, 34.78], [13.662, 34.88], [13.422, 35.03], [13.342, 35.08], [13.182, 35.13], [12.862, 35.23], [12.143, 35.23], [11.982, 35.18], [11.822, 35.13], [11.422, 34.88], [11.262, 34.68], [11.182, 34.48], [11.182, 34.03]]]}}, {"type": "Feature", "properties": {"t": "2027-08-02T09:18:00Z", "ut_min": 558, "lat": 33.863, "lon": 14.09}, "geometry": {"type": "Polygon", "coordinates": [[[11.69, 33.963], [11.77, 33.763], [11.85, 33.613], [12.01, 33.413], [12.17, 33.263], [12.33, 33.163], [12.49, 33.063], [12.73, 32.963], [12.89, 32.913], [13.21, 32.863], [13.53, 32.863], [13.77, 32.913], [14.09, 33.013], [14.33, 33.163], [14.49, 33.313], [14.57, 33.413], [14.65, 33.613], [14.65, 34.163], [14.57, 34.363], [14.41, 34.563], [14.33, 34.663], [14.25, 34.713], [14.09, 34.813], [13.85, 34.963], [13.61, 35.063], [13.37, 35.113], [12.65, 35.113], [12.49, 35.063], [12.33, 35.013], [12.25, 34.963], [12.01, 34.813], [11.77, 34.513], [11.69, 34.313], [11.69, 33.963]]]}}, {"type": "Feature", "properties": {"t": "2027-08-02T09:19:00Z", "ut_min": 559, "lat": 33.741, "lon": 14.585}, "geometry": {"type": "Polygon", "coordinates": [[[12.265, 33.691], [12.345, 33.541], [12.425, 33.391], [12.505, 33.291], [12.665, 33.141], [12.825, 33.041], [12.985, 32.941], [13.225, 32.841], [13.465, 32.791], [13.705, 32.741], [14.025, 32.741], [14.265, 32.791], [14.585, 32.891], [14.825, 33.041], [14.985, 33.191], [15.145, 33.491], [15.145, 34.091], [15.065, 34.241], [14.905, 34.441], [14.825, 34.541], [14.745, 34.591], [14.585, 34.691], [14.345, 34.841], [14.265, 34.891], [14.105, 34.941], [13.945, 34.991], [13.145, 34.991], [12.985, 34.941], [12.825, 34.891], [12.745, 34.841], [12.505, 34.691], [12.345, 34.491], [12.265, 34.341], [12.265, 33.691]]]}}, {"type": "Feature", "properties": {"t": "2027-08-02T09:20:00Z", "ut_min": 560, "lat": 33.618, "lon": 15.08}, "geometry": {"type": "Polygon", "coordinates": [[[12.76, 33.568], [12.84, 33.418], [12.92, 33.318], [13.08, 33.118], [13.24, 32.968], [13.32, 32.918], [13.4, 32.868], [13.72, 32.718], [13.96, 32.668], [14.2, 32.618], [14.52, 32.618], [14.76, 32.668], [15.08, 32.768], [15.16, 32.818], [15.32, 32.918], [15.56, 33.218], [15.64, 33.368], [15.64, 33.918], [15.56, 34.118], [15.48, 34.218], [15.32, 34.418], [15.08, 34.618], [15.0, 34.668], [14.76, 34.768], [14.44, 34.868], [13.64, 34.868], [13.32, 34.768], [13.24, 34.718], [13.08, 34.618], [12.92, 34.468], [12.84, 34.368], [12.76, 34.218], [12.76, 33.568]]]}}, {"type": "Feature", "properties": {"t": "2027-08-02T09:21:00Z", "ut_min": 561, "lat": 33.49, "lon": 15.562}, "geometry": {"type": "Polygon", "coordinates": [[[13.242, 33.49], [13.402, 33.19], [13.562, 32.99], [14.123, 32.64], [14.442, 32.54], [14.762, 32.49], [14.922, 32.49], [15.242, 32.54], [15.402, 32.59], [15.643, 32.69], [15.723, 32.74], [15.883, 32.89], [16.043, 33.09], [16.122, 33.24], [16.122, 33.84], [16.043, 33.99], [15.963, 34.14], [15.803, 34.29], [15.643, 34.44], [15.402, 34.59], [15.162, 34.69], [14.922, 34.74], [14.682, 34.79], [14.442, 34.79], [14.123, 34.74], [13.963, 34.69], [13.723, 34.59], [13.643, 34.54], [13.482, 34.39], [13.322, 34.19], [13.242, 34.04], [13.242, 33.49]]]}}, {"type": "Feature", "properties": {"t": "2027-08-02T09:22:00Z", "ut_min": 562, "lat": 33.362, "lon": 16.045}, "geometry": {"type": "Polygon", "coordinates": [[[13.725, 33.412], [13.805, 33.212], [13.885, 33.062], [13.965, 32.962], [14.125, 32.812], [14.525, 32.562], [14.605, 32.512], [14.925, 32.412], [15.245, 32.362], [15.405, 32.362], [15.725, 32.412], [15.885, 32.462], [16.125, 32.562], [16.205, 32.612], [16.365, 32.762], [16.445, 32.862], [16.525, 32.962], [16.605, 33.112], [16.605, 33.662], [16.525, 33.862], [16.445, 34.012], [16.365, 34.112], [16.205, 34.262], [16.045, 34.362], [15.885, 34.462], [15.645, 34.562], [15.485, 34.612], [15.165, 34.662], [14.845, 34.662], [14.605, 34.612], [14.445, 34.562], [14.205, 34.462], [14.125, 34.412], [13.965, 34.262], [13.805, 34.062], [13.725, 33.862], [13.725, 33.412]]]}}, {"type": "Feature", "properties": {"t": "2027-08-02T09:23:00Z", "ut_min": 563, "lat": 33.229, "lon": 16.516}, "geometry": {"type": "Polygon", "coordinates": [[[14.196, 33.379], [14.276, 33.129], [14.356, 32.979], [14.436, 32.879], [14.596, 32.679], [14.676, 32.629], [15.076, 32.379], [15.396, 32.279], [15.796, 32.229], [16.196, 32.279], [16.356, 32.329], [16.596, 32.429], [16.676, 32.479], [16.836, 32.629], [16.916, 32.729], [16.996, 32.829], [17.076, 32.979], [17.076, 33.579], [16.916, 33.879], [16.836, 33.979], [16.676, 34.129], [16.596, 34.179], [16.436, 34.279], [16.356, 34.329], [16.276, 34.379], [16.116, 34.429], [15.956, 34.479], [15.716, 34.529], [15.316, 34.529], [15.076, 34.479], [14.916, 34.429], [14.676, 34.279], [14.516, 34.179], [14.436, 34.129], [14.356, 34.029], [14.276, 33.879], [14.196, 33.629], [14.196, 33.379]]]}}, {"type": "Feature", "properties": {"t": "2027-08-02T09:24:00Z", "ut_min": 564, "lat": 33.097, "lon": 16.987}, "geometry": {"type": "Polygon", "coordinates": [[[14.747, 32.997], [14.827, 32.847], [14.987, 32.647], [15.147, 32.497], [15.467, 32.297], [15.547, 32.247], [15.867, 32.147], [16.267, 32.097], [16.667, 32.147], [16.827, 32.197], [16.987, 32.297], [17.307, 32.497], [17.387, 32.597], [17.467, 32.697], [17.547, 32.897], [17.547, 33.447], [17.387, 33.747], [17.307, 33.847], [17.147, 33.997], [16.827, 34.197], [16.747, 34.247], [16.427, 34.347], [16.187, 34.397], [15.787, 34.397], [15.547, 34.347], [15.387, 34.297], [15.227, 34.197], [15.067, 34.097], [14.987, 34.047], [14.907, 33.947], [14.827, 33.847], [14.747, 33.697], [14.747, 32.997]]]}}, {"type": "Feature", "properties": {"t": "2027-08-02T09:25:00Z", "ut_min": 565, "lat": 32.958, "lon": 17.447}, "geometry": {"type": "Polygon", "coordinates": [[[15.207, 32.908], [15.367, 32.608], [15.607, 32.358], [15.847, 32.208], [15.927, 32.158], [16.167, 32.058], [16.327, 32.008], [17.127, 32.008], [17.287, 32.058], [17.367, 32.108], [17.767, 32.358], [17.847, 32.458], [17.927, 32.558], [18.007, 32.758], [18.007, 33.308], [17.847, 33.608], [17.687, 33.808], [17.367, 34.008], [17.127, 34.158], [16.967, 34.208], [16.727, 34.258], [16.247, 34.258], [16.007, 34.208], [15.847, 34.158], [15.607, 34.008], [15.447, 33.908], [15.287, 33.708], [15.207, 33.558], [15.207, 32.908]]]}}]}