{"type": "FeatureCollection", "source": "NASA GSFC - Path Table SE2026Aug12T (limites N/S WGS84) - path GLOBAL", "features": [{"type": "Feature", "properties": {"name": "Franja de totalidad 2026 (global)", "source": "NASA GSFC"}, "geometry": {"type": "Polygon", "coordinates": [[[119.42333333333333, 85.32166666666667], [108.43166666666667, 87.75333333333333], [38.14833333333333, 89.06666666666666], [-19.506666666666668, 87.78833333333333], [-29.216666666666665, 86.14166666666667], [-32.24666666666667, 84.565], [-33.416666666666664, 83.07166666666667], [-33.83833333333333, 81.65], [-33.89666666666667, 80.29166666666667], [-33.76, 78.98666666666666], [-33.505, 77.72666666666667], [-33.178333333333335, 76.50666666666666], [-32.805, 75.32333333333334], [-32.4, 74.16833333333334], [-31.971666666666668, 73.04333333333334], [-31.526666666666667, 71.94], [-31.06833333333333, 70.86], [-30.6, 69.79666666666667], [-30.12, 68.75333333333333], [-29.631666666666668, 67.72333333333333], [-29.133333333333333, 66.70666666666666], [-28.625, 65.70333333333333], [-28.106666666666666, 64.71], [-27.576666666666668, 63.72666666666667], [-27.033333333333335, 62.75], [-26.476666666666667, 61.78], [-25.905, 60.81666666666667], [-25.316666666666666, 59.85666666666667], [-24.706666666666667, 58.9], [-24.076666666666668, 57.945], [-23.421666666666667, 56.99], [-22.738333333333333, 56.03666666666667], [-22.025, 55.07833333333333], [-21.275, 54.11833333333333], [-20.485, 53.151666666666664], [-19.64666666666667, 52.17666666666667], [-18.755, 51.193333333333335], [-17.798333333333332, 50.195], [-16.765, 49.181666666666665], [-15.638333333333334, 48.14666666666667], [-14.396666666666667, 47.083333333333336], [-13.008333333333333, 45.983333333333334], [-11.42, 44.83166666666666], [-9.551666666666666, 43.60666666666667], [-7.236666666666666, 42.263333333333335], [3.295, 40.665], [-2.085, 42.90833333333333], [-4.948333333333333, 44.45666666666666], [-7.076666666666666, 45.80166666666667], [-8.801666666666666, 47.038333333333334], [-10.266666666666667, 48.208333333333336], [-11.546666666666667, 49.33], [-12.685, 50.416666666666664], [-13.711666666666666, 51.47833333333333], [-14.646666666666667, 52.52], [-15.503333333333334, 53.54666666666667], [-16.295, 54.56166666666667], [-17.028333333333332, 55.568333333333335], [-17.711666666666666, 56.568333333333335], [-18.348333333333333, 57.565], [-18.943333333333335, 58.56], [-19.5, 59.553333333333335], [-20.02166666666667, 60.54833333333333], [-20.508333333333333, 61.54666666666667], [-20.961666666666666, 62.54833333333333], [-21.381666666666668, 63.556666666666665], [-21.768333333333334, 64.57166666666667], [-22.12, 65.59333333333333], [-22.436666666666667, 66.62666666666667], [-22.713333333333335, 67.67], [-22.948333333333334, 68.72666666666667], [-23.131666666666668, 69.79833333333333], [-23.258333333333333, 70.885], [-23.313333333333333, 71.99166666666666], [-23.285, 73.11666666666666], [-23.145, 74.26666666666667], [-22.865, 75.44], [-22.393333333333334, 76.64166666666667], [-21.656666666666666, 77.875], [-20.538333333333334, 79.14166666666667], [-18.841666666666665, 80.44166666666666], [-16.216666666666665, 81.775], [-12.001666666666667, 83.13166666666666], [-4.8100000000000005, 84.48166666666667], [8.375, 85.72], [32.72833333333333, 86.545], [65.82333333333334, 86.34333333333333], [90.395, 84.85], [103.21666666666667, 82.16333333333333], [108.75833333333334, 75.93666666666667], [119.42333333333333, 85.32166666666667]]]}}]}