{"type": "FeatureCollection", "name": "Parcialidad eclipse 2026 (magnitud maxima del diametro solar)", "source": "Calculado: elementos besselianos NASA GSFC (SE2026Aug12T) + algoritmo Espenak/Meeus, limitado por atardecer", "features": [{"type": "Feature", "properties": {"level": 0.1, "label": "10%"}, "geometry": {"type": "MultiLineString", "coordinates": [[[7.188478386329438, 25.0], [7.2, 25.01987157645687]], [[7.419966943497875, 25.4], [6.8, 24.332249590888544]], [[7.419554034127846, 25.4], [7.2, 25.01987157645687]], [[7.419554034127846, 25.4], [7.6, 25.713181573266688]], [[7.649927597273135, 25.8], [7.2, 25.020191750740345]], [[7.649843466976661, 25.8], [7.6, 25.713181573266688]], [[7.94395753393307, 26.2], [8.0, 26.269797900057423]], [[8.57172753517945, 26.6], [7.6, 24.910104044385406]], [[8.264373222603714, 26.6], [8.0, 26.269797900057423]], [[8.264373222603714, 26.6], [8.4, 26.76926083646288]], [[8.798502458613617, 27.0], [8.0, 25.603295083772597]], [[8.584402683302914, 27.0], [8.4, 26.76926083646288]], [[8.584402683302914, 27.0], [8.8, 27.269576757243883]], [[9.024716825020239, 27.4], [8.4, 26.30133488841851]], [[9.024441250174368, 27.4], [8.8, 27.269576757243883]], [[9.024441250174368, 27.4], [9.2, 27.71070738282329]], [[9.25037039170784, 27.8], [8.8, 27.003928137289986]], [[9.250315932779198, 27.8], [9.2, 27.71070738282329]], [[9.475466508622674, 28.2], [9.6, 28.272483927834646]], [[10.162673238943874, 28.6], [9.2, 28.039670937700006]], [[9.860683304529632, 28.6], [9.6, 28.272483927834646]], [[9.860683304529632, 28.6], [10.0, 28.77494846123638]], [[10.385867107077468, 29.0], [9.6, 27.60036353889278]], [[10.17887290173232, 29.0], [10.0, 28.77494846123638]], [[10.17887290173232, 29.0], [10.4, 29.2780945843646]], [[10.608627392842582, 29.4], [10.0, 28.311429062332703]], [[10.496763813720925, 29.4], [10.4, 29.2780945843646]], [[10.496763813720925, 29.4], [10.8, 29.781880041758296]], [[10.830956762001938, 29.8], [10.4, 29.026178392236734]], [[10.830937668812481, 29.8], [10.8, 29.781880041758296]], [[11.052861117858212, 30.2], [11.2, 30.286154377702253]], [[11.735908419890098, 30.6], [10.8, 30.05195706550087]], [[11.448658344893554, 30.6], [11.2, 30.286154377702253]], [[11.448658344893554, 30.6], [11.6, 30.790969561477173]], [[11.95638393152418, 31.0], [11.2, 29.633630929301777]], [[11.76543711026848, 31.0], [11.6, 30.790969561477173]], [[11.76543711026848, 31.0], [12.0, 31.29630903497955]], [[12.176536672050545, 31.4], [11.6, 30.35522426237417]], [[12.176475413243761, 31.4], [12.0, 31.29630903497955]], [[12.396372958516578, 31.8], [12.4, 31.80213086730548]], [[13.077096246839753, 32.2], [12.0, 31.56716010230775]], [[12.714414541194877, 32.2], [12.4, 31.80213086730548]], [[12.714414541194877, 32.2], [12.8, 32.30829155632598]], [[13.295817847424043, 32.6], [12.4, 30.968461345722414]], [[13.03032906191768, 32.6], [12.8, 32.30829155632598]], [[13.03032906191768, 32.6], [13.2, 32.814869746253905]], [[13.514310675270934, 33.0], [12.8, 31.695862200820656]], [[13.514268175931344, 33.0], [13.2, 32.814869746253905]], [[13.514268175931344, 33.0], [13.6, 33.15698909192977]], [[13.73258217013927, 33.4], [13.2, 32.425524618787435]], [[13.732571272665806, 33.4], [13.6, 33.15698909192977]], [[13.977046810616239, 33.8], [14.0, 33.82910566475926]], [[14.628878486723783, 34.2], [13.6, 32.31391796342423]], [[14.292316276763627, 34.2], [14.0, 33.82910566475926]], [[14.292316276763627, 34.2], [14.4, 34.33663424399994]], [[14.846165162110054, 34.6], [14.0, 33.04611448229432]], [[14.821463364991322, 34.6], [14.8, 34.57274236697777]], [[15.063330519672798, 35.0], [15.2, 35.251847616532764]], [[15.237372547903538, 35.4], [14.8, 34.84454289870496]], [[15.280346717296402, 35.4], [15.2, 35.251847616532764]], [[15.280346717296402, 35.4], [15.6, 35.58884868570121]], [[15.957392331680518, 35.8], [15.2, 35.352532669811076]], [[15.766148647600575, 35.8], [15.6, 35.58884868570121]], [[15.766148647600575, 35.8], [16.0, 36.09721576171968]], [[16.17386714405922, 36.2], [15.6, 35.140521876656805]], [[16.08085185008435, 36.2], [16.0, 36.09721576171968]], [[16.390270726730904, 36.6], [16.4, 36.60575249386137]], [[17.066834398614784, 37.0], [16.0, 36.36924219271887]], [[16.710046773141922, 37.0], [16.4, 36.60575249386137]], [[16.710046773141922, 37.0], [16.8, 37.11439700356189]], [[17.28284408406291, 37.4], [16.4, 35.76690298536536]], [[17.02455811848368, 37.4], [16.8, 37.11439700356189]], [[17.02455811848368, 37.4], [17.2, 37.623162199272066]], [[17.49884284977534, 37.8], [16.8, 36.50665810739521]], [[17.49890120295937, 37.8], [17.2, 37.623162199272066]], [[17.49890120295937, 37.8], [17.6, 37.987226399254354]], [[17.653425456475727, 38.2], [17.2, 37.62319040140948]], [[17.714868369674278, 38.2], [17.6, 37.987226399254354]], [[17.714868369674278, 38.2], [18.0, 38.36870785991462]], [[18.390990936496564, 38.6], [17.6, 38.13202534400361]], [[18.181787446452983, 38.6], [18.0, 38.36870785991462]], [[18.181787446452983, 38.6], [18.4, 38.87767265269234]], [[18.60673532974661, 39.0], [18.0, 37.87535836598492]], [[18.496141802600814, 39.0], [18.4, 38.87767265269234]], [[18.496141802600814, 39.0], [18.8, 39.38666357276487]], [[18.82253402551104, 39.4], [18.4, 38.61687024316451]], [[18.822538869826857, 39.4], [18.8, 39.38666357276487]], [[19.12482938246639, 39.8], [19.2, 39.89566705550181]], [[19.714269452158646, 40.2], [18.8, 38.50453131812124]], [[19.653174052164015, 40.2], [19.6, 40.13234364746603]], [[19.93012801592677, 40.6], [20.0, 40.64134615137677]], [[20.606400260623005, 41.0], [19.6, 40.404592090012926]], [[20.281876667847644, 41.0], [20.0, 40.64134615137677]], [[20.281876667847644, 41.0], [20.4, 41.150317489090575]], [[20.82213134152019, 41.4], [20.0, 39.87531058952465]], [[20.810322812289343, 41.4], [20.8, 41.386868737833964]], [[21.038055848297187, 41.8], [21.2, 42.099885222066796]], [[21.22514543947216, 42.2], [20.8, 41.659144671422034]], [[21.254069560504746, 42.2], [21.2, 42.099885222066796]], [[21.254069560504746, 42.2], [21.6, 42.404606858931075]], [[21.930577496852102, 42.6], [21.2, 42.16800670769704]], [[21.753648519172124, 42.6], [21.6, 42.404606858931075]], [[21.753648519172124, 42.6], [22.0, 42.913309730632186]], [[22.146676886439497, 43.0], [21.6, 41.9878688012835]], [[22.146697896855805, 43.0], [22.0, 42.913309730632186]], [[22.146697896855805, 43.0], [22.4, 43.14972319699244]], [[22.823752224841947, 43.4], [22.0, 42.91324867462408]], [[22.596853771602497, 43.4], [22.4, 43.14972319699244]], [[22.596853771602497, 43.4], [22.8, 43.658296505362934]], [[23.03994758831898, 43.8], [22.4, 42.61556928948476]], [[23.03997336326448, 43.8], [22.8, 43.658296505362934]], [[23.03997336326448, 43.8], [23.2, 44.09579343724044]], [[23.226209063285562, 44.2], [22.8, 43.65817531416643]], [[23.25638603019031, 44.2], [23.2, 44.09579343724044]], [[23.25638603019031, 44.2], [23.6, 44.40294746164118]], [[23.933942031678374, 44.6], [23.2, 44.166678722967376]], [[23.75509031271816, 44.6], [23.6, 44.40294746164118]], [[23.75509031271816, 44.6], [24.0, 44.91118642467741]], [[24.150534363057105, 45.0], [23.6, 43.982974701245325]], [[24.150542035833542, 45.0], [24.0, 44.91118642467741]], [[24.38484935613833, 45.4], [24.4, 45.419247740073416]], [[25.04550696081116, 45.8], [24.0, 43.86937407141687]], [[24.91398963394404, 45.8], [24.8, 45.65528038068437]], [[24.91398963394404, 45.8], [25.2, 46.1631151813846]], [[25.229079291273838, 46.2], [24.8, 45.65511135071815]], [[25.262582043390697, 46.2], [25.2, 46.1631151813846]], [[25.262582043390697, 46.2], [25.6, 46.39896688759973]], [[25.941317732812497, 46.6], [25.2, 46.16307169244482]], [[25.758411508520005, 46.6], [25.6, 46.39896688759973]], [[25.758411508520005, 46.6], [26.0, 46.9065836134672]], [[26.15863635098516, 47.0], [25.6, 45.971466898517555]], [[26.158626061022474, 47.0], [26.0, 46.9065836134672]], [[26.158626061022474, 47.0], [26.4, 47.142228423080056]], [[26.838014076489173, 47.4], [26.0, 46.90646072442858]], [[26.603209509671675, 47.4], [26.4, 47.142228423080056]], [[26.603209509671675, 47.4], [26.8, 47.649618823208826]], [[27.05558650396796, 47.8], [26.4, 46.59431351682745]], [[27.055555376626195, 47.8], [26.8, 47.649618823208826]], [[27.055555376626195, 47.8], [27.2, 47.88505290475127]], [[27.735603826845633, 48.2], [26.8, 47.649400906047475]], [[27.44839492233951, 48.2], [27.2, 47.88505290475127]], [[27.44839492233951, 48.2], [27.6, 48.392212013214674]], [[27.95344214690231, 48.6], [27.2, 47.216011944056135]], [[27.9533777635976, 48.6], [27.6, 48.392212013214674]], [[27.9533777635976, 48.6], [28.0, 48.627433702870775]], [[28.63408889338891, 49.0], [27.6, 48.391883844460494]], [[28.293973744395394, 49.0], [28.0, 48.627433702870775]], [[28.293973744395394, 49.0], [28.4, 49.13435981475082]], [[28.852199492669232, 49.4], [28.0, 47.8365938286368]], [[28.824147518662908, 49.4], [28.8, 49.369418692652225]], [[29.13994661786437, 49.8], [29.2, 49.876064308427715]], [[29.4561457973533, 50.2], [28.8, 49.36857494372811]], [[29.751627658435936, 50.2], [29.6, 50.11101808791884]], [[29.986308750839974, 50.6], [30.0, 50.617333049933464]], [[30.302769940826238, 51.0], [29.6, 50.109902053343006]], [[30.652005757145982, 51.0], [30.4, 50.85220044882867]], [[30.652005757145982, 51.0], [30.8, 51.08687187852339]], [[31.334327612709547, 51.4], [30.4, 50.85192992071822]], [[31.04746389962025, 51.4], [30.8, 51.08687187852339]], [[31.04746389962025, 51.4], [31.2, 51.592980399758275]], [[31.36390758790394, 51.8], [30.8, 51.08625714585362]], [[31.553167498596014, 51.8], [31.2, 51.592980399758275]], [[31.553167498596014, 51.8], [31.6, 51.82747740073546]], [[32.23603211488214, 52.2], [31.2, 51.59257950529255]], [[32.10912683110094, 52.2], [32.0, 52.06199915178234]], [[32.10912683110094, 52.2], [32.4, 52.56777273239066]], [[32.42553146202404, 52.6], [32.0, 52.061729938048366]], [[32.45503212546152, 52.6], [32.4, 52.56777273239066]], [[32.45503212546152, 52.6], [32.8, 52.80220195138814]], [[33.138031141217084, 53.0], [32.4, 52.56771079209628]], [[33.137864965642144, 53.0], [32.8, 52.80220195138814]], [[33.137864965642144, 53.0], [33.2, 53.036412011282415]], [[33.821561599706925, 53.4], [32.8, 52.80179717880128]], [[33.4875905511679, 53.4], [33.2, 53.036412011282415]], [[33.4875905511679, 53.4], [33.6, 53.542085036007826]], [[33.804431680774954, 53.8], [33.2, 53.03562102652548]], [[34.04066183475726, 53.8], [34.0, 53.77621323391953]], [[34.04066183475726, 53.8], [34.4, 54.010417543069025]], [[34.724325290750556, 54.2], [34.0, 53.77616521800502]], [[34.724140225382605, 54.2], [34.4, 54.010417543069025]], [[34.724140225382605, 54.2], [34.8, 54.24441560192979]], [[35.408443062336936, 54.6], [34.4, 54.010012125803925]], [[35.08134065287528, 54.6], [34.8, 54.24441560192979]], [[35.08134065287528, 54.6], [35.2, 54.689376850695886]], [[36.09302885492969, 55.0], [34.8, 54.243611071231726]], [[35.627571666987414, 55.0], [35.6, 54.98388223302149]], [[35.627571666987414, 55.0], [36.0, 55.217943339653246]], [[36.31165732024314, 55.4], [35.6, 54.98384840888707]], [[36.31145682231704, 55.4], [36.0, 55.217943339653246]], [[36.31145682231704, 55.4], [36.4, 55.451814372342305]], [[36.99610864153868, 55.8], [36.0, 55.21754043391304]], [[36.89042116146892, 55.8], [36.8, 55.73197844719531]], [[36.89042116146892, 55.8], [37.2, 56.191132842729935]], [[37.20703165612018, 56.2], [36.8, 55.685483715330854]], [[37.21517325230033, 56.2], [37.2, 56.191132842729935]], [[37.21517325230033, 56.2], [37.6, 56.42514249229784]], [[37.7386436282834, 56.6], [37.2, 56.194703884546534]], [[37.899196521044196, 56.6], [37.6, 56.42514249229784]], [[37.899196521044196, 56.6], [38.0, 56.658981504291475]], [[38.270351844364356, 57.0], [37.6, 56.49556360552333]], [[38.583326519511715, 57.0], [38.4, 56.89288200156872]], [[38.583326519511715, 57.0], [38.8, 57.12675412289401]], [[39.26793604756317, 57.4], [38.4, 56.89263984051496]], [[39.23120254500497, 57.4], [39.2, 57.376525787745116]], [[39.23120254500497, 57.4], [39.6, 57.677731202587694]], [[39.95197610241483, 57.8], [39.2, 57.360461799293894]], [[39.762499794868766, 57.8], [39.6, 57.677731202587694]], [[39.762499794868766, 57.8], [40.0, 57.97889019024647]], [[40.63651605285745, 58.2], [39.6, 57.593995634157274]], [[40.293814926301714, 58.2], [40.0, 57.97889019024647]], [[40.293814926301714, 58.2], [40.4, 58.27999843077623]], [[41.321169439250916, 58.6], [40.0, 57.827345976179295]], [[40.85430275143831, 58.6], [40.8, 58.56825277179872]], [[40.85430275143831, 58.6], [41.2, 58.720485151440265]], [[42.00472403099414, 59.0], [40.8, 58.58105151109033]], [[41.57128802714141, 59.0], [41.2, 58.720485151440265]], [[41.57128802714141, 59.0], [41.6, 59.021640566509326]], [[42.68914339838598, 59.4], [41.2, 58.52862721703688]], [[42.22133322740125, 59.4], [42.0, 59.270518147991]], [[42.22133322740125, 59.4], [42.4, 59.46228452404785]], [[43.37211182969316, 59.8], [42.0, 59.32274868841136]], [[42.904508485169266, 59.8], [42.8, 59.73883897563203]], [[42.904508485169266, 59.8], [43.2, 59.90301435361392]], [[44.05476160502479, 60.2], [42.8, 59.76352347149571]], [[43.594166575660175, 60.2], [43.2, 59.90301435361392]], [[43.594166575660175, 60.2], [43.6, 60.20440069214311]], [[44.73820872647859, 60.6], [43.2, 59.69870000927999]], [[44.26982120081285, 60.6], [44.0, 60.44191666018361]], [[44.26982120081285, 60.6], [44.4, 60.64541252180536]], [[45.41990701911551, 61.0], [44.0, 60.50576232667648]]]}}, {"type": "Feature", "properties": {"level": 0.3, "label": "30%"}, "geometry": {"type": "MultiLineString", "coordinates": [[[4.340536214437371, 25.4], [4.4, 25.47218455376464]], [[4.985218498237472, 25.8], [4.0, 24.20605377659705]], [[4.668501127763907, 25.8], [4.4, 25.47218455376464]], [[4.668501127763907, 25.8], [4.8, 25.960235522175296]], [[5.225998159578508, 26.2], [4.4, 24.849727871857638]], [[5.21122183141608, 26.2], [5.2, 26.186220256904242]], [[5.464801279084533, 26.6], [5.6, 26.825600887670586]], [[5.704268077691195, 27.0], [5.2, 26.159871188676753]], [[5.703959639958669, 27.0], [5.6, 26.825600887670586]], [[5.973023123230053, 27.4], [6.0, 27.43315715906973]], [[6.645070488225047, 27.8], [5.6, 26.04990179779177]], [[6.2971946179433544, 27.8], [6.0, 27.43315715906973]], [[6.2971946179433544, 27.8], [6.4, 27.926745745190985]], [[6.878663897427848, 28.2], [6.0, 26.71596245870181]], [[6.620778791791626, 28.2], [6.4, 27.926745745190985]], [[6.620778791791626, 28.2], [6.8, 28.42159028765337]], [[7.111408558060191, 28.6], [6.4, 27.38880249844893]], [[7.110740098575716, 28.6], [6.8, 28.42159028765337]], [[7.110740098575716, 28.6], [7.2, 28.753336593333795]], [[7.343291337340644, 29.0], [6.8, 28.068075864322747]], [[7.343022658382317, 29.0], [7.2, 28.753336593333795]], [[7.574306392196766, 29.4], [7.6, 29.414795086995838]], [[8.269064911402083, 29.8], [7.2, 29.184444389174594]], [[7.909276639010597, 29.8], [7.6, 29.414795086995838]], [[7.909276639010597, 29.8], [8.0, 29.912927752722055]], [[8.497113442962332, 30.2], [7.6, 28.642991087956215]], [[8.229996544489294, 30.2], [8.0, 29.912927752722055]], [[8.229996544489294, 30.2], [8.4, 30.412088019597267]], [[8.724489698030501, 30.6], [8.0, 29.334569314957477]], [[8.724084752430452, 30.6], [8.4, 30.412088019597267]], [[8.724084752430452, 30.6], [8.8, 30.73355811878124]], [[8.951184952011447, 31.0], [8.4, 30.03157048789165]], [[8.951025121595787, 31.0], [8.8, 30.73355811878124]], [[9.189412794775798, 31.4], [9.2, 31.41325533281905]], [[9.865160126710284, 31.8], [8.8, 29.919957898575138]], [[9.508276944902438, 31.8], [9.2, 31.41325533281905]], [[9.508276944902438, 31.8], [9.6, 31.915051815075472]], [[10.08894499897969, 32.2], [9.2, 30.622674440924506]], [[10.041079503643536, 32.2], [10.0, 32.148329245512386]], [[10.312011663452092, 32.6], [10.4, 32.75775974865412]], [[10.462686438598322, 33.0], [10.0, 32.4178572199637]], [[10.534855040156442, 33.0], [10.4, 32.75775974865412]], [[10.780065268641847, 33.4], [10.8, 33.4251200950071]], [[11.43983774735134, 33.8], [10.4, 31.92991353003891]], [[11.311255647839006, 33.8], [11.2, 33.659535305578956]], [[11.311255647839006, 33.8], [11.6, 34.1646052638155]], [[11.660282120819979, 34.2], [11.2, 33.36697021187628]], [[11.6280035034889, 34.2], [11.6, 34.16460526381551]], [[11.880501350980365, 34.6], [12.0, 34.81736848852165]], [[12.046648723840354, 35.0], [11.6, 34.435197865053695]], [[12.100288844679763, 35.0], [12.0, 34.81736848852165]], [[12.100288844679763, 35.0], [12.4, 35.176367495487156]], [[12.779937350042804, 35.4], [12.0, 34.94099278404899]], [[12.576586227311482, 35.4], [12.4, 35.176367495487156]], [[12.576586227311482, 35.4], [12.8, 35.683023725733136]], [[12.998486989272942, 35.8], [12.4, 34.70640570919922]], [[12.998491028029028, 35.8], [12.8, 35.683023725733136]], [[12.998491028029028, 35.8], [13.2, 36.16934585109708]], [[13.216710633929146, 36.2], [12.8, 35.43673405864905]], [[13.21671176304864, 36.2], [13.2, 36.16934585109708]], [[13.523061839697581, 36.6], [13.6, 36.69764931594427]], [[14.11200299015023, 37.0], [13.2, 35.323979205614016]], [[14.052111963688644, 37.0], [14.0, 36.933826276639]], [[14.329048534901716, 37.4], [14.4, 37.530903519977855]], [[14.467837152336335, 37.8], [14.0, 37.20553523623813]], [[14.545798029695549, 37.8], [14.4, 37.530903519977855]], [[14.545798029695549, 37.8], [14.8, 37.95035546151423]], [[15.222109084174981, 38.2], [14.4, 37.7137582939242]], [[14.996343008574197, 38.2], [14.8, 37.95035546151423]], [[14.996343008574197, 38.2], [15.2, 38.459060725485]], [[15.438143935177205, 38.6], [14.8, 37.418971291266175]], [[15.438193628854327, 38.6], [15.2, 38.459060725485]], [[15.438193628854327, 38.6], [15.6, 38.89983744163806]], [[15.654032823294473, 39.0], [15.2, 38.15890862126541]], [[15.654044418638552, 39.0], [15.6, 38.89983744163806]], [[15.939395765258897, 39.4], [16.0, 39.47718020770494]], [[16.544805829022845, 39.8], [15.6, 38.045188284441565]], [[16.467419203671867, 39.8], [16.4, 39.71416595793974]], [[16.760163874537447, 40.2], [16.8, 40.22362114696201]], [[17.435116088878246, 40.6], [16.4, 39.9863645483266]], [[17.095447832580653, 40.6], [16.8, 40.22362114696201]], [[17.095447832580653, 40.6], [17.2, 40.733254512700015]], [[17.649976417676545, 41.0], [16.8, 39.41687429201655]], [[17.623281535740816, 41.0], [17.6, 40.97034286392608]], [[17.864877588205445, 41.4], [18.0, 41.65158605499787]], [[18.03711399260697, 41.8], [17.6, 41.242784259848584]], [[18.079727000849278, 41.8], [18.0, 41.65158605499787]], [[18.079727000849278, 41.8], [18.4, 41.99003991951685]], [[18.754172671657773, 42.2], [18.0, 41.752666467313766]], [[18.5647518422987, 42.2], [18.4, 41.99003991951685]], [[18.5647518422987, 42.2], [18.8, 42.499917101254255]], [[18.96881002573992, 42.6], [18.4, 41.53944254773146]], [[18.96882513849761, 42.6], [18.8, 42.499917101254255]], [[19.19233800881061, 43.0], [19.2, 43.009772963294]], [[19.50629161541018, 43.4], [18.8, 42.498829053523245]], [[19.85799348659311, 43.4], [19.6, 43.24710628242734]], [[19.85799348659311, 43.4], [20.0, 43.66471429918622]], [[20.03378749855631, 43.8], [19.6, 43.246834927135225]], [[20.07259822345885, 43.8], [20.0, 43.66471429918622]], [[20.07259822345885, 43.8], [20.4, 43.994212778100966]], [[20.74740776625164, 44.2], [20.0, 43.756898817701234]], [[20.56147412927312, 44.2], [20.4, 43.994212778100966]], [[20.56147412927312, 44.2], [20.8, 44.50407021443241]], [[20.961963805031527, 44.6], [20.4, 43.55167238286114]], [[20.961948809287897, 44.6], [20.8, 44.50407021443241]], [[21.18916896600007, 45.0], [21.2, 45.01381150813403]], [[21.851919793278455, 45.4], [20.8, 43.43553427608136]], [[21.716988524502824, 45.4], [21.6, 45.25096975788738]], [[21.716988524502824, 45.4], [22.0, 45.760595573977724]], [[22.066582286851165, 45.8], [21.6, 44.9307840866453]], [[22.06656785177724, 45.8], [22.0, 45.760595573977724]], [[22.06656785177724, 45.8], [22.4, 45.99761342778142]], [[22.742143898535506, 46.2], [22.0, 45.76050256918724]], [[22.55890172987195, 46.2], [22.4, 45.99761342778142]], [[22.55890172987195, 46.2], [22.8, 46.50712080914983]], [[22.957052631621174, 46.6], [22.4, 45.56256755632793]], [[22.95700149201114, 46.6], [22.8, 46.50712080914983]], [[23.187098421520755, 47.0], [23.2, 47.01643682253687]], [[23.501783033823287, 47.4], [22.8, 46.505333138229425]], [[23.84812682757857, 47.4], [23.6, 47.25330710909901]], [[23.84812682757857, 47.4], [24.0, 47.68195193966552]], [[24.029603081398704, 47.8], [23.6, 47.25288495995065]], [[24.063605675828494, 47.8], [24.0, 47.68195193966552]], [[24.063605675828494, 47.8], [24.4, 47.99910993348755]], [[24.74022002305729, 48.2], [24.0, 47.76229848830022]], [[24.74002590259454, 48.2], [24.4, 47.99910993348755]], [[24.74002590259454, 48.2], [24.8, 48.311231152162286]], [[24.87248163863505, 48.6], [24.4, 47.99848044532751]], [[24.955740649854263, 48.6], [24.8, 48.311231152162286]], [[24.955740649854263, 48.6], [25.2, 48.74449141730123]], [[25.633071720528, 49.0], [24.8, 48.50772800611571]], [[25.615195559340773, 49.0], [25.6, 48.98068251909342]], [[25.84874705255239, 49.4], [26.0, 49.489420451413885]], [[26.52684723312737, 49.8], [25.6, 49.25269194920495]], [[26.458597110067444, 49.8], [26.4, 49.72553975956141]], [[26.773354037256922, 50.2], [26.8, 50.233872776145574]], [[27.421586437314623, 50.6], [26.4, 48.70658629336096]], [[27.302401653830778, 50.6], [27.2, 50.46993581588768]], [[27.302401653830778, 50.6], [27.6, 50.97790868108459]], [[27.61744864423311, 51.0], [27.2, 50.46947003095726]], [[27.63750883706214, 51.0], [27.6, 50.97790868108459]], [[27.63750883706214, 51.0], [28.0, 51.21385549651517]], [[28.316492517973906, 51.4], [27.6, 50.97783108618201]], [[28.316165509602527, 51.4], [28.0, 51.21385549651517]], [[28.316165509602527, 51.4], [28.4, 51.44944825232154]], [[28.996307265160645, 51.8], [28.0, 51.21314912730404]], [[28.676081777849404, 51.8], [28.4, 51.44944825232154]], [[28.676081777849404, 51.8], [28.8, 51.95729053218467]], [[28.9918815852724, 52.2], [28.4, 51.4480120687113]], [[29.2124796992558, 52.2], [29.2, 52.19266229978434]], [[29.2124796992558, 52.2], [29.6, 52.42825403291366]], [[29.892539121406386, 52.6], [29.2, 52.19263513513759]], [[29.7353771572489, 52.6], [29.6, 52.42825403291366]], [[29.7353771572489, 52.6], [30.0, 52.93558575542789]], [[30.05096777520273, 53.0], [29.6, 52.42757034952452]], [[30.109612720502028, 53.0], [30.0, 52.93558575542789]], [[30.109612720502028, 53.0], [30.4, 53.17096141099976]], [[30.79038076615962, 53.4], [30.0, 52.93533577299042]], [[30.789856385513488, 53.4], [30.4, 53.17096141099976]], [[30.789856385513488, 53.4], [30.8, 53.40597106164372]], [[31.471867706495505, 53.8], [30.4, 53.17000780135017]], [[31.110685319598467, 53.8], [30.8, 53.40597106164372]], [[31.110685319598467, 53.8], [31.2, 53.867472939535475]], [[32.15426206655014, 54.2], [30.8, 53.404211579772095]], [[31.68824879534516, 54.2], [31.6, 54.14820991378891]], [[31.68824879534516, 54.2], [32.0, 54.38330233960872]], [[32.369874642377695, 54.6], [31.6, 54.148002155927166]], [[32.369320187446164, 54.6], [32.0, 54.38330233960872]], [[32.369320187446164, 54.6], [32.4, 54.61803758827393]], [[33.052180754096874, 55.0], [32.0, 54.3823735331316]], [[32.91600299464611, 55.0], [32.8, 54.91259643283994]], [[32.91600299464611, 55.0], [33.2, 55.35968352231063]], [[33.231952742404, 55.4], [32.8, 54.85238027782627]], [[33.26876958226536, 55.4], [33.2, 55.35968352231063]], [[33.26876958226536, 55.4], [33.6, 55.5945606090748]], [[33.76284201199806, 55.8], [33.2, 55.37587241556203]], [[33.950467763995064, 55.8], [33.6, 55.5945606090748]], [[33.950467763995064, 55.8], [34.0, 55.829094549189485]], [[34.63394475039107, 56.2], [33.6, 55.59366329032629]], [[34.50749211583068, 56.2], [34.4, 56.06383823680866]], [[34.50749211583068, 56.2], [34.8, 56.420701792489794]], [[35.31579798779506, 56.6], [34.4, 56.063252693868634]], [[35.03805916593588, 56.6], [34.8, 56.420701792489794]], [[35.03805916593588, 56.6], [35.2, 56.72220029923988]], [[35.99950266987342, 57.0], [34.8, 56.296999475617724]], [[35.56883870567912, 57.0], [35.2, 56.72220029923988]], [[35.56883870567912, 57.0], [35.6, 57.02351721315562]], [[36.683959764203756, 57.4], [35.2, 56.530296054333355]], [[36.21503314338884, 57.4], [36.0, 57.274072034688004]], [[36.21503314338884, 57.4], [36.4, 57.508541356139595]], [[36.63112073395118, 57.8], [36.0, 57.32463216427236]], [[36.89748882874077, 57.8], [36.8, 57.742924610920866]], [[36.89748882874077, 57.8], [37.2, 57.97746359118085]], [[37.58078650404239, 58.2], [36.8, 57.74268228020126]], [[37.58006190039045, 58.2], [37.2, 57.97746359118085]], [[37.58006190039045, 58.2], [37.6, 58.21169896815236]], [[38.26443980466082, 58.6], [37.2, 57.97646545953921]], [[38.121288175724935, 58.6], [38.0, 58.50866225058921]], [[38.121288175724935, 58.6], [38.4, 58.81027858288888]], [[38.946514010418554, 59.0], [38.0, 58.44560397621811]], [[38.8670141910344, 59.0], [38.8, 58.94952990742974]], [[38.8670141910344, 59.0], [39.2, 59.25124035881505]], [[39.62859195796847, 59.4], [38.8, 58.914673806439914]], [[39.39749262808009, 59.4], [39.2, 59.25124035881505]], [[39.39749262808009, 59.4], [39.6, 59.552830721936594]], [[40.312175868917215, 59.8], [39.2, 59.148390135681524]], [[40.14309631356105, 59.8], [40.0, 59.69219578108175]], [[40.14309631356105, 59.8], [40.4, 59.99390995285264]], [[40.993811537651666, 60.2], [40.0, 59.61763526659528]], [[40.88867936726239, 60.2], [40.8, 60.13317685165392]], [[40.88867936726239, 60.2], [41.2, 60.43502942473195]], [[41.675284122460724, 60.6], [40.8, 60.08694204968973]], [[41.41887577727747, 60.6], [41.2, 60.43502942473195]], [[41.41887577727747, 60.6], [41.6, 60.73678265783623]], [[42.35825900382933, 61.0], [41.2, 60.320765218430466]], [[42.164170248168915, 61.0], [42.0, 60.87622266350845]], [[42.164170248168915, 61.0], [42.4, 61.17814642220874]], [[42.695645200507414, 61.4], [42.0, 60.875362436393985]], [[43.03701070543699, 61.4], [42.8, 61.31752409632149]], [[43.03701070543699, 61.4], [43.2, 61.4958295937432]], [[43.440225877781046, 61.8], [42.8, 61.31696602812943]], [[43.71786731898513, 61.8], [43.6, 61.75896903107239]], [[43.71786731898513, 61.8], [44.0, 61.89862743360106]], [[44.86795186506201, 62.2], [43.6, 61.75869886952271]], [[44.399210243031206, 62.2], [44.0, 61.89862743360106]], [[44.399210243031206, 62.2], [44.4, 62.200597439421095]], [[45.54987585567464, 62.6], [44.0, 61.68888539653686]]]}}, {"type": "Feature", "properties": {"level": 0.5, "label": "50%"}, "geometry": {"type": "MultiLineString", "coordinates": [[[1.1414138812461176, 25.0], [1.2, 25.084118796243782]], [[1.4193700515184333, 25.4], [0.8, 24.5118103811686]], [[1.416727761149077, 25.4], [1.2, 25.084118796243782]], [[1.416727761149077, 25.4], [1.6, 25.6681067901131]], [[1.6898941575386572, 25.8], [1.2, 25.084314467138377]], [[1.6889297113845265, 25.8], [1.6, 25.6681067901131]], [[1.9805270744814174, 26.2], [2.0, 26.22280217813568]], [[2.704927459128517, 26.6], [1.6, 24.976265577482437]], [[2.318367022908161, 26.6], [2.0, 26.22280217813568]], [[2.318367022908161, 26.6], [2.4, 26.696241397448485]], [[2.96263191289543, 27.0], [2.0, 25.560094520039264]], [[2.6549185084923175, 27.0], [2.4, 26.696241397448485]], [[2.6549185084923175, 27.0], [2.8, 27.172130846918925]], [[3.218589477446664, 27.4], [2.4, 26.155016253595125]], [[3.2068661173441626, 27.4], [3.2, 27.391741645876266]], [[3.470752225141286, 27.8], [3.6, 28.002953199539327]], [[3.7251129420362292, 28.2], [3.2, 27.376830697993228]], [[3.7243068467583718, 28.2], [3.6, 28.002953199539327]], [[3.9887405783844754, 28.6], [4.0, 28.613544741628566]], [[4.697638003277347, 29.0], [3.6, 27.267602057887938]], [[4.3187620668932025, 29.0], [4.0, 28.613544741628566]], [[4.3187620668932025, 29.0], [4.4, 29.098228263265028]], [[4.941194310373065, 29.4], [4.0, 27.89390942393377]], [[4.647839446421651, 29.4], [4.4, 29.098228263265028]], [[4.647839446421651, 29.4], [4.8, 29.584859359487925]], [[5.183497427589361, 29.8], [4.4, 28.530021077655796]], [[5.181709213404916, 29.8], [4.8, 29.584859359487925]], [[5.181709213404916, 29.8], [5.2, 29.83005903853808]], [[5.424484959923148, 30.2], [4.8, 29.17554525966561]], [[5.423587246701156, 30.2], [5.2, 29.83005903853808]], [[5.423587246701156, 30.2], [5.6, 30.493169926473506]], [[5.629686555696717, 30.6], [5.2, 30.073477439433898]], [[5.66389464500526, 30.6], [5.6, 30.493169926473506]], [[5.9547595330123775, 31.0], [6.0, 31.055569300431152]], [[6.605720876876819, 31.4], [5.6, 29.71957330342024]], [[6.493970035108555, 31.4], [6.4, 31.283776725198653]], [[6.493970035108554, 31.4], [6.8, 31.778190855592815]], [[6.838080997963908, 31.8], [6.4, 31.055312104833128]], [[6.817581360775621, 31.8], [6.8, 31.778190855592815]], [[7.071128622543504, 32.2], [7.2, 32.42195852949883]], [[7.247845961166261, 32.6], [6.8, 32.044281087494745]], [[7.302955753663077, 32.6], [7.2, 32.42195852949883]], [[7.302955753663077, 32.6], [7.6, 32.77122500563565]], [[7.99683586203924, 33.0], [7.2, 32.5406573516376]], [[7.783533972002421, 33.0], [7.6, 32.77122500563565]], [[7.783533972002421, 33.0], [8.0, 33.26978187849648]], [[8.225076695841226, 33.4], [7.6, 32.31154410601885]], [[8.10421160299516, 33.4], [8.0, 33.26978187849648]], [[8.10421160299516, 33.4], [8.4, 33.76960679057157]], [[8.452363216508564, 33.8], [8.0, 33.00642890537681]], [[8.452309178423818, 33.8], [8.4, 33.76960679057157]], [[8.678686414559806, 34.2], [8.8, 34.27056115367483]], [[9.366117765439151, 34.6], [8.4, 34.0379500752486]], [[9.062503812424733, 34.6], [8.8, 34.27056115367483]], [[9.062503812424733, 34.6], [9.2, 34.77262113137793]], [[9.58962753036346, 35.0], [8.8, 33.595597668632564]], [[9.380822538703871, 35.0], [9.2, 34.77262113137793]], [[9.380822538703871, 35.0], [9.6, 35.27574212699417]], [[9.812376518684026, 35.4], [9.2, 34.30432851080455]], [[9.812292922164, 35.4], [9.6, 35.27574212699417]], [[9.812292922164, 35.4], [10.0, 35.73803573271429]], [[10.015973335215078, 35.8], [9.6, 35.27580686099705]], [[10.034352528772107, 35.8], [10.0, 35.73803573271429]], [[10.332836075064963, 36.2], [10.4, 36.2848483114028]], [[10.936138897835097, 36.6], [10.0, 34.90430661286303]], [[10.863262398485464, 36.6], [10.8, 36.519974753538094]], [[11.155357034943124, 37.0], [11.2, 37.08162827664035]], [[11.280958739320308, 37.4], [10.8, 36.79067364983612]], [[11.37397685028124, 37.4], [11.2, 37.08162827664035]], [[11.37397685028124, 37.4], [11.6, 37.53340347998425]], [[12.051605136769684, 37.8], [11.2, 37.29732666380585]], [[11.810097687116775, 37.8], [11.6, 37.53340347998425]], [[11.810097687116775, 37.8], [12.0, 38.041206637998364]], [[12.268591151552494, 38.2], [11.6, 36.968787759864895]], [[12.268639652366826, 38.2], [12.0, 38.041206637998364]], [[12.268639652366826, 38.2], [12.4, 38.442724909070826]], [[12.439603405291162, 38.6], [12.0, 38.04107856518415]], [[12.485089310821163, 38.6], [12.4, 38.442724909070826]], [[12.75392939155245, 39.0], [12.8, 39.05869571257027]], [[13.375427108956933, 39.4], [12.4, 37.586875290839515]], [[13.281722047046484, 39.4], [13.2, 39.29591963265397]], [[13.590283566688758, 39.8], [13.6, 39.80577559958943]], [[14.263713760769273, 40.2], [13.2, 39.56790535356343]], [[13.909002782922379, 40.2], [13.6, 39.80577559958943]], [[13.909002782922379, 40.2], [14.0, 40.31622428576182]], [[14.477389723454168, 40.6], [13.6, 38.9557892836274]], [[14.436055420339807, 40.6], [14.4, 40.55398782282956]], [[14.690806699683916, 41.0], [14.8, 41.065057808044855]], [[15.362946131802678, 41.4], [14.4, 40.82659346037318]], [[15.062047311194178, 41.4], [14.8, 41.065057808044855]], [[15.062047311194178, 41.4], [15.2, 41.57651277297866]], [[15.575447014910312, 41.8], [14.8, 40.33806835136306]], [[15.37480755859875, 41.8], [15.2, 41.57651277297866]], [[15.37480755859875, 41.8], [15.6, 42.088185114031724]], [[15.787775480780207, 42.2], [15.2, 41.09149287088541]], [[15.787760363681254, 42.2], [15.6, 42.088185114031724]], [[15.999990073473972, 42.6], [16.0, 42.60001272373438]], [[16.670834524295795, 43.0], [15.6, 40.969584286938165]], [[16.52595322729295, 43.0], [16.4, 42.83880348305005]], [[16.52595322729295, 43.0], [16.8, 43.35102431401424]], [[16.838329911658427, 43.4], [16.4, 42.8381575003762]], [[16.882183593879155, 43.4], [16.8, 43.35102431401424]], [[16.882183593879155, 43.4], [17.2, 43.589857268131446]], [[17.55274181245112, 43.8], [16.8, 43.35082451938642]], [[17.36407547050409, 43.8], [17.2, 43.589857268131446]], [[17.36407547050409, 43.8], [17.6, 44.102393066298745]], [[17.763844535758405, 44.2], [17.2, 43.13023400225854]], [[17.763754432570483, 44.2], [17.6, 44.102393066298745]], [[17.988353389829282, 44.6], [18.0, 44.61494741648425]], [[18.645773106941053, 45.0], [17.6, 43.006859930379576]], [[18.513977794868634, 45.0], [18.4, 44.85398021835778]], [[18.513977794868634, 45.0], [18.8, 45.366634571074975]], [[18.856029878800182, 45.4], [18.4, 44.53419609265948]], [[18.855981379123666, 45.4], [18.8, 45.366634571074975]], [[19.13800989104151, 45.8], [19.2, 45.87954736896015]], [[19.4509653193285, 46.2], [18.8, 45.36348624533408]], [[19.73690994153928, 46.2], [19.6, 46.11841520887784]], [[19.97574551373236, 46.6], [20.0, 46.63112741255512]], [[20.619431588891523, 47.0], [19.6, 45.05509085440158]], [[20.50139768408707, 47.0], [20.4, 46.870100340803226]], [[20.50139768408707, 47.0], [20.8, 47.38260871006196]], [[20.813642832889816, 47.4], [20.4, 46.86921592653716]], [[20.82920458594778, 47.4], [20.8, 47.38260871006196]], [[20.82920458594778, 47.4], [21.2, 47.62157957357454]], [[21.500176527655146, 47.8], [20.8, 47.38249202971169]], [[21.339272855102646, 47.8], [21.2, 47.62157957357454]], [[21.339272855102646, 47.8], [21.6, 48.13402033431897]], [[21.65180283081689, 48.2], [21.2, 47.62023834443481]], [[21.7108514446213, 48.2], [21.6, 48.13402033431897]], [[21.7108514446213, 48.2], [22.0, 48.37275023462618]], [[22.38266856734608, 48.6], [21.6, 48.13353384264924]], [[22.177409044123053, 48.6], [22.0, 48.37275023462618]], [[22.177409044123053, 48.6], [22.4, 48.885078043903974]], [[22.490319467326252, 49.0], [22.0, 48.370878569213424]], [[22.593190478197524, 49.0], [22.4, 48.885078043903974]], [[22.593190478197524, 49.0], [22.8, 49.1235175653494]], [[23.266041444797402, 49.4], [22.4, 48.884153568898164]], [[23.01589184824931, 49.4], [22.8, 49.1235175653494]], [[23.01589184824931, 49.4], [23.2, 49.63569287587806]], [[23.329279533985922, 49.8], [22.8, 49.121039761091]], [[23.47639220177817, 49.8], [23.2, 49.63569287587806]], [[23.47639220177817, 49.8], [23.6, 49.873794961561174]], [[24.15046615548498, 50.2], [23.2, 49.63426028174869]], [[24.068876031235646, 50.2], [24.0, 50.11190498448918]], [[24.36061079717478, 50.6], [24.4, 50.62350426073094]], [[25.03609649892958, 51.0], [24.0, 50.38377172363387]], [[24.908185902485354, 51.0], [24.8, 50.86168489425817]], [[24.908185902485354, 51.0], [25.2, 51.372821151900176]], [[25.22143998684471, 51.4], [24.8, 50.86039601120606]], [[25.245845302009055, 51.4], [25.2, 51.372821151900176]], [[25.245845302009055, 51.4], [25.6, 51.610853909022126]], [[25.920221850006527, 51.8], [25.2, 51.372576074846364]], [[25.919114712405282, 51.8], [25.6, 51.610853909022126]], [[25.919114712405282, 51.8], [26.0, 51.84816611535185]], [[26.596070080909737, 52.2], [25.6, 51.60897219064253]], [[26.275211401285862, 52.2], [26.0, 51.84816611535185]], [[26.275211401285862, 52.2], [26.4, 52.359355431171224]], [[26.590226127442516, 52.6], [26.0, 51.84430059976597]], [[26.80631386853953, 52.6], [26.8, 52.59626496024046]], [[26.80631386853953, 52.6], [27.2, 52.833910732624794]], [[27.48192496055458, 53.0], [26.8, 52.59622961760195]], [[27.33011238219533, 53.0], [27.2, 52.833910732624794]], [[27.33011238219533, 53.0], [27.6, 53.34410582974024]], [[27.644236293543212, 53.4], [27.2, 52.83218392303353]], [[27.694561674731155, 53.4], [27.6, 53.34410582974024]], [[27.694561674731155, 53.4], [28.0, 53.5813633151408]], [[28.37157763033285, 53.8], [27.6, 53.343547443520116]], [[28.36997774375553, 53.8], [28.0, 53.5813633151408]], [[28.36997774375553, 53.8], [28.4, 53.817829279306096]], [[29.050038173965433, 54.2], [28.0, 53.578967013642284]], [[28.913775745002788, 54.2], [28.8, 54.11402379461728]], [[28.913775745002788, 54.2], [29.2, 54.564440256345044]], [[29.228194625191247, 54.6], [28.8, 54.05336690009061]], [[29.260280964951498, 54.6], [29.2, 54.564440256345044]], [[29.260280964951498, 54.6], [29.6, 54.801321229484515]], [[29.75766482767475, 55.0], [29.2, 54.57857710721021]], [[29.936883333934126, 55.0], [29.6, 54.801321229484515]], [[29.936883333934126, 55.0], [30.0, 55.037408409051835]], [[30.61823805023683, 55.4], [29.6, 54.79908911551388]], [[30.49896155832746, 55.4], [30.4, 55.27395117982434]], [[30.49896155832746, 55.4], [30.8, 55.62826240174119]], [[31.294775118952014, 55.8], [30.4, 55.272569743092824]], [[31.027519480977993, 55.8], [30.8, 55.62826240174119]], [[31.027519480977993, 55.8], [31.2, 56.01933493564883]], [[31.343620319315015, 56.2], [30.8, 55.506651400975976]], [[31.506884976905553, 56.2], [31.2, 56.01933493564883]], [[31.506884976905553, 56.2], [31.6, 56.25508855696101]], [[31.874475246369933, 56.6], [31.2, 56.09095587747779]], [[32.185096403919474, 56.6], [32.0, 56.4911351162895]], [[32.185096403919474, 56.6], [32.4, 56.72700170609964]], [[32.86685455596985, 57.0], [32.0, 56.48992996748004]], [[32.829541649286945, 57.0], [32.8, 56.977723563676356]], [[32.829541649286945, 57.0], [33.2, 57.28053949880477]], [[33.5450054798563, 57.4], [32.8, 56.962017043109896]], [[33.35844103093181, 57.4], [33.2, 57.28053949880477]], [[33.35844103093181, 57.4], [33.6, 57.58296351935009]], [[34.2275690912926, 57.8], [33.2, 57.1960471294703]], [[33.88789626064235, 57.8], [33.6, 57.58296351935009]], [[33.88789626064235, 57.8], [34.0, 57.884928758289035]], [[34.91224278673024, 58.2], [33.6, 57.42893635635751]], [[34.43852402408317, 58.2], [34.4, 58.17738502259489]], [[34.43852402408317, 58.2], [34.8, 58.41316474932219]], [[34.94887219020646, 58.6], [34.4, 58.186358074369984]], [[35.11831198510565, 58.6], [34.8, 58.41316474932219]], [[35.11831198510565, 58.6], [35.2, 58.62874938528443]], [[36.27684894703517, 59.0], [34.8, 58.487162147140054]], [[35.79837214065395, 59.0], [35.6, 58.88361938381504]], [[35.79837214065395, 59.0], [36.0, 59.11884505762407]], [[36.22419626919178, 59.4], [35.6, 58.92975851268053]], [[36.47884653301352, 59.4], [36.4, 59.353758879223314]], [[36.47884653301352, 59.4], [36.8, 59.589196740218455]], [[36.968029490641065, 59.8], [36.4, 59.3721096864893]], [[37.159459359217, 59.8], [36.8, 59.589196740218455]], [[37.159459359217, 59.8], [37.2, 59.814251300766024]], [[38.32073420590781, 60.2], [36.8, 59.67270467435699]], [[37.83996413231377, 60.2], [37.6, 60.05929879454751]], [[37.83996413231377, 60.2], [38.0, 60.29426911168689]], [[38.24381120916672, 60.6], [37.6, 60.11510030139154]], [[38.520725648702154, 60.6], [38.4, 60.52921671270897]], [[38.520725648702154, 60.6], [38.8, 60.764468823880144]], [[38.98770473952477, 61.0], [38.4, 60.557321607644084]], [[39.20167426289326, 61.0], [39.2, 60.99941851179626]], [[39.20167426289326, 61.0], [39.6, 61.13979526507403]], [[40.35552265598305, 61.4], [39.2, 60.99940852924535]], [[39.945315532667294, 61.4], [39.6, 61.13979526507403]], [[39.945315532667294, 61.4], [40.0, 61.441402209492395]], [[41.042210878925374, 61.8], [39.6, 60.9545850378553]], [[40.689921435388705, 61.8], [40.4, 61.581481354357514]], [[40.689921435388705, 61.8], [40.8, 61.88334493812629]], [[41.227012080501055, 62.2], [40.4, 61.57701451157149]], [[41.65017226764279, 62.2], [41.6, 62.16216226789413]], [[41.65017226764279, 62.2], [42.0, 62.46485987828692]], [[42.39174129051608, 62.6], [41.6, 62.13538201055938]], [[42.389277803068055, 62.6], [42.0, 62.46485987828692]], [[42.389277803068055, 62.6], [42.4, 62.603764503422006]], [[43.552153742237266, 63.0], [42.0, 62.46233751209899]], [[43.06878268317812, 63.0], [42.8, 62.906639114868284]], [[43.06878268317812, 63.0], [43.2, 63.046071892481514]], [[44.22808827487505, 63.4], [42.8, 62.90497615430432]], [[43.8832938161583, 63.4], [43.6, 63.18614008771401]], [[43.8832938161583, 63.4], [44.0, 63.463106377140605]], [[45.38460903923328, 63.8], [43.6, 63.18196917710551]]]}}, {"type": "Feature", "properties": {"level": 0.7, "label": "70%"}, "geometry": {"type": "MultiLineString", "coordinates": [[[-16.4, 25.302978202570728], [-16.64207728499291, 25.4]], [[-15.616002611227152, 25.0], [-15.6, 24.99388792547964]], [[-16.65562320951625, 25.4], [-16.0, 25.147072359217958]], [[-2.546890213816904, 25.0], [-2.4, 25.140837193863298]], [[-2.125686271260608, 25.4], [-2.8, 24.75386848078776]], [[-2.1460658944631397, 25.4], [-2.4, 25.140837193863298]], [[-17.6, 25.798285070160837], [-17.604073756660387, 25.8]], [[-16.64207728499291, 25.4], [-16.4, 25.29943291498485]], [[-17.622852055667153, 25.8], [-16.8, 25.46520931780308]], [[-2.1460658944631397, 25.4], [-2.0, 25.54794014690331]], [[-1.748299098788761, 25.8], [-2.4, 25.139840286807722]], [[-1.7647905286091388, 25.8], [-2.0, 25.54794014690331]], [[-18.4, 26.150324694370184], [-18.509288154139806, 26.2]], [[-17.604073756660387, 25.8], [-17.6, 25.798240556402202]], [[-18.51719970199088, 26.2], [-18.0, 25.972054293916408]], [[-1.7647905286091388, 25.8], [-1.6, 25.97552050567924]], [[-1.5023219252935043, 26.2], [-2.0, 25.687810239913983]], [[-1.3997089199237343, 26.2], [-1.6, 25.97552050567924]], [[-19.2, 26.504082212168413], [-19.414437503283967, 26.6]], [[-18.509288154139806, 26.2], [-18.4, 26.15178936323896]], [[-19.425298684070313, 26.6], [-18.8, 26.327734026120073]], [[-1.3997089199237343, 26.2], [-1.2, 26.422791727107906]], [[-1.1265053235087248, 26.6], [-1.6, 26.102665004034048]], [[-1.0482759493618865, 26.6], [-1.2, 26.422791727107906]], [[-19.414437503283967, 26.6], [-19.2, 26.498231785693044]], [[-20.26650430890053, 27.0], [-19.6, 26.687704811434163]], [[-1.0482759493618865, 26.6], [-0.8, 26.889041447848342]], [[-0.755966615334641, 27.0], [-1.2, 26.525016831940363]], [[-0.7085433408529278, 27.0], [-0.8, 26.889041447848342]], [[-0.7085433408529278, 27.0], [-0.4, 27.15099295904466]], [[0.13594115906215476, 27.4], [-0.8, 26.954107353972702]], [[-0.17438849475960308, 27.4], [-0.4, 27.15099295904466]], [[-0.17438849475960305, 27.4], [0.0, 27.58875552365968]], [[0.44302764028802194, 27.8], [-0.4, 26.780890092869058]], [[0.18891320914340956, 27.8], [0.0, 27.58875552365968]], [[0.18891320914340956, 27.8], [0.4, 28.032023919392422]], [[0.7441770571562307, 28.2], [0.0, 27.266006193647808]], [[0.5484445089806524, 28.2], [0.4, 28.032023919392422]], [[0.5484445089806526, 28.2], [0.8, 28.480418397875763]], [[1.0399460937966725, 28.6], [0.4, 27.768656476931067]], [[1.0326907682140567, 28.6], [0.8, 28.480418397875763]], [[1.0326907682140567, 28.6], [1.2, 28.82443778515212]], [[1.3307297844258763, 29.0], [0.8, 28.288318618889782]], [[1.3273468736993173, 29.0], [1.2, 28.82443778515212]], [[1.3273468736993173, 29.0], [1.6, 29.376724865591036]], [[1.616813477159321, 29.4], [1.2, 28.824503553820573]], [[1.6164426936818472, 29.4], [1.6, 29.376724865591036]], [[1.9531083607973099, 29.8], [2.0, 29.853637636041196]], [[2.670298928714357, 30.2], [1.6, 28.716744322295607]], [[2.2964142346642933, 30.2], [2.0, 29.853637636041196]], [[2.2964142346642933, 30.2], [2.4, 30.319829963594835]], [[2.933448575401077, 30.6], [2.0, 29.26919074753015]], [[2.8551369314048136, 30.6], [2.8, 30.534592378466684]], [[3.188283809664003, 31.0], [3.2, 31.01758679450369]], [[3.317382509320455, 31.4], [2.8, 30.788578593270792]], [[3.4504789491054555, 31.4], [3.2, 31.01758679450369]], [[3.4504789491054555, 31.4], [3.6, 31.62945688916062]], [[3.651217592810863, 31.8], [3.2, 31.262480971989294]], [[3.7095097732577913, 31.8], [3.6, 31.62945688916062]], [[3.7095097732577913, 31.8], [4.0, 31.96006251212463]], [[4.4387266789042155, 32.2], [3.6, 31.739409997673345]], [[4.19892104086601, 32.2], [4.0, 31.96006251212463]], [[4.19892104086601, 32.2], [4.4, 32.44149157456076]], [[4.686799377396719, 32.6], [4.0, 31.52073123130891]], [[4.530625722135411, 32.6], [4.4, 32.44149157456076]], [[4.530625722135411, 32.6], [4.8, 32.92579744843683]], [[4.933009144924753, 33.0], [4.4, 32.146556821034885]], [[4.932056142336178, 33.0], [4.8, 32.92579744843683]], [[5.1771623027454, 33.4], [5.2, 33.4128397168607]], [[5.89073292254537, 33.8], [4.8, 33.18759025140447]], [[5.516195015385205, 33.8], [5.2, 33.4128397168607]], [[5.516195015385205, 33.8], [5.6, 33.90241138182062]], [[6.126463340668653, 34.2], [5.2, 32.674265851958715]], [[5.841825299152832, 34.2], [5.6, 33.90241138182062]], [[5.841825299152832, 34.2], [6.0, 34.394418201379224]], [[6.360998577766145, 34.6], [5.6, 33.326662256091005]], [[6.359593799067632, 34.6], [6.0, 34.394418201379224]], [[6.359593799067632, 34.6], [6.4, 34.668744265663804]], [[6.594081995541784, 35.0], [6.0, 33.99153029003879]], [[6.5935218989573645, 35.0], [6.4, 34.668744265663804]], [[6.5935218989573645, 35.0], [6.8, 35.35584441988628]], [[6.811856364959566, 35.4], [6.4, 34.88885805822554]], [[6.825493300839521, 35.4], [6.8, 35.35584441988628]], [[6.825493300839521, 35.4], [7.2, 35.61626408886983]], [[7.517970271515411, 35.8], [6.8, 35.38528407341438]], [[7.34715208442215, 35.8], [7.2, 35.61626408886983]], [[7.34715208442215, 35.8], [7.6, 36.11594035876159]], [[7.744744212659724, 36.2], [7.2, 35.244866987609996]], [[7.6670977151746875, 36.2], [7.6, 36.11594035876159]], [[7.9700042844092085, 36.6], [8.0, 36.617494951579125]], [[8.655120303901837, 37.0], [7.6, 36.38432966969613]], [[8.30409953894047, 37.0], [8.0, 36.617494951579125]], [[8.30409953894047, 37.0], [8.4, 37.1208283840781]], [[8.876159596076805, 37.4], [8.0, 35.826013573948316]], [[8.621302675901907, 37.4], [8.4, 37.1208283840781]], [[8.621302675901907, 37.4], [8.8, 37.62584617622848]], [[9.095972007352621, 37.8], [8.4, 36.538254814895005]], [[9.095962106523746, 37.8], [8.8, 37.62584617622848]], [[9.095962106523746, 37.8], [9.2, 37.99030493404584]], [[9.253307971897625, 38.2], [8.8, 37.62561548213703]], [[9.314525249974867, 38.2], [9.2, 37.99030493404584]], [[9.314525249974867, 38.2], [9.6, 38.36881556214333]], [[9.990864207490045, 38.6], [9.2, 38.13228357294202]], [[9.781953039438257, 38.6], [9.6, 38.36881556214333]], [[9.781953039438257, 38.6], [10.0, 38.87769295672642]], [[10.206263466604192, 39.0], [9.6, 37.87453914692198]], [[10.096075546261003, 39.0], [10.0, 38.87769295672642]], [[10.096075546261003, 39.0], [10.4, 39.387806196720824]], [[10.420519697961707, 39.4], [10.0, 38.61479754461869]], [[10.420523682223676, 39.4], [10.4, 39.387806196720824]], [[10.7224346064003, 39.8], [10.8, 39.89944351624972]], [[11.303580907559963, 40.2], [10.4, 38.486755704305004]], [[11.248243238065008, 40.2], [11.2, 40.138257175275946]], [[11.514152601468064, 40.6], [11.6, 40.65157829128791]], [[12.181953398760095, 41.0], [11.2, 40.410855046352076]], [[11.87108542786282, 41.0], [11.6, 40.65157829128791]], [[11.87108542786282, 41.0], [12.0, 41.166130436493525]], [[12.390213872811575, 41.4], [11.6, 39.87544387896416]], [[12.389902143660812, 41.4], [12.0, 41.166130436493525]], [[12.389902143660812, 41.4], [12.4, 41.41948155387692]], [[12.597712604248729, 41.8], [12.0, 40.64423992761973]], [[12.597518128863388, 41.8], [12.4, 41.41948155387692]], [[12.597518128863388, 41.8], [12.8, 42.191195203394614]], [[12.802137968056591, 42.2], [12.4, 41.68023562492507]], [[12.804563952651403, 42.2], [12.8, 42.191195203394614]], [[12.804563952651403, 42.2], [13.2, 42.43910883129371]], [[13.467777080892489, 42.6], [12.8, 42.19722969477066]], [[13.324616177012423, 42.6], [13.2, 42.43910883129371]], [[13.324616177012423, 42.6], [13.6, 42.956281990139914]], [[13.672738962673174, 43.0], [13.2, 42.075286080008844]], [[13.672594711138236, 43.0], [13.6, 42.956281990139914]], [[13.672594711138236, 43.0], [14.0, 43.19863011908625]], [[14.334780282104813, 43.4], [13.6, 42.95572889906653]], [[14.155557983526402, 43.4], [14.0, 43.19863011908625]], [[14.155557983526402, 43.4], [14.4, 43.7169898930275]], [[14.538002089142871, 43.8], [14.0, 42.738003581079575]], [[14.537588130286945, 43.8], [14.4, 43.7169898930275]], [[14.772377699717325, 44.2], [14.8, 44.23597435855036]], [[15.404078247105753, 44.6], [14.4, 42.58475516236816]], [[15.293198161089126, 44.6], [15.2, 44.47910652177294]], [[15.293198161089126, 44.6], [15.6, 44.99842254439844]], [[15.60262252704424, 45.0], [15.2, 44.200390148587225]], [[15.602611337359747, 45.0], [15.6, 44.99842254439844]], [[15.908242469039378, 45.4], [16.0, 45.51961415026579]], [[16.465682249643624, 45.8], [15.6, 44.05389752773813]], [[16.42892845733048, 45.8], [16.4, 45.762431229397066]], [[16.735800787704918, 46.2], [16.8, 46.283791832530206]], [[17.325741394815996, 46.6], [16.4, 44.720652595429875]], [[17.255976648441887, 46.6], [17.2, 46.52720351207695]], [[17.521161977494366, 47.0], [17.6, 47.048440085284916]], [[18.18545594620114, 47.4], [17.2, 46.79988099345573]], [[18.0825744075384, 47.4], [18.0, 47.29248901730729]], [[18.378391661401917, 47.8], [18.4, 47.813298228134684]], [[19.045347010555236, 48.2], [18.0, 47.56329374421543]], [[18.90893032899015, 48.2], [18.8, 48.058041259570004]], [[18.90893032899015, 48.2], [19.2, 48.57874324305123]], [[19.2355239685958, 48.6], [18.8, 47.723023170105385]], [[19.235165963030198, 48.6], [19.2, 48.57874324305123]], [[19.235165963030198, 48.6], [19.6, 48.823617282113894]], [[19.895194032637654, 49.0], [19.2, 48.57810832485412]], [[19.735249176933774, 49.0], [19.6, 48.823617282113894]], [[19.735249176933774, 49.0], [20.0, 49.34446322558069]], [[20.09301994651686, 49.4], [19.6, 48.405418148136576]], [[20.09191812589506, 49.4], [20.0, 49.34446322558069]], [[20.09191812589506, 49.4], [20.4, 49.588977437229076]], [[20.754108066864454, 49.8], [20.0, 49.34261472180345]], [[20.56173253519451, 49.8], [20.4, 49.588977437229076]], [[20.56173253519451, 49.8], [20.8, 50.10988314508215]], [[20.871530935345252, 50.2], [20.4, 49.58072287312991]], [[20.949257818217358, 50.2], [20.8, 50.10988314508215]], [[20.949257818217358, 50.2], [21.2, 50.35388533120496]], [[21.614269649702045, 50.6], [20.8, 50.106563767499615]], [[21.388579304345033, 50.6], [21.2, 50.35388533120496]], [[21.388579304345033, 50.6], [21.6, 50.874776401972646]], [[21.699839443360627, 51.0], [21.2, 50.343248988480326]], [[21.807606470553523, 51.0], [21.6, 50.874776401972646]], [[21.807606470553523, 51.0], [22.0, 51.11810795867459]], [[22.476153064341304, 51.4], [21.6, 50.869703745629344]], [[22.430581115133897, 51.4], [22.4, 51.36022062436848]], [[22.73735814211755, 51.8], [22.8, 51.881416052299855]], [[23.056792070264173, 52.2], [22.4, 51.334003715446414]], [[23.326436134689878, 52.2], [23.2, 52.12400921442519]], [[23.326436134689878, 52.2], [23.6, 52.36743089684185]], [[23.99515486541998, 52.6], [23.2, 52.12075556880188]], [[23.778504758348014, 52.6], [23.6, 52.36743089684185]], [[23.778504758348014, 52.6], [24.0, 52.886767317636114]], [[24.091229677666586, 53.0], [23.6, 52.35582729201023]], [[24.1886901368014, 53.0], [24.0, 52.886767317636114]], [[24.1886901368014, 53.0], [24.4, 53.12927922538423]], [[24.8619046337355, 53.4], [24.0, 52.88151411064955]], [[24.823146661150066, 53.4], [24.8, 53.36995886959117]], [[25.130609820824372, 53.8], [25.2, 53.853898160783054]], [[26.228051578573552, 54.2], [24.8, 53.34136458376405]], [[25.715582319209656, 54.2], [25.6, 54.13092338855493]], [[25.715582319209656, 54.2], [26.0, 54.37333602037716]], [[26.38911693736288, 54.6], [25.6, 54.127609603458346]], [[26.379408315563804, 54.6], [26.0, 54.37333602037716]], [[26.379408315563804, 54.6], [26.4, 54.61257873514313]], [[27.068511253656897, 55.0], [26.0, 54.360735119480104]], [[26.911612529600532, 55.0], [26.8, 54.915450016713734]], [[26.911612529600532, 55.0], [27.2, 55.37086475054602]], [[27.223730616547495, 55.4], [26.8, 54.84758969694963]], [[27.248955073961902, 55.4], [27.2, 55.37086475054602]], [[27.248955073961902, 55.4], [27.6, 55.61305646483324]], [[27.753400482855717, 55.8], [27.2, 55.38156538492341]], [[27.914326954982354, 55.8], [27.6, 55.61305646483324]], [[27.914326954982354, 55.8], [28.0, 55.8520990653545]], [[28.604157117938385, 56.2], [27.6, 55.60247908007343]], [[28.482950553343127, 56.2], [28.4, 56.09273775836534]], [[28.482950553343127, 56.2], [28.8, 56.44421343769778]], [[29.26430076251177, 56.6], [28.4, 56.08696486399491]], [[29.006302005933506, 56.6], [28.8, 56.44421343769778]], [[29.006302005933506, 56.6], [29.2, 56.749442949960375]], [[29.95342151976956, 57.0], [28.8, 56.316296262801956]], [[29.532169404859886, 57.0], [29.2, 56.749442949960375]], [[29.532169404859886, 57.0], [29.6, 57.05243042762664]], [[30.65629730224153, 57.4], [29.2, 56.538281689032]], [[30.126078153099684, 57.4], [30.0, 57.325489593543274]], [[30.126078153099684, 57.4], [30.4, 57.565285674943574]], [[30.595131731281946, 57.8], [30.0, 57.35243595665197]], [[30.79763284840612, 57.8], [30.4, 57.565285674943574]], [[30.79763284840612, 57.8], [30.8, 57.80143055554883]], [[31.134860738557656, 58.2], [30.4, 57.648476441121545]], [[31.46806644030332, 58.2], [31.2, 58.042048573181496]], [[31.46806644030332, 58.2], [31.6, 58.279481890748976]], [[32.16408483095942, 58.6], [31.2, 58.03278258122092]], [[32.06432362778447, 58.6], [32.0, 58.55159589948613]], [[32.06432362778447, 58.6], [32.4, 58.85743281296234]], [[32.82981479197272, 59.0], [32.0, 58.512656781462006]], [[32.807016157943394, 59.0], [32.8, 58.994722764477174]], [[32.807016157943394, 59.0], [33.2, 59.30092255599471]], [[33.49835421581347, 59.4], [32.8, 58.99051362057933]], [[33.33187461163134, 59.4], [33.2, 59.30092255599471]], [[33.33187461163134, 59.4], [33.6, 59.60553546613471]], [[34.19077923302534, 59.8], [33.2, 59.22031608846469]], [[34.075034311362224, 59.8], [34.0, 59.743645948212496]], [[34.075034311362224, 59.8], [34.4, 60.048725705846046]], [[34.858737925780154, 60.2], [34.0, 59.698239744149554]], [[34.81907768438287, 60.2], [34.8, 60.185675483371604]], [[34.81907768438287, 60.2], [35.2, 60.49114976679802]], [[35.529478484104885, 60.6], [34.8, 60.17423937512352]], [[35.34514767898696, 60.6], [35.2, 60.49114976679802]], [[35.34514767898696, 60.6], [35.6, 60.79497002154381]], [[36.22622769486558, 61.0], [35.2, 60.402546643385726]], [[36.089497633330936, 61.0], [36.0, 60.93288996986771]], [[36.089497633330936, 61.0], [36.4, 61.23721949044176]], [[36.635408876182204, 61.4], [36.0, 60.92627988900314]], [[36.876018243197144, 61.4], [36.8, 61.374027280988265]], [[36.876018243197144, 61.4], [37.2, 61.59267751674639]], [[37.37448088297434, 61.8], [36.8, 61.3716290280859]], [[37.55593937219964, 61.8], [37.2, 61.59267751674639]], [[37.55593937219964, 61.8], [37.6, 61.815908353299164]], [[38.80046780396504, 62.2], [37.2, 61.66597703439648]], [[38.322506274763384, 62.2], [38.0, 61.958906625435965]], [[38.322506274763384, 62.2], [38.4, 62.25925331902666]], [[39.460140431348776, 62.6], [38.0, 61.7571175728133]], [[39.066699112974995, 62.6], [38.8, 62.400561650392085]], [[39.066699112974995, 62.6], [39.2, 62.70179215791739]], [[39.639951360687185, 63.0], [38.8, 62.377225768027564]], [[40.029434247202055, 63.0], [40.0, 62.977941278587735]], [[40.029434247202055, 63.0], [40.4, 63.28223963597769]], [[40.56937928200349, 63.4], [40.0, 62.97598712336709]], [[40.7465449143707, 63.4], [40.4, 63.28223963597769]], [[40.7465449143707, 63.4], [40.8, 63.419202657100946]], [[41.368965374131264, 63.8], [40.4, 63.30497371345275]], [[41.73418653006892, 63.8], [41.6, 63.72945250191269]], [[41.73418653006892, 63.8], [42.0, 64.00250078932064]], [[42.28645319242097, 64.2], [41.6, 63.68980165342932]], [[42.57765408490895, 64.2], [42.4, 64.13953148933699]], [[42.57765408490895, 64.2], [42.8, 64.27951780010352]], [[43.795127199843925, 64.6], [42.4, 64.13412145692007]], [[43.44096880436943, 64.6], [43.2, 64.47353240605685]], [[43.44096880436943, 64.6], [43.6, 64.68790913005385]], [[45.011335405859015, 65.0], [43.2, 64.40070016730502]], [[44.41149403025425, 65.0], [44.4, 64.99607804908351]], [[44.41149403025424, 65.0], [44.8, 65.13849360963745]], [[45.60513647563817, 65.4], [44.4, 64.99576858717127]]]}}, {"type": "Feature", "properties": {"level": 0.9, "label": "90%"}, "geometry": {"type": "MultiLineString", "coordinates": [[[-1.6, 32.188627794203626], [-1.6432582838903487, 32.2]], [[0.5607473224741903, 32.2], [0.4, 32.056688920267426]], [[-2.8, 32.54317251393317], [-2.992408475655862, 32.6]], [[-1.6432582838903487, 32.2], [-1.6, 32.18972612969261]], [[-3.0285599511737233, 32.6], [-2.0, 32.28915689423665]], [[0.5607473224741903, 32.2], [0.8, 32.38233492734964]], [[2.3109525526540504, 32.6], [0.4, 31.879267336884034]], [[1.024499408213597, 32.6], [0.8, 32.38233492734964]], [[-4.0, 32.89687734488628], [-4.282670032555675, 33.0]], [[-2.992408475655862, 32.6], [-2.8, 32.55227931205582]], [[-4.37442319828952, 33.0], [-3.2, 32.65342867863556]], [[1.024499408213597, 32.6], [1.2, 32.749129101621676]], [[2.315115683525705, 33.0], [0.8, 32.09161476572304]], [[1.6779913425792583, 33.0], [1.6, 32.91588012028765]], [[-5.2, 33.286994849377926], [-5.526047913795472, 33.4]], [[-4.282670032555675, 33.0], [-4.0, 32.90272347754197]], [[-5.618863190563834, 33.4], [-4.4, 33.038938209728464]], [[1.6779913425792583, 33.0], [2.0, 33.322838816185254]], [[2.202370570417804, 33.4], [1.6, 32.79352878360501]], [[2.0695581892417607, 33.4], [2.0, 33.322838816185254]], [[-6.4, 33.709625786561155], [-6.664785275910554, 33.8]], [[-5.526047913795472, 33.4], [-5.2, 33.27697892212475]], [[-6.747149234361631, 33.8], [-5.6, 33.426848891740526]], [[2.0695581892417607, 33.4], [2.4, 33.74606001625508]], [[2.5273665796201827, 33.8], [2.0, 33.20638325657737]], [[2.5100422803879083, 33.8], [2.4, 33.74606001625508]], [[-7.6, 34.16814612883104], [-7.683598703382393, 34.2]], [[-6.664785275910554, 33.8], [-6.4, 33.69300313480387]], [[-7.63350375016486, 34.2], [-6.8, 33.855020238474225]], [[2.5100422803879083, 33.8], [2.8, 34.15473310385481]], [[2.8378116090554957, 34.2], [2.4, 33.66174884668303]], [[2.834090271174877, 34.2], [2.8, 34.15473310385481]], [[-8.4, 34.48729975131689], [-8.65296386648008, 34.6]], [[-7.683598703382393, 34.2], [-7.6, 34.168988632765725]], [[-8.67298717716601, 34.6], [-8.0, 34.32109280964464]], [[-9.6, 34.9770172130371], [-9.656562714484918, 35.0]], [[-8.65296386648008, 34.6], [-8.4, 34.49399863556382]], [[-9.690832311404348, 35.0], [-8.8, 34.659991414404516]], [[3.169797767088651, 34.6], [3.2, 34.632097356338896]], [[4.062398865492027, 35.0], [2.8, 33.51989760074915]], [[3.5179042161613845, 35.0], [3.2, 34.632097356338896]], [[-10.4, 35.346422892616786], [-10.517989765612164, 35.4]], [[-9.656562714484918, 35.0], [-9.6, 34.972366332971134]], [[-10.53472390484278, 35.4], [-10.0, 35.16273284189275]], [[3.5179042161613845, 35.0], [3.6, 35.090882165662315]], [[4.255584042234842, 35.4], [3.2, 34.03446187631961]], [[4.081363096241251, 35.4], [4.0, 35.303000520778774]], [[-11.2, 35.704266704123704], [-11.400214607494123, 35.8]], [[-10.517989765612164, 35.4], [-10.4, 35.35018923806857]], [[-11.413634580849886, 35.8], [-10.8, 35.52168208231684]], [[4.081363096241251, 35.4], [4.4, 35.773414284372]], [[4.450087252819875, 35.8], [4.0, 35.13430868745364]], [[4.44835057384696, 35.8], [4.4, 35.773414284372]], [[-12.0, 36.08873679492833], [-12.235115061660148, 36.2]], [[-11.400214607494123, 35.8], [-11.2, 35.7005430852664]], [[-12.252255218136177, 36.2], [-11.6, 35.89709805182606]], [[-12.8, 36.491319482977104], [-13.001385536898056, 36.6]], [[-12.235115061660148, 36.2], [-12.0, 36.08385013424141]], [[-13.011919505984007, 36.6], [-12.4, 36.282784570822024]], [[4.706272385760714, 36.2], [4.8, 36.25154805188818]], [[5.455285984808399, 36.6], [4.4, 36.02843089032243]], [[5.086909074261089, 36.6], [4.8, 36.25154805188818]], [[-13.6, 36.90162070558338], [-13.796588332317018, 37.0]], [[-13.001385536898056, 36.6], [-12.8, 36.496489465850146]], [[-13.809136224463762, 37.0], [-13.2, 36.70057360763636]], [[5.086909074261089, 36.6], [5.2, 36.73604513605618]], [[5.6768372874413435, 37.0], [4.8, 35.61551323162656]], [[5.630621059930473, 37.0], [5.6, 36.96218177651186]], [[-14.4, 37.34314783414434], [-14.49692909858982, 37.4]], [[-13.796588332317018, 37.0], [-13.6, 36.89133993359406]], [[-14.5036293231023, 37.4], [-14.0, 37.11358772071607]], [[-15.2, 37.77886079822282], [-15.239093817841285, 37.8]], [[-14.49692909858982, 37.4], [-14.4, 37.34719579969386]], [[-15.245644848921488, 37.8], [-14.8, 37.56358027063818]], [[5.902269069776405, 37.4], [6.0, 37.56862766289125]], [[6.061930237107775, 37.8], [5.6, 37.22676358530746]], [[6.132716525621843, 37.8], [6.0, 37.56862766289125]], [[-15.6, 38.01571801730517], [-15.902625498174588, 38.2]], [[-15.239093817841285, 37.8], [-15.2, 37.77674615911272]], [[-15.905825663071612, 38.2], [-15.6, 38.01571801730517]], [[6.132716525621843, 37.8], [6.4, 37.95553733714665]], [[6.81867411840845, 38.2], [6.0, 37.722922206680884]], [[6.594363753247571, 38.2], [6.4, 37.95553733714665]], [[-16.4, 38.4941272156648], [-16.57779540865737, 38.6]], [[-15.902625498174588, 38.2], [-15.6, 38.02066357707748]], [[-16.58755207700324, 38.6], [-16.0, 38.257362258306195]], [[6.594363753247571, 38.2], [6.8, 38.46032212229874]], [[7.036698354127967, 38.6], [6.4, 37.4409887183638]], [[7.036731837009757, 38.6], [6.8, 38.46032212229874]], [[-17.2, 38.9847322844026], [-17.22430183569242, 39.0]], [[-16.57779540865737, 38.6], [-16.4, 38.4911858993964]], [[-17.229054611384317, 39.0], [-16.8, 38.73622622154976]], [[7.036731837009757, 38.6], [7.2, 38.905127015040314]], [[7.250775611318421, 39.0], [6.8, 38.15740418081332]], [[7.250777151602459, 39.0], [7.2, 38.905127015040314]], [[-17.6, 39.25098600442641], [-17.820855224525452, 39.4]], [[-17.22430183569242, 39.0], [-17.2, 38.98373931325131]], [[-17.823588235119324, 39.4], [-17.6, 39.25098600442641]], [[-18.4, 39.76127139103107], [-18.46132257724548, 39.8]], [[-17.820855224525452, 39.4], [-17.6, 39.26312403196249]], [[-18.466998913787805, 39.8], [-18.0, 39.51096810365874]], [[7.534621391784302, 39.4], [7.6, 39.48518295772317]], [[8.12541115644212, 39.8], [7.2, 37.928394798439506]], [[8.056346439632668, 39.8], [8.0, 39.7272517496795]], [[-18.8, 40.049134424623944], [-19.005429713008624, 40.2]], [[-18.46132257724548, 39.8], [-18.4, 39.75449707736033]], [[-19.007528429822116, 40.2], [-18.8, 40.049134424623944]], [[-19.6, 40.59163700581168], [-19.6123492242097, 40.6]], [[-19.005429713008624, 40.2], [-18.8, 40.06786165850466]], [[-19.61710497948569, 40.6], [-19.2, 40.326165021229585]], [[8.320777794992818, 40.2], [8.4, 40.24973438914572]], [[8.987685347179534, 40.6], [8.0, 39.99201226199707]], [[8.66584989346117, 40.6], [8.4, 40.24973438914572]], [[-19.6123492242097, 40.6], [-19.6, 40.59104352236719]], [[-20.171033772762186, 41.0], [-20.0, 40.87861530822657]], [[8.66584989346117, 40.6], [8.8, 40.778420507985366]], [[9.170510359526125, 41.0], [8.4, 39.28082205152405]], [[9.160746910748692, 41.0], [8.8, 40.778420507985366]], [[9.160746910748692, 41.0], [9.2, 41.08451302164997]], [[9.273861233333681, 41.4], [8.8, 40.75092398766483]], [[9.34731312273109, 41.4], [9.2, 41.08451302164997]], [[9.566324090369356, 41.8], [9.6, 41.8459739636734]], [[10.215528079849891, 42.2], [9.2, 39.41822153459631]], [[10.072974660159154, 42.2], [10.0, 42.10193520499595]], [[10.332411072507004, 42.6], [10.4, 42.646468334138824]], [[11.035350796513788, 43.0], [10.0, 42.33698740547081]], [[10.653114832204428, 43.0], [10.4, 42.646468334138824]], [[10.653114832204428, 43.0], [10.8, 43.20242802644417]], [[10.988110568878156, 43.4], [10.4, 42.481034811253096]], [[11.11232620367489, 43.4], [10.8, 43.20242802644417]], [[11.11232620367489, 43.4], [11.2, 43.46248283008213]], [[11.830482138150865, 43.8], [10.8, 43.1294297609263]], [[11.43562316207721, 43.8], [11.2, 43.46248283008213]], [[11.43562316207721, 43.8], [11.6, 44.02902104132179]], [[11.909693464485308, 44.2], [11.2, 41.73300050205083]], [[11.86785947457018, 44.2], [11.6, 44.02902104132179]], [[11.86785947457018, 44.2], [12.0, 44.54610620270127]], [[12.012384627644344, 44.6], [11.6, 43.94323864667952]], [[12.02015521042896, 44.6], [12.0, 44.54610620270127]], [[12.02015521042896, 44.6], [12.4, 44.8744535851167]], [[12.635027944566856, 45.0], [12.0, 44.582057240870114]], [[12.48655162848567, 45.0], [12.4, 44.8744535851167]], [[12.730605826308961, 45.4], [12.8, 45.45776237026004]], [[13.580246560037686, 45.8], [12.4, 44.94607614631359]], [[13.012988733261015, 45.8], [12.8, 45.45776237026004]], [[13.012988733261015, 45.8], [13.2, 46.07152691598529]], [[13.390141930242969, 46.2], [12.8, 44.41784860491683]], [[13.394105609384663, 46.2], [13.2, 46.07152691598529]], [[13.394105609384663, 46.2], [13.6, 46.382276205510905]], [[14.138996523836228, 46.6], [13.2, 45.8686807901606]], [[13.728855992523599, 46.6], [13.6, 46.382276205510905]], [[13.999721351756305, 47.0], [14.0, 47.0004368311577]], [[16.33330509494539, 47.4], [13.6, 48.5806707292923]], [[14.410386103645017, 47.4], [14.4, 47.381343456986905]], [[14.451694790822794, 47.4], [14.4, 47.58537900472068]], [[14.250832016600382, 47.8], [14.0, 47.91466991553661]], [[14.410386103645017, 47.4], [14.4, 47.58537900472068]], [[14.47587534264032, 47.8], [13.2, 48.13533735651655]], [[12.987285053051695, 48.2], [12.8, 48.25937608279114]], [[14.250832016600382, 47.8], [14.0, 47.927545226540666]], [[13.04141066532522, 48.2], [12.0, 48.56449284670951]], [[11.861607969281746, 48.6], [11.6, 48.661385364211036]], [[12.987285053051695, 48.2], [12.8, 48.28013087063265]], [[11.701948327819297, 48.6], [11.2, 48.87528641028718]], [[10.911472372941112, 49.0], [10.8, 49.0431671926962]], [[11.861607969281746, 48.6], [11.6, 48.690162950347464]], [[10.948541810723786, 49.0], [10.0, 49.37401743637283]], [[9.948618318231913, 49.4], [9.6, 49.59838224488893]], [[10.911472372941112, 49.0], [10.8, 49.03881275780543]], [[9.97613890651624, 49.4], [9.2, 49.689309897157976]], [[8.957810631142488, 49.8], [8.8, 49.87876426969568]], [[9.948618318231913, 49.4], [9.6, 49.53364496820172]], [[8.970047663782088, 49.8], [8.4, 50.103862507190854]], [[8.184990920772016, 50.2], [8.0, 50.276171140059375]], [[8.957810631142488, 49.8], [8.8, 49.89537174433047]], [[8.147509628153522, 50.2], [7.6, 50.521813900482414]], [[7.481231079434646, 50.6], [7.2, 50.79918340952709]], [[8.184990920772016, 50.2], [8.0, 50.291981245826925]], [[7.490460067268985, 50.6], [6.8, 50.918474169923314]], [[6.648148085452858, 51.0], [6.4, 51.144124924063895]], [[7.481231079434646, 50.6], [7.2, 50.73404962951396]], [[6.649726097329794, 51.0], [6.4, 51.19505368304676]], [[6.103073007535271, 51.4], [6.0, 51.46521867840838]], [[6.648148085452858, 51.0], [6.4, 51.19505368304676]], [[6.105170338307957, 51.4], [5.6, 51.6963593374775]], [[5.446179310012331, 51.8], [5.2, 51.98170001537307]], [[6.103073007535271, 51.4], [6.0, 51.45605385556366]], [[5.446612517128997, 51.8], [5.2, 51.98083364615849]], [[4.867490759399754, 52.2], [4.8, 52.2414145442477]], [[5.446179310012331, 51.8], [5.2, 51.98083364615849]], [[4.866681859218895, 52.2], [4.4, 52.55573907600111]], [[4.348625023838164, 52.6], [4.0, 52.9334455388986]], [[4.867490759399754, 52.2], [4.8, 52.24668763365226]], [[4.347895735882256, 52.6], [4.0, 52.85554771314498]], [[3.7847643492127747, 53.0], [3.6, 53.11660703625659]], [[4.348625023838164, 52.6], [4.0, 52.85554771314498]], [[3.783902808016581, 53.0], [3.6, 53.16358529679954]], [[3.3609983451447656, 53.4], [3.2, 53.576883095734736]], [[3.7847643492127747, 53.0], [3.6, 53.16358529679954]], [[3.3602766653642346, 53.4], [3.2, 53.53089077209065]], [[2.84401456234597, 53.8], [2.8, 53.83136897946655]], [[3.3609983451447656, 53.4], [3.2, 53.53089077209065]], [[2.8437087993576355, 53.8], [2.8, 53.844020798901816]], [[2.4771851764495807, 54.2], [2.4, 54.29411156372377]], [[2.84401456234597, 53.8], [2.8, 53.844020798901816]], [[2.47669938681277, 54.2], [2.4, 54.27199239191999]], [[2.0268357832882895, 54.6], [2.0, 54.62226074022623]], [[2.4771851764495807, 54.2], [2.4, 54.27199239191999]], [[2.0266049838505698, 54.6], [2.0, 54.62914084847476]], [[1.6861848794122998, 55.0], [1.6, 55.11149076398112]], [[2.0268357832882895, 54.6], [2.0, 54.62914084847476]], [[1.6855304396593425, 55.0], [1.6, 55.09600344985906]], [[1.3137544097292775, 55.4], [1.2, 55.513923719625346]], [[1.6861848794122998, 55.0], [1.6, 55.09600344985906]], [[1.3126473390291575, 55.4], [1.2, 55.5280843097893]], [[0.9752409798041753, 55.8], [0.8, 56.028647370707155]], [[1.3137544097292775, 55.4], [1.2, 55.5280843097893]], [[0.973761319658854, 55.8], [0.8, 56.04630039645824]], [[0.6864507219968214, 56.2], [0.4, 56.5644598639823]], [[0.9752409798041753, 55.8], [0.8, 56.04630039645824]], [[0.6834635280385468, 56.2], [0.4, 56.51909729645741]], [[0.3315504675964941, 56.6], [0.0, 57.01521507975075]], [[0.6864507219968214, 56.2], [0.4, 56.51909729645741]], [[0.1288126038332822, 57.0], [0.0, 57.14242368809934]], [[-0.24258905094175962, 57.4], [-0.4, 57.560109414136946]], [[0.1301782112926772, 57.0], [0.0, 57.14242368809934]], [[-0.3681520584405891, 57.8], [-0.4, 57.84896266984041]], [[-0.6363223806385415, 58.2], [-0.8, 58.43111797361381]], [[-0.367818905130482, 57.8], [-0.4, 57.84896266984041]], [[-0.6382997210398483, 58.2], [-0.8, 58.560441879747145]], [[-0.8171780442983997, 58.6], [-1.2, 59.55177326958084]], [[-0.6363223806385415, 58.2], [-0.8, 58.560441879747145]], [[-0.9852829125899268, 59.0], [-1.2, 59.35515022393515]], [[-1.2265181577385285, 59.4], [-1.6, 60.05610261538532]], [[-0.9827426517361546, 59.0], [-1.2, 59.35515022393515]], [[-1.563094221042435, 60.6], [-1.6, 60.757305010331834]], [[-1.6581573264205338, 61.0], [-2.0, 62.30963258446675]], [[-1.5627057501837085, 60.6], [-1.6, 60.757305010331834]], [[-1.6999556550206827, 65.4], [-1.6, 65.56574235524675]], [[-1.457083771534744, 65.8], [-2.0, 64.89282561272157]], [[-1.4555813157557849, 65.8], [-1.6, 65.56574235524675]], [[-1.3483102534742881, 66.2], [-1.2, 66.58207335074583]], [[-1.1930046297013601, 66.6], [-1.6, 65.54270875439164]], [[-1.1929376119014385, 66.6], [-1.2, 66.58207335074583]], [[-0.8373926855755432, 67.4], [-0.8, 67.44344897998447]], [[-0.4918278196866275, 67.8], [-1.2, 66.97655507736299]], [[-0.4886957016866886, 67.8], [-0.8, 67.44344897998447]], [[-0.4886957016866886, 67.8], [-0.4, 67.93904304247624]], [[-0.23077376242157563, 68.2], [-0.8, 67.29917462390908]], [[-0.22878870568095497, 68.2], [-0.4, 67.93904304247624]], [[-0.22878870568095497, 68.2], [0.0, 68.56876248256613]], [[0.019508970957441345, 68.6], [-0.4, 67.92107988727277]], [[0.019690546442210632, 68.6], [0.0, 68.56876248256613]], [[0.019690546442210646, 68.6], [0.4, 68.9572789647426]], [[0.44624563728288547, 69.0], [0.0, 68.58120761560006]], [[0.4467507352860129, 69.0], [0.4, 68.9572789647426]], [[0.7225579399549218, 69.4], [0.8, 69.46571682735323]], [[1.1951659462211206, 69.8], [0.4, 69.1255487470753]], [[1.1991151602809655, 69.8], [0.8, 69.46571682735323]], [[1.1991151602809655, 69.8], [1.2, 69.80078907627517]], [[1.6569107042078117, 70.2], [0.8, 69.43753534178775]], [[1.6629397383430804, 70.2], [1.6, 70.14727821112268]], [[1.6629397383430804, 70.2], [2.0, 70.55925181121282]], [[2.0383392417796578, 70.6], [1.6, 70.13271413350454]], [[2.0386904744322205, 70.6], [2.0, 70.55925181121282]], [[2.038690474432221, 70.6], [2.4, 70.81768272803681]], [[2.709539894652946, 71.0], [2.0, 70.57637094509077]], [[2.712886536179518, 71.0], [2.4, 70.81768272803681]], [[2.712886536179518, 71.0], [2.8, 71.0695082122082]], [[3.2258224873479704, 71.4], [2.4, 70.74478830952415]], [[3.2315083916945992, 71.4], [3.2, 71.37667440650004]], [[3.2315083916945992, 71.4], [3.6, 71.62494391991439]], [[3.885043780074254, 71.8], [3.2, 71.3808366127539]], [[3.8878722821201057, 71.8], [3.6, 71.62494391991439]]]}}]}