{"type": "FeatureCollection", "name": "Simulacion umbra eclipse 2026 (footprints 1 min)", "source": "Elementos besselianos NASA GSFC + tabla de trayectoria; umbra = mag>=1", "features": [{"type": "Feature", "properties": {"t": "2026-08-12T17:30:00Z", "ut_min": 1050, "lat": 73.683, "lon": -27.788}, "geometry": {"type": "Polygon", "coordinates": [[[-30.828, 73.483], [-30.188, 73.483], [-29.548, 73.533], [-29.068, 73.583], [-28.668, 73.633], [-28.268, 73.683], [-26.988, 73.883], [-26.428, 73.983], [-26.188, 74.033], [-25.708, 74.133], [-25.228, 74.233], [-24.828, 74.333], [-24.748, 74.383], [-24.748, 75.233], [-25.468, 75.233], [-26.428, 75.183], [-27.068, 75.133], [-27.548, 75.083], [-27.948, 75.033], [-28.348, 74.983], [-28.668, 74.933], [-29.628, 74.783], [-30.108, 74.683], [-30.588, 74.583], [-30.748, 74.533], [-30.828, 74.483], [-30.828, 73.483]]]}}, {"type": "Feature", "properties": {"t": "2026-08-12T17:31:00Z", "ut_min": 1051, "lat": 73.12, "lon": -27.696}, "geometry": {"type": "Polygon", "coordinates": [[[-30.736, 72.92], [-30.016, 72.92], [-29.376, 72.97], [-28.976, 73.02], [-28.576, 73.07], [-28.176, 73.12], [-26.896, 73.32], [-26.096, 73.47], [-25.616, 73.57], [-24.816, 73.77], [-24.656, 73.82], [-24.656, 74.62], [-26.176, 74.62], [-26.816, 74.57], [-27.376, 74.52], [-28.176, 74.42], [-28.896, 74.32], [-29.456, 74.22], [-29.696, 74.17], [-29.936, 74.12], [-30.416, 74.02], [-30.736, 73.92], [-30.736, 72.92]]]}}, {"type": "Feature", "properties": {"t": "2026-08-12T17:32:00Z", "ut_min": 1052, "lat": 72.557, "lon": -27.603}, "geometry": {"type": "Polygon", "coordinates": [[[-30.643, 72.357], [-29.923, 72.357], [-29.283, 72.407], [-28.403, 72.507], [-28.083, 72.557], [-27.123, 72.707], [-26.803, 72.757], [-26.563, 72.807], [-26.083, 72.907], [-25.843, 72.957], [-25.363, 73.057], [-24.963, 73.157], [-24.803, 73.207], [-24.643, 73.257], [-24.563, 73.307], [-24.563, 74.057], [-25.923, 74.057], [-26.643, 74.007], [-27.203, 73.957], [-27.683, 73.907], [-28.083, 73.857], [-28.723, 73.757], [-29.043, 73.707], [-29.283, 73.657], [-29.763, 73.557], [-30.003, 73.507], [-30.243, 73.457], [-30.643, 73.357], [-30.643, 72.357]]]}}, {"type": "Feature", "properties": {"t": "2026-08-12T17:33:00Z", "ut_min": 1053, "lat": 72.003, "lon": -27.483}, "geometry": {"type": "Polygon", "coordinates": [[[-30.523, 71.803], [-29.803, 71.803], [-29.163, 71.853], [-28.683, 71.903], [-28.283, 71.953], [-27.562, 72.053], [-26.443, 72.253], [-26.203, 72.303], [-25.963, 72.353], [-25.723, 72.403], [-24.923, 72.603], [-24.443, 72.753], [-24.443, 73.453], [-24.923, 73.503], [-25.403, 73.503], [-26.443, 73.453], [-27.003, 73.403], [-27.483, 73.353], [-27.883, 73.303], [-28.843, 73.153], [-29.403, 73.053], [-29.643, 73.003], [-30.043, 72.903], [-30.443, 72.803], [-30.523, 72.753], [-30.523, 71.803]]]}}, {"type": "Feature", "properties": {"t": "2026-08-12T17:34:00Z", "ut_min": 1054, "lat": 71.45, "lon": -27.362}, "geometry": {"type": "Polygon", "coordinates": [[[-30.402, 71.25], [-29.682, 71.25], [-29.042, 71.3], [-28.562, 71.35], [-28.162, 71.4], [-27.522, 71.5], [-26.882, 71.6], [-25.682, 71.85], [-25.442, 71.9], [-25.042, 72.0], [-24.722, 72.1], [-24.402, 72.2], [-24.322, 72.25], [-24.322, 72.9], [-26.162, 72.9], [-26.802, 72.85], [-27.282, 72.8], [-28.082, 72.7], [-28.402, 72.65], [-28.722, 72.6], [-29.202, 72.5], [-29.682, 72.4], [-30.082, 72.3], [-30.402, 72.2], [-30.402, 71.25]]]}}, {"type": "Feature", "properties": {"t": "2026-08-12T17:35:00Z", "ut_min": 1055, "lat": 70.907, "lon": -27.22}, "geometry": {"type": "Polygon", "coordinates": [[[-30.26, 70.707], [-29.54, 70.707], [-28.9, 70.757], [-28.42, 70.808], [-27.62, 70.907], [-27.3, 70.957], [-26.74, 71.058], [-26.26, 71.157], [-26.02, 71.207], [-25.78, 71.257], [-25.54, 71.308], [-25.14, 71.407], [-24.98, 71.457], [-24.18, 71.707], [-24.18, 72.308], [-24.5, 72.358], [-25.86, 72.358], [-26.58, 72.308], [-27.54, 72.207], [-28.18, 72.108], [-28.5, 72.058], [-29.7, 71.808], [-30.18, 71.657], [-30.26, 71.608], [-30.26, 70.707]]]}}, {"type": "Feature", "properties": {"t": "2026-08-12T17:36:00Z", "ut_min": 1056, "lat": 70.365, "lon": -27.078}, "geometry": {"type": "Polygon", "coordinates": [[[-30.118, 70.165], [-29.478, 70.165], [-28.758, 70.215], [-28.278, 70.265], [-27.478, 70.365], [-27.158, 70.415], [-26.598, 70.515], [-26.118, 70.615], [-25.398, 70.765], [-24.838, 70.915], [-24.358, 71.065], [-24.118, 71.165], [-24.038, 71.215], [-24.038, 71.715], [-24.198, 71.765], [-24.758, 71.815], [-25.478, 71.815], [-26.358, 71.765], [-26.918, 71.715], [-27.318, 71.665], [-27.718, 71.615], [-28.038, 71.565], [-28.598, 71.465], [-28.838, 71.415], [-29.318, 71.315], [-29.878, 71.165], [-30.038, 71.115], [-30.118, 71.065], [-30.118, 70.165]]]}}, {"type": "Feature", "properties": {"t": "2026-08-12T17:37:00Z", "ut_min": 1057, "lat": 69.832, "lon": -26.919}, "geometry": {"type": "Polygon", "coordinates": [[[-29.959, 69.632], [-29.319, 69.632], [-28.599, 69.682], [-28.119, 69.732], [-27.319, 69.832], [-26.999, 69.882], [-26.439, 69.982], [-25.959, 70.082], [-25.479, 70.182], [-25.079, 70.282], [-24.919, 70.332], [-24.119, 70.582], [-23.879, 70.732], [-23.879, 71.132], [-23.959, 71.182], [-24.279, 71.232], [-26.039, 71.232], [-26.679, 71.182], [-27.079, 71.132], [-27.479, 71.082], [-28.119, 70.982], [-28.359, 70.932], [-28.599, 70.882], [-29.319, 70.732], [-29.639, 70.632], [-29.959, 70.532], [-29.959, 69.632]]]}}, {"type": "Feature", "properties": {"t": "2026-08-12T17:38:00Z", "ut_min": 1058, "lat": 69.298, "lon": -26.76}, "geometry": {"type": "Polygon", "coordinates": [[[-29.8, 69.148], [-29.48, 69.098], [-29.4, 69.098], [-28.44, 69.148], [-27.96, 69.198], [-27.16, 69.298], [-26.84, 69.348], [-26.28, 69.448], [-25.56, 69.598], [-25.16, 69.698], [-24.76, 69.798], [-24.28, 69.948], [-23.8, 70.148], [-23.72, 70.198], [-23.72, 70.548], [-23.8, 70.598], [-23.96, 70.648], [-24.36, 70.698], [-25.8, 70.698], [-26.44, 70.648], [-26.92, 70.598], [-27.32, 70.548], [-27.64, 70.498], [-28.2, 70.398], [-28.44, 70.348], [-28.92, 70.248], [-29.48, 70.098], [-29.64, 70.048], [-29.72, 69.998], [-29.8, 69.948], [-29.8, 69.148]]]}}, {"type": "Feature", "properties": {"t": "2026-08-12T17:39:00Z", "ut_min": 1059, "lat": 68.773, "lon": -26.585}, "geometry": {"type": "Polygon", "coordinates": [[[-29.625, 68.623], [-28.265, 68.623], [-27.705, 68.673], [-27.305, 68.723], [-26.665, 68.823], [-26.105, 68.923], [-25.865, 68.973], [-25.385, 69.073], [-24.985, 69.173], [-24.505, 69.323], [-24.025, 69.473], [-23.705, 69.623], [-23.545, 69.723], [-23.545, 69.973], [-23.625, 70.023], [-23.785, 70.073], [-24.025, 70.123], [-24.505, 70.173], [-25.385, 70.173], [-26.185, 70.123], [-26.665, 70.073], [-27.065, 70.023], [-27.385, 69.973], [-27.705, 69.923], [-28.265, 69.823], [-28.905, 69.673], [-29.065, 69.623], [-29.545, 69.473], [-29.625, 69.423], [-29.625, 68.623]]]}}, {"type": "Feature", "properties": {"t": "2026-08-12T17:40:00Z", "ut_min": 1060, "lat": 68.247, "lon": -26.41}, "geometry": {"type": "Polygon", "coordinates": [[[-29.45, 68.097], [-28.09, 68.097], [-27.61, 68.147], [-26.81, 68.247], [-26.49, 68.297], [-25.93, 68.397], [-25.45, 68.497], [-25.05, 68.597], [-24.65, 68.697], [-24.33, 68.797], [-24.17, 68.847], [-23.69, 69.047], [-23.61, 69.097], [-23.45, 69.197], [-23.37, 69.297], [-23.37, 69.347], [-23.45, 69.447], [-23.53, 69.497], [-23.69, 69.547], [-24.01, 69.597], [-25.93, 69.597], [-26.41, 69.547], [-27.21, 69.447], [-27.53, 69.397], [-28.49, 69.197], [-28.89, 69.097], [-29.21, 68.997], [-29.45, 68.897], [-29.45, 68.097]]]}}, {"type": "Feature", "properties": {"t": "2026-08-12T17:41:00Z", "ut_min": 1061, "lat": 67.728, "lon": -26.221}, "geometry": {"type": "Polygon", "coordinates": [[[-29.261, 67.578], [-27.901, 67.578], [-27.341, 67.628], [-26.941, 67.678], [-26.621, 67.728], [-25.981, 67.828], [-25.741, 67.878], [-25.261, 67.978], [-24.461, 68.178], [-24.301, 68.228], [-24.141, 68.278], [-23.741, 68.428], [-23.661, 68.478], [-23.341, 68.678], [-23.341, 68.878], [-23.421, 68.928], [-23.501, 68.978], [-23.661, 69.028], [-24.061, 69.078], [-25.581, 69.078], [-26.141, 69.028], [-26.621, 68.978], [-27.581, 68.828], [-27.821, 68.778], [-28.061, 68.728], [-28.461, 68.628], [-28.781, 68.528], [-29.261, 68.378], [-29.261, 67.578]]]}}, {"type": "Feature", "properties": {"t": "2026-08-12T17:42:00Z", "ut_min": 1062, "lat": 67.21, "lon": -26.032}, "geometry": {"type": "Polygon", "coordinates": [[[-29.072, 67.11], [-28.992, 67.06], [-27.792, 67.06], [-27.232, 67.11], [-26.752, 67.16], [-26.432, 67.21], [-26.112, 67.26], [-25.552, 67.36], [-25.072, 67.46], [-24.672, 67.56], [-24.192, 67.71], [-23.712, 67.86], [-23.552, 67.96], [-23.232, 68.16], [-23.232, 68.36], [-23.312, 68.41], [-23.632, 68.51], [-24.032, 68.56], [-25.312, 68.56], [-25.952, 68.51], [-26.752, 68.41], [-27.072, 68.36], [-27.632, 68.26], [-28.272, 68.11], [-28.592, 68.01], [-28.912, 67.91], [-28.992, 67.86], [-29.072, 67.81], [-29.072, 67.11]]]}}, {"type": "Feature", "properties": {"t": "2026-08-12T17:43:00Z", "ut_min": 1063, "lat": 66.697, "lon": -25.831}, "geometry": {"type": "Polygon", "coordinates": [[[-28.871, 66.597], [-28.711, 66.547], [-27.591, 66.547], [-27.031, 66.597], [-26.551, 66.647], [-25.591, 66.797], [-25.351, 66.847], [-24.871, 66.947], [-24.471, 67.047], [-24.311, 67.097], [-23.671, 67.297], [-23.431, 67.397], [-23.351, 67.447], [-23.191, 67.547], [-23.111, 67.597], [-23.111, 67.847], [-23.191, 67.897], [-23.351, 67.947], [-23.591, 67.997], [-24.151, 68.047], [-24.871, 68.047], [-25.671, 67.997], [-26.151, 67.947], [-26.471, 67.897], [-27.111, 67.797], [-27.591, 67.697], [-27.831, 67.647], [-28.391, 67.497], [-28.791, 67.347], [-28.871, 67.297], [-28.871, 66.597]]]}}, {"type": "Feature", "properties": {"t": "2026-08-12T17:44:00Z", "ut_min": 1064, "lat": 66.185, "lon": -25.63}, "geometry": {"type": "Polygon", "coordinates": [[[-28.67, 66.085], [-28.35, 66.035], [-27.47, 66.035], [-26.83, 66.085], [-26.03, 66.185], [-25.71, 66.235], [-25.15, 66.335], [-24.91, 66.385], [-24.11, 66.585], [-23.63, 66.735], [-23.39, 66.835], [-22.99, 67.085], [-22.91, 67.185], [-22.91, 67.235], [-22.99, 67.335], [-23.15, 67.385], [-23.31, 67.435], [-23.55, 67.485], [-25.39, 67.485], [-25.87, 67.435], [-26.27, 67.385], [-26.91, 67.285], [-27.39, 67.185], [-27.63, 67.135], [-28.43, 66.885], [-28.59, 66.835], [-28.67, 66.785], [-28.67, 66.085]]]}}, {"type": "Feature", "properties": {"t": "2026-08-12T17:45:00Z", "ut_min": 1065, "lat": 65.678, "lon": -25.417}, "geometry": {"type": "Polygon", "coordinates": [[[-28.457, 65.578], [-28.057, 65.528], [-27.257, 65.528], [-26.617, 65.578], [-26.137, 65.628], [-25.497, 65.728], [-24.937, 65.828], [-24.697, 65.878], [-24.297, 65.978], [-23.897, 66.078], [-23.737, 66.128], [-23.577, 66.178], [-23.097, 66.378], [-23.017, 66.428], [-22.937, 66.478], [-22.857, 66.528], [-22.777, 66.628], [-22.777, 66.728], [-22.857, 66.778], [-23.017, 66.878], [-23.177, 66.928], [-23.497, 66.978], [-25.097, 66.978], [-25.657, 66.928], [-26.057, 66.878], [-26.377, 66.828], [-26.937, 66.728], [-27.177, 66.678], [-27.577, 66.578], [-27.737, 66.528], [-28.217, 66.378], [-28.457, 66.278], [-28.457, 65.578]]]}}, {"type": "Feature", "properties": {"t": "2026-08-12T17:46:00Z", "ut_min": 1066, "lat": 65.172, "lon": -25.205}, "geometry": {"type": "Polygon", "coordinates": [[[-28.245, 65.122], [-28.165, 65.072], [-27.685, 65.022], [-27.205, 65.022], [-26.405, 65.072], [-26.005, 65.122], [-25.605, 65.172], [-25.285, 65.222], [-24.725, 65.322], [-24.485, 65.372], [-24.085, 65.472], [-23.285, 65.722], [-23.125, 65.772], [-22.805, 65.972], [-22.645, 66.072], [-22.645, 66.222], [-22.725, 66.272], [-22.805, 66.322], [-22.885, 66.372], [-23.125, 66.422], [-23.445, 66.472], [-24.805, 66.472], [-25.365, 66.422], [-25.765, 66.372], [-26.165, 66.322], [-26.725, 66.222], [-27.365, 66.072], [-27.525, 66.022], [-27.845, 65.922], [-28.085, 65.822], [-28.165, 65.772], [-28.245, 65.722], [-28.245, 65.122]]]}}, {"type": "Feature", "properties": {"t": "2026-08-12T17:47:00Z", "ut_min": 1067, "lat": 64.67, "lon": -24.981}, "geometry": {"type": "Polygon", "coordinates": [[[-28.021, 64.62], [-27.861, 64.57], [-27.221, 64.52], [-27.141, 64.52], [-26.181, 64.57], [-25.381, 64.67], [-24.741, 64.77], [-24.501, 64.82], [-24.261, 64.87], [-23.861, 64.97], [-23.541, 65.07], [-23.061, 65.22], [-22.821, 65.32], [-22.581, 65.47], [-22.501, 65.57], [-22.501, 65.72], [-22.581, 65.77], [-22.661, 65.82], [-22.821, 65.87], [-23.061, 65.92], [-23.541, 65.97], [-24.421, 65.97], [-25.061, 65.92], [-25.541, 65.87], [-26.181, 65.77], [-26.661, 65.67], [-26.901, 65.62], [-27.301, 65.52], [-27.461, 65.47], [-27.861, 65.32], [-28.021, 65.22], [-28.021, 64.62]]]}}, {"type": "Feature", "properties": {"t": "2026-08-12T17:48:00Z", "ut_min": 1068, "lat": 64.168, "lon": -24.757}, "geometry": {"type": "Polygon", "coordinates": [[[-27.797, 64.118], [-27.557, 64.068], [-26.037, 64.068], [-25.557, 64.118], [-25.157, 64.168], [-24.837, 64.218], [-24.277, 64.318], [-24.037, 64.368], [-23.637, 64.468], [-23.157, 64.618], [-22.837, 64.718], [-22.517, 64.868], [-22.437, 64.918], [-22.357, 65.018], [-22.277, 65.118], [-22.357, 65.218], [-22.517, 65.318], [-22.677, 65.368], [-22.917, 65.418], [-23.557, 65.468], [-23.957, 65.468], [-24.837, 65.418], [-25.637, 65.318], [-25.957, 65.268], [-26.437, 65.168], [-26.677, 65.118], [-27.317, 64.918], [-27.637, 64.818], [-27.797, 64.718], [-27.797, 64.118]]]}}, {"type": "Feature", "properties": {"t": "2026-08-12T17:49:00Z", "ut_min": 1069, "lat": 63.67, "lon": -24.522}, "geometry": {"type": "Polygon", "coordinates": [[[-27.562, 63.62], [-27.242, 63.57], [-25.802, 63.57], [-25.322, 63.62], [-24.922, 63.67], [-24.602, 63.72], [-24.042, 63.82], [-23.802, 63.87], [-23.402, 63.97], [-23.082, 64.07], [-22.762, 64.17], [-22.522, 64.27], [-22.442, 64.32], [-22.202, 64.47], [-22.122, 64.57], [-22.122, 64.67], [-22.362, 64.82], [-22.522, 64.87], [-22.842, 64.92], [-24.522, 64.92], [-25.002, 64.87], [-25.402, 64.82], [-25.722, 64.77], [-26.202, 64.67], [-26.442, 64.62], [-27.242, 64.37], [-27.482, 64.27], [-27.562, 64.22], [-27.562, 63.62]]]}}, {"type": "Feature", "properties": {"t": "2026-08-12T17:50:00Z", "ut_min": 1070, "lat": 63.172, "lon": -24.287}, "geometry": {"type": "Polygon", "coordinates": [[[-27.327, 63.172], [-27.247, 63.122], [-26.927, 63.072], [-25.647, 63.072], [-25.087, 63.122], [-24.687, 63.172], [-24.367, 63.222], [-23.807, 63.322], [-23.567, 63.372], [-23.167, 63.472], [-23.007, 63.522], [-22.527, 63.672], [-22.287, 63.772], [-22.047, 63.922], [-21.967, 64.022], [-21.967, 64.222], [-22.047, 64.272], [-22.367, 64.372], [-22.767, 64.422], [-24.207, 64.422], [-24.767, 64.372], [-25.167, 64.322], [-25.487, 64.272], [-26.207, 64.122], [-26.527, 64.022], [-27.007, 63.872], [-27.247, 63.772], [-27.327, 63.722], [-27.327, 63.172]]]}}, {"type": "Feature", "properties": {"t": "2026-08-12T17:51:00Z", "ut_min": 1071, "lat": 62.677, "lon": -24.04}, "geometry": {"type": "Polygon", "coordinates": [[[-27.08, 62.677], [-26.92, 62.627], [-26.6, 62.577], [-25.4, 62.577], [-24.84, 62.627], [-24.44, 62.677], [-24.12, 62.727], [-23.56, 62.827], [-23.32, 62.877], [-22.92, 62.977], [-22.6, 63.077], [-22.44, 63.127], [-22.2, 63.227], [-21.8, 63.477], [-21.72, 63.577], [-21.72, 63.627], [-21.8, 63.727], [-21.88, 63.777], [-22.04, 63.827], [-22.28, 63.877], [-22.68, 63.927], [-23.88, 63.927], [-24.44, 63.877], [-24.84, 63.827], [-25.16, 63.777], [-25.48, 63.727], [-25.96, 63.627], [-26.76, 63.377], [-27.08, 63.227], [-27.08, 62.677]]]}}, {"type": "Feature", "properties": {"t": "2026-08-12T17:52:00Z", "ut_min": 1072, "lat": 62.183, "lon": -23.793}, "geometry": {"type": "Polygon", "coordinates": [[[-26.833, 62.183], [-26.593, 62.133], [-26.273, 62.083], [-25.233, 62.083], [-24.593, 62.133], [-24.193, 62.183], [-23.873, 62.233], [-23.313, 62.333], [-23.073, 62.383], [-22.673, 62.483], [-22.353, 62.583], [-22.193, 62.633], [-21.953, 62.733], [-21.553, 62.983], [-21.553, 63.183], [-21.713, 63.283], [-21.873, 63.333], [-22.113, 63.383], [-22.593, 63.433], [-23.553, 63.433], [-24.193, 63.383], [-24.593, 63.333], [-24.913, 63.283], [-25.233, 63.233], [-25.473, 63.183], [-25.873, 63.083], [-26.033, 63.033], [-26.513, 62.883], [-26.833, 62.683], [-26.833, 62.183]]]}}, {"type": "Feature", "properties": {"t": "2026-08-12T17:53:00Z", "ut_min": 1073, "lat": 61.692, "lon": -23.535}, "geometry": {"type": "Polygon", "coordinates": [[[-26.575, 61.742], [-26.495, 61.692], [-26.335, 61.642], [-25.855, 61.592], [-24.975, 61.592], [-24.415, 61.642], [-23.935, 61.692], [-23.615, 61.742], [-23.055, 61.842], [-22.815, 61.892], [-22.415, 61.992], [-22.095, 62.092], [-21.935, 62.142], [-21.695, 62.242], [-21.375, 62.442], [-21.295, 62.542], [-21.295, 62.592], [-21.375, 62.692], [-21.535, 62.792], [-21.695, 62.842], [-22.015, 62.892], [-22.575, 62.942], [-23.135, 62.942], [-23.855, 62.892], [-24.335, 62.842], [-24.655, 62.792], [-24.975, 62.742], [-25.215, 62.692], [-25.615, 62.592], [-25.775, 62.542], [-26.255, 62.392], [-26.575, 62.192], [-26.575, 61.742]]]}}, {"type": "Feature", "properties": {"t": "2026-08-12T17:54:00Z", "ut_min": 1074, "lat": 61.2, "lon": -23.277}, "geometry": {"type": "Polygon", "coordinates": [[[-26.317, 61.25], [-25.997, 61.15], [-25.437, 61.1], [-24.877, 61.1], [-24.157, 61.15], [-23.357, 61.25], [-22.797, 61.35], [-22.557, 61.4], [-22.157, 61.5], [-21.997, 61.55], [-21.837, 61.6], [-21.357, 61.8], [-21.197, 61.9], [-21.117, 62.0], [-21.117, 62.15], [-21.197, 62.2], [-21.357, 62.3], [-21.517, 62.35], [-21.837, 62.4], [-23.597, 62.4], [-24.077, 62.35], [-24.717, 62.25], [-24.957, 62.2], [-25.357, 62.1], [-25.837, 61.95], [-26.077, 61.85], [-26.317, 61.7], [-26.317, 61.25]]]}}, {"type": "Feature", "properties": {"t": "2026-08-12T17:55:00Z", "ut_min": 1075, "lat": 60.711, "lon": -23.007}, "geometry": {"type": "Polygon", "coordinates": [[[-26.047, 60.761], [-25.887, 60.711], [-25.647, 60.661], [-25.007, 60.611], [-24.687, 60.611], [-23.887, 60.661], [-23.487, 60.711], [-23.087, 60.761], [-22.527, 60.861], [-22.287, 60.911], [-21.887, 61.011], [-21.567, 61.111], [-21.087, 61.311], [-21.007, 61.361], [-20.927, 61.461], [-20.847, 61.561], [-20.847, 61.611], [-20.927, 61.711], [-21.007, 61.761], [-21.327, 61.861], [-21.647, 61.911], [-23.247, 61.911], [-23.727, 61.861], [-24.127, 61.811], [-24.447, 61.761], [-24.687, 61.711], [-25.087, 61.611], [-25.407, 61.511], [-25.727, 61.411], [-25.967, 61.261], [-26.047, 61.211], [-26.047, 60.761]]]}}, {"type": "Feature", "properties": {"t": "2026-08-12T17:56:00Z", "ut_min": 1076, "lat": 60.222, "lon": -22.737}, "geometry": {"type": "Polygon", "coordinates": [[[-25.777, 60.322], [-25.697, 60.272], [-25.537, 60.222], [-25.297, 60.172], [-23.617, 60.172], [-22.817, 60.272], [-22.257, 60.372], [-22.017, 60.422], [-21.617, 60.522], [-21.297, 60.622], [-21.057, 60.722], [-20.977, 60.772], [-20.737, 60.922], [-20.657, 60.972], [-20.657, 61.172], [-20.737, 61.222], [-20.817, 61.272], [-20.977, 61.322], [-21.137, 61.372], [-21.537, 61.422], [-22.977, 61.422], [-23.457, 61.372], [-23.857, 61.322], [-24.177, 61.272], [-24.417, 61.222], [-24.657, 61.172], [-24.977, 61.072], [-25.297, 60.972], [-25.457, 60.922], [-25.617, 60.822], [-25.777, 60.722], [-25.777, 60.322]]]}}, {"type": "Feature", "properties": {"t": "2026-08-12T17:57:00Z", "ut_min": 1077, "lat": 59.733, "lon": -22.453}, "geometry": {"type": "Polygon", "coordinates": [[[-25.493, 59.833], [-25.413, 59.783], [-25.253, 59.733], [-24.933, 59.683], [-23.413, 59.683], [-22.933, 59.733], [-22.533, 59.783], [-21.973, 59.883], [-21.733, 59.933], [-21.333, 60.033], [-21.173, 60.083], [-21.013, 60.133], [-20.773, 60.233], [-20.453, 60.433], [-20.373, 60.533], [-20.373, 60.633], [-20.613, 60.783], [-20.773, 60.833], [-21.013, 60.883], [-21.413, 60.933], [-22.613, 60.933], [-23.173, 60.883], [-23.573, 60.833], [-23.893, 60.783], [-24.373, 60.683], [-24.533, 60.633], [-24.853, 60.533], [-25.173, 60.433], [-25.253, 60.383], [-25.413, 60.283], [-25.493, 60.233], [-25.493, 59.833]]]}}, {"type": "Feature", "properties": {"t": "2026-08-12T17:58:00Z", "ut_min": 1078, "lat": 59.245, "lon": -22.17}, "geometry": {"type": "Polygon", "coordinates": [[[-25.21, 59.345], [-24.89, 59.245], [-24.57, 59.195], [-23.13, 59.195], [-22.65, 59.245], [-22.25, 59.295], [-21.69, 59.395], [-21.45, 59.445], [-21.05, 59.545], [-20.89, 59.595], [-20.73, 59.645], [-20.49, 59.745], [-20.33, 59.845], [-20.17, 59.945], [-20.17, 60.195], [-20.25, 60.245], [-20.41, 60.295], [-20.57, 60.345], [-20.81, 60.395], [-21.21, 60.445], [-22.25, 60.445], [-22.89, 60.395], [-23.29, 60.345], [-23.61, 60.295], [-24.09, 60.195], [-24.25, 60.145], [-24.89, 59.945], [-24.97, 59.895], [-25.13, 59.795], [-25.21, 59.745], [-25.21, 59.345]]]}}, {"type": "Feature", "properties": {"t": "2026-08-12T17:59:00Z", "ut_min": 1079, "lat": 58.758, "lon": -21.872}, "geometry": {"type": "Polygon", "coordinates": [[[-24.912, 58.908], [-24.832, 58.858], [-24.752, 58.808], [-24.512, 58.758], [-24.192, 58.708], [-22.912, 58.708], [-22.352, 58.758], [-21.712, 58.858], [-21.392, 58.908], [-21.152, 58.958], [-20.752, 59.058], [-20.592, 59.108], [-20.432, 59.158], [-20.192, 59.258], [-20.112, 59.308], [-20.032, 59.358], [-19.952, 59.408], [-19.872, 59.508], [-19.872, 59.658], [-20.032, 59.758], [-20.112, 59.808], [-20.592, 59.908], [-21.152, 59.958], [-21.872, 59.958], [-22.592, 59.908], [-22.992, 59.858], [-23.312, 59.808], [-23.552, 59.758], [-23.792, 59.708], [-24.192, 59.608], [-24.352, 59.558], [-24.592, 59.458], [-24.672, 59.408], [-24.912, 59.258], [-24.912, 58.908]]]}}, {"type": "Feature", "properties": {"t": "2026-08-12T18:00:00Z", "ut_min": 1080, "lat": 58.272, "lon": -21.573}, "geometry": {"type": "Polygon", "coordinates": [[[-24.613, 58.422], [-24.533, 58.372], [-24.213, 58.272], [-23.813, 58.222], [-22.693, 58.222], [-22.053, 58.272], [-21.093, 58.422], [-20.853, 58.472], [-20.453, 58.572], [-20.133, 58.672], [-19.893, 58.772], [-19.653, 58.922], [-19.573, 59.022], [-19.573, 59.122], [-19.653, 59.222], [-19.893, 59.322], [-20.133, 59.372], [-20.373, 59.422], [-21.093, 59.472], [-21.413, 59.472], [-22.293, 59.422], [-22.693, 59.372], [-23.013, 59.322], [-23.493, 59.222], [-23.733, 59.172], [-24.053, 59.072], [-24.293, 58.972], [-24.533, 58.822], [-24.613, 58.772], [-24.613, 58.422]]]}}, {"type": "Feature", "properties": {"t": "2026-08-12T18:01:00Z", "ut_min": 1081, "lat": 57.784, "lon": -21.26}, "geometry": {"type": "Polygon", "coordinates": [[[-24.3, 57.934], [-24.22, 57.884], [-24.06, 57.834], [-23.82, 57.784], [-23.34, 57.734], [-22.46, 57.734], [-21.82, 57.784], [-21.42, 57.834], [-20.78, 57.934], [-20.54, 57.984], [-20.14, 58.084], [-19.98, 58.134], [-19.74, 58.234], [-19.5, 58.334], [-19.42, 58.384], [-19.34, 58.484], [-19.34, 58.684], [-19.42, 58.734], [-19.5, 58.784], [-19.66, 58.834], [-19.82, 58.884], [-20.14, 58.934], [-21.98, 58.934], [-22.38, 58.884], [-22.7, 58.834], [-23.02, 58.784], [-23.42, 58.684], [-23.74, 58.584], [-23.9, 58.534], [-24.22, 58.384], [-24.3, 58.334], [-24.3, 57.934]]]}}, {"type": "Feature", "properties": {"t": "2026-08-12T18:02:00Z", "ut_min": 1082, "lat": 57.297, "lon": -20.947}, "geometry": {"type": "Polygon", "coordinates": [[[-23.987, 57.497], [-23.827, 57.397], [-23.667, 57.347], [-23.427, 57.297], [-22.867, 57.247], [-22.227, 57.247], [-21.507, 57.297], [-21.107, 57.347], [-20.787, 57.397], [-20.467, 57.447], [-20.227, 57.497], [-19.827, 57.597], [-19.667, 57.647], [-19.507, 57.697], [-19.187, 57.847], [-19.107, 57.897], [-19.027, 57.997], [-19.027, 58.147], [-19.107, 58.197], [-19.267, 58.297], [-19.427, 58.347], [-19.587, 58.397], [-19.987, 58.447], [-21.587, 58.447], [-22.067, 58.397], [-22.387, 58.347], [-22.707, 58.297], [-22.947, 58.247], [-23.107, 58.197], [-23.427, 58.097], [-23.587, 58.047], [-23.827, 57.947], [-23.987, 57.847], [-23.987, 57.497]]]}}, {"type": "Feature", "properties": {"t": "2026-08-12T18:03:00Z", "ut_min": 1083, "lat": 56.809, "lon": -20.617}, "geometry": {"type": "Polygon", "coordinates": [[[-23.657, 57.009], [-23.497, 56.909], [-23.337, 56.859], [-23.017, 56.809], [-22.297, 56.759], [-22.137, 56.759], [-21.257, 56.809], [-20.777, 56.859], [-20.457, 56.909], [-20.137, 56.959], [-19.897, 57.009], [-19.497, 57.109], [-19.337, 57.159], [-19.177, 57.209], [-19.017, 57.309], [-18.857, 57.409], [-18.777, 57.459], [-18.697, 57.559], [-18.697, 57.609], [-18.777, 57.709], [-18.857, 57.759], [-19.177, 57.859], [-19.337, 57.909], [-19.737, 57.959], [-21.257, 57.959], [-21.737, 57.909], [-22.137, 57.859], [-22.617, 57.759], [-23.017, 57.659], [-23.177, 57.609], [-23.417, 57.509], [-23.497, 57.459], [-23.657, 57.359], [-23.657, 57.009]]]}}, {"type": "Feature", "properties": {"t": "2026-08-12T18:04:00Z", "ut_min": 1084, "lat": 56.322, "lon": -20.287}, "geometry": {"type": "Polygon", "coordinates": [[[-23.327, 56.522], [-23.247, 56.472], [-23.087, 56.422], [-22.927, 56.372], [-22.607, 56.322], [-20.927, 56.322], [-20.447, 56.372], [-20.127, 56.422], [-19.807, 56.472], [-19.567, 56.522], [-19.327, 56.572], [-19.007, 56.672], [-18.847, 56.722], [-18.767, 56.772], [-18.527, 56.922], [-18.447, 56.972], [-18.367, 57.072], [-18.447, 57.172], [-18.527, 57.222], [-18.687, 57.322], [-18.847, 57.372], [-19.087, 57.422], [-19.487, 57.472], [-20.927, 57.472], [-21.407, 57.422], [-21.807, 57.372], [-22.047, 57.322], [-22.527, 57.222], [-22.847, 57.122], [-23.087, 57.022], [-23.167, 56.972], [-23.327, 56.872], [-23.327, 56.522]]]}}, {"type": "Feature", "properties": {"t": "2026-08-12T18:05:00Z", "ut_min": 1085, "lat": 55.832, "lon": -19.938}, "geometry": {"type": "Polygon", "coordinates": [[[-22.977, 56.032], [-22.898, 55.982], [-22.738, 55.932], [-22.497, 55.882], [-22.178, 55.832], [-20.657, 55.832], [-20.098, 55.882], [-19.777, 55.932], [-19.457, 55.982], [-18.977, 56.082], [-18.817, 56.132], [-18.497, 56.232], [-18.177, 56.432], [-18.098, 56.482], [-18.098, 56.682], [-18.177, 56.732], [-18.258, 56.782], [-18.418, 56.832], [-18.578, 56.882], [-18.817, 56.932], [-19.297, 56.982], [-20.578, 56.982], [-21.137, 56.932], [-21.777, 56.832], [-22.017, 56.782], [-22.178, 56.732], [-22.657, 56.582], [-22.738, 56.532], [-22.898, 56.432], [-22.977, 56.382], [-22.977, 56.032]]]}}, {"type": "Feature", "properties": {"t": "2026-08-12T18:06:00Z", "ut_min": 1086, "lat": 55.343, "lon": -19.588}, "geometry": {"type": "Polygon", "coordinates": [[[-22.628, 55.593], [-22.548, 55.543], [-22.468, 55.493], [-22.308, 55.443], [-22.068, 55.393], [-21.748, 55.343], [-20.308, 55.343], [-19.748, 55.393], [-19.428, 55.443], [-19.108, 55.493], [-18.868, 55.543], [-18.628, 55.593], [-18.308, 55.693], [-18.148, 55.743], [-18.068, 55.793], [-17.828, 55.943], [-17.748, 55.993], [-17.748, 56.143], [-18.068, 56.343], [-18.548, 56.443], [-19.028, 56.493], [-20.228, 56.493], [-20.788, 56.443], [-21.188, 56.393], [-21.428, 56.343], [-21.908, 56.243], [-22.068, 56.193], [-22.308, 56.093], [-22.548, 55.993], [-22.628, 55.943], [-22.628, 55.593]]]}}, {"type": "Feature", "properties": {"t": "2026-08-12T18:07:00Z", "ut_min": 1087, "lat": 54.852, "lon": -19.218}, "geometry": {"type": "Polygon", "coordinates": [[[-22.258, 55.102], [-22.098, 55.002], [-21.938, 54.953], [-21.698, 54.902], [-21.297, 54.852], [-20.018, 54.852], [-19.457, 54.902], [-19.058, 54.953], [-18.738, 55.002], [-18.258, 55.102], [-17.777, 55.252], [-17.617, 55.352], [-17.457, 55.453], [-17.378, 55.553], [-17.378, 55.602], [-17.457, 55.703], [-17.617, 55.803], [-17.777, 55.852], [-18.258, 55.953], [-18.818, 56.002], [-19.858, 56.002], [-20.418, 55.953], [-20.818, 55.902], [-21.138, 55.852], [-21.378, 55.803], [-21.698, 55.703], [-22.018, 55.602], [-22.098, 55.553], [-22.258, 55.453], [-22.258, 55.102]]]}}, {"type": "Feature", "properties": {"t": "2026-08-12T18:08:00Z", "ut_min": 1088, "lat": 54.362, "lon": -18.847}, "geometry": {"type": "Polygon", "coordinates": [[[-21.887, 54.612], [-21.807, 54.562], [-21.487, 54.462], [-21.247, 54.412], [-20.767, 54.362], [-19.727, 54.362], [-19.087, 54.412], [-18.687, 54.462], [-18.367, 54.512], [-18.127, 54.562], [-17.887, 54.612], [-17.727, 54.662], [-17.407, 54.762], [-17.327, 54.812], [-17.167, 54.912], [-17.087, 54.962], [-17.007, 55.062], [-17.087, 55.162], [-17.167, 55.212], [-17.247, 55.262], [-17.327, 55.312], [-17.487, 55.362], [-17.967, 55.462], [-18.527, 55.512], [-19.487, 55.512], [-20.127, 55.462], [-20.767, 55.362], [-21.007, 55.312], [-21.407, 55.212], [-21.647, 55.112], [-21.887, 54.962], [-21.887, 54.612]]]}}, {"type": "Feature", "properties": {"t": "2026-08-12T18:09:00Z", "ut_min": 1089, "lat": 53.867, "lon": -18.452}, "geometry": {"type": "Polygon", "coordinates": [[[-21.492, 54.117], [-21.412, 54.067], [-21.092, 53.967], [-20.772, 53.917], [-20.212, 53.867], [-19.412, 53.867], [-18.692, 53.917], [-18.292, 53.967], [-17.972, 54.017], [-17.732, 54.067], [-17.492, 54.117], [-17.172, 54.217], [-17.012, 54.267], [-16.932, 54.317], [-16.852, 54.367], [-16.692, 54.467], [-16.692, 54.667], [-16.852, 54.767], [-17.332, 54.917], [-17.652, 54.967], [-18.292, 55.017], [-19.092, 55.017], [-19.732, 54.967], [-20.132, 54.917], [-20.452, 54.867], [-20.692, 54.817], [-20.852, 54.767], [-21.172, 54.667], [-21.332, 54.617], [-21.492, 54.517], [-21.492, 54.117]]]}}, {"type": "Feature", "properties": {"t": "2026-08-12T18:10:00Z", "ut_min": 1090, "lat": 53.372, "lon": -18.057}, "geometry": {"type": "Polygon", "coordinates": [[[-21.097, 53.622], [-21.017, 53.572], [-20.857, 53.522], [-20.617, 53.472], [-20.297, 53.422], [-19.497, 53.372], [-19.257, 53.372], [-18.297, 53.422], [-17.897, 53.472], [-17.577, 53.522], [-16.857, 53.672], [-16.697, 53.722], [-16.377, 53.872], [-16.297, 53.972], [-16.297, 54.122], [-16.377, 54.222], [-16.617, 54.322], [-16.777, 54.372], [-17.017, 54.422], [-17.337, 54.472], [-17.977, 54.522], [-18.697, 54.522], [-19.417, 54.472], [-19.817, 54.422], [-20.297, 54.322], [-20.537, 54.272], [-20.697, 54.222], [-20.937, 54.122], [-21.017, 54.072], [-21.097, 54.022], [-21.097, 53.622]]]}}, {"type": "Feature", "properties": {"t": "2026-08-12T18:11:00Z", "ut_min": 1091, "lat": 52.872, "lon": -17.634}, "geometry": {"type": "Polygon", "coordinates": [[[-20.674, 53.122], [-20.354, 53.022], [-20.114, 52.972], [-19.794, 52.922], [-17.954, 52.922], [-17.474, 52.972], [-17.154, 53.022], [-16.434, 53.172], [-16.274, 53.222], [-16.194, 53.272], [-15.954, 53.422], [-15.874, 53.472], [-15.874, 53.622], [-16.034, 53.722], [-16.114, 53.772], [-16.274, 53.822], [-16.434, 53.872], [-16.674, 53.922], [-16.994, 53.972], [-17.634, 54.022], [-18.354, 54.022], [-19.074, 53.972], [-19.474, 53.922], [-19.954, 53.822], [-20.194, 53.772], [-20.354, 53.722], [-20.594, 53.622], [-20.674, 53.572], [-20.674, 53.122]]]}}, {"type": "Feature", "properties": {"t": "2026-08-12T18:12:00Z", "ut_min": 1092, "lat": 52.372, "lon": -17.212}, "geometry": {"type": "Polygon", "coordinates": [[[-20.252, 52.672], [-20.172, 52.622], [-20.092, 52.572], [-19.932, 52.522], [-19.612, 52.472], [-19.212, 52.422], [-17.612, 52.422], [-17.052, 52.472], [-16.732, 52.522], [-16.412, 52.572], [-16.172, 52.622], [-16.012, 52.672], [-15.852, 52.722], [-15.612, 52.822], [-15.532, 52.872], [-15.452, 52.972], [-15.452, 53.072], [-15.532, 53.172], [-15.612, 53.222], [-15.852, 53.322], [-16.092, 53.372], [-16.332, 53.422], [-16.652, 53.472], [-17.372, 53.522], [-17.932, 53.522], [-18.732, 53.472], [-19.372, 53.372], [-19.612, 53.322], [-19.932, 53.222], [-20.092, 53.172], [-20.172, 53.122], [-20.252, 53.072], [-20.252, 52.672]]]}}, {"type": "Feature", "properties": {"t": "2026-08-12T18:13:00Z", "ut_min": 1093, "lat": 51.866, "lon": -16.758}, "geometry": {"type": "Polygon", "coordinates": [[[-19.797, 52.166], [-19.718, 52.116], [-19.398, 52.016], [-19.078, 51.966], [-18.678, 51.916], [-17.238, 51.916], [-16.678, 51.966], [-16.277, 52.016], [-15.957, 52.066], [-15.718, 52.116], [-15.558, 52.166], [-15.398, 52.216], [-15.158, 52.316], [-15.078, 52.366], [-14.998, 52.466], [-14.998, 52.566], [-15.238, 52.716], [-15.318, 52.766], [-15.637, 52.866], [-15.877, 52.916], [-16.277, 52.966], [-16.997, 53.016], [-17.637, 53.016], [-18.358, 52.966], [-18.758, 52.916], [-18.998, 52.866], [-19.238, 52.816], [-19.558, 52.716], [-19.718, 52.666], [-19.797, 52.616], [-19.797, 52.166]]]}}, {"type": "Feature", "properties": {"t": "2026-08-12T18:14:00Z", "ut_min": 1094, "lat": 51.36, "lon": -16.303}, "geometry": {"type": "Polygon", "coordinates": [[[-19.343, 51.66], [-19.263, 51.61], [-19.103, 51.56], [-18.863, 51.51], [-18.543, 51.46], [-18.063, 51.41], [-16.783, 51.41], [-16.143, 51.46], [-15.823, 51.51], [-15.503, 51.56], [-15.263, 51.61], [-15.103, 51.66], [-14.783, 51.76], [-14.623, 51.86], [-14.543, 51.96], [-14.543, 52.01], [-14.623, 52.11], [-14.783, 52.21], [-15.103, 52.31], [-15.263, 52.36], [-15.503, 52.41], [-15.903, 52.46], [-16.623, 52.51], [-17.183, 52.51], [-17.983, 52.46], [-18.383, 52.41], [-18.623, 52.36], [-18.863, 52.31], [-19.183, 52.21], [-19.343, 52.11], [-19.343, 51.66]]]}}, {"type": "Feature", "properties": {"t": "2026-08-12T18:15:00Z", "ut_min": 1095, "lat": 50.847, "lon": -15.81}, "geometry": {"type": "Polygon", "coordinates": [[[-18.85, 51.147], [-18.77, 51.097], [-18.61, 51.047], [-17.97, 50.947], [-17.33, 50.897], [-16.45, 50.897], [-15.73, 50.947], [-15.33, 50.997], [-15.01, 51.047], [-14.77, 51.097], [-14.61, 51.147], [-14.29, 51.247], [-14.21, 51.297], [-14.13, 51.347], [-14.05, 51.447], [-14.13, 51.597], [-14.21, 51.647], [-14.45, 51.747], [-14.61, 51.797], [-14.85, 51.847], [-15.09, 51.897], [-15.49, 51.947], [-16.13, 51.997], [-16.93, 51.997], [-17.57, 51.947], [-17.97, 51.897], [-18.21, 51.847], [-18.45, 51.797], [-18.77, 51.697], [-18.85, 51.647], [-18.85, 51.147]]]}}, {"type": "Feature", "properties": {"t": "2026-08-12T18:16:00Z", "ut_min": 1096, "lat": 50.333, "lon": -15.317}, "geometry": {"type": "Polygon", "coordinates": [[[-18.357, 50.633], [-18.197, 50.583], [-18.037, 50.533], [-17.797, 50.483], [-17.397, 50.433], [-16.517, 50.383], [-16.117, 50.383], [-15.237, 50.433], [-14.757, 50.483], [-14.437, 50.533], [-14.197, 50.583], [-13.877, 50.683], [-13.797, 50.733], [-13.637, 50.833], [-13.557, 50.933], [-13.557, 50.983], [-13.637, 51.033], [-13.797, 51.133], [-13.877, 51.183], [-14.197, 51.283], [-14.357, 51.333], [-14.677, 51.383], [-15.077, 51.433], [-15.717, 51.483], [-16.517, 51.483], [-17.237, 51.433], [-17.557, 51.383], [-18.037, 51.283], [-18.357, 51.183], [-18.357, 50.633]]]}}, {"type": "Feature", "properties": {"t": "2026-08-12T18:17:00Z", "ut_min": 1097, "lat": 49.809, "lon": -14.777}, "geometry": {"type": "Polygon", "coordinates": [[[-17.817, 50.109], [-17.657, 50.059], [-17.418, 50.009], [-17.098, 49.959], [-16.697, 49.909], [-14.777, 49.909], [-14.297, 49.959], [-13.897, 50.009], [-13.657, 50.059], [-13.338, 50.159], [-13.098, 50.309], [-13.098, 50.509], [-13.258, 50.609], [-13.338, 50.659], [-13.657, 50.759], [-13.897, 50.809], [-14.217, 50.859], [-14.537, 50.909], [-15.178, 50.959], [-16.218, 50.959], [-16.858, 50.909], [-17.177, 50.859], [-17.418, 50.809], [-17.657, 50.759], [-17.817, 50.709], [-17.817, 50.109]]]}}, {"type": "Feature", "properties": {"t": "2026-08-12T18:18:00Z", "ut_min": 1098, "lat": 49.285, "lon": -14.238}, "geometry": {"type": "Polygon", "coordinates": [[[-17.278, 49.585], [-17.038, 49.535], [-16.798, 49.485], [-16.478, 49.435], [-15.998, 49.385], [-14.158, 49.385], [-13.678, 49.435], [-13.358, 49.485], [-13.118, 49.535], [-12.878, 49.585], [-12.638, 49.685], [-12.558, 49.735], [-12.478, 49.835], [-12.478, 49.885], [-12.558, 49.985], [-12.718, 50.085], [-13.038, 50.185], [-13.198, 50.235], [-13.678, 50.335], [-14.078, 50.385], [-14.718, 50.435], [-15.838, 50.435], [-16.398, 50.385], [-16.798, 50.335], [-17.038, 50.285], [-17.198, 50.235], [-17.278, 50.185], [-17.278, 49.585]]]}}, {"type": "Feature", "properties": {"t": "2026-08-12T18:19:00Z", "ut_min": 1099, "lat": 48.748, "lon": -13.643}, "geometry": {"type": "Polygon", "coordinates": [[[-16.683, 49.098], [-16.603, 49.048], [-16.443, 48.998], [-15.803, 48.898], [-15.163, 48.848], [-13.723, 48.848], [-13.083, 48.898], [-12.763, 48.948], [-12.523, 48.998], [-12.283, 49.048], [-12.123, 49.098], [-11.963, 49.198], [-11.963, 49.398], [-12.203, 49.548], [-12.283, 49.598], [-12.443, 49.648], [-13.163, 49.798], [-13.563, 49.848], [-14.043, 49.898], [-15.563, 49.898], [-16.043, 49.848], [-16.363, 49.798], [-16.603, 49.748], [-16.683, 49.698], [-16.683, 49.098]]]}}, {"type": "Feature", "properties": {"t": "2026-08-12T18:20:00Z", "ut_min": 1100, "lat": 48.212, "lon": -13.048}, "geometry": {"type": "Polygon", "coordinates": [[[-16.088, 48.562], [-16.008, 48.512], [-15.768, 48.462], [-15.448, 48.412], [-15.048, 48.362], [-14.408, 48.312], [-13.048, 48.312], [-12.408, 48.362], [-12.088, 48.412], [-11.608, 48.512], [-11.368, 48.612], [-11.288, 48.712], [-11.288, 48.812], [-11.368, 48.862], [-11.528, 48.962], [-11.608, 49.012], [-11.928, 49.112], [-12.088, 49.162], [-12.328, 49.212], [-12.968, 49.312], [-13.528, 49.362], [-15.128, 49.362], [-15.608, 49.312], [-15.928, 49.262], [-16.088, 49.212], [-16.088, 48.562]]]}}, {"type": "Feature", "properties": {"t": "2026-08-12T18:21:00Z", "ut_min": 1101, "lat": 47.657, "lon": -12.382}, "geometry": {"type": "Polygon", "coordinates": [[[-15.422, 48.007], [-15.262, 47.957], [-15.022, 47.907], [-14.702, 47.857], [-14.222, 47.807], [-13.262, 47.757], [-12.702, 47.757], [-11.822, 47.807], [-11.422, 47.857], [-11.102, 47.907], [-10.782, 48.007], [-10.702, 48.057], [-10.622, 48.157], [-10.622, 48.207], [-10.702, 48.307], [-10.862, 48.407], [-11.022, 48.457], [-11.342, 48.557], [-11.502, 48.607], [-11.982, 48.707], [-12.782, 48.807], [-14.862, 48.807], [-15.182, 48.757], [-15.422, 48.707], [-15.422, 48.007]]]}}, {"type": "Feature", "properties": {"t": "2026-08-12T18:22:00Z", "ut_min": 1102, "lat": 47.102, "lon": -11.715}, "geometry": {"type": "Polygon", "coordinates": [[[-14.755, 47.452], [-14.275, 47.352], [-13.875, 47.302], [-13.395, 47.252], [-12.275, 47.202], [-12.035, 47.202], [-10.995, 47.252], [-10.595, 47.302], [-10.355, 47.352], [-10.035, 47.452], [-9.955, 47.502], [-9.955, 47.702], [-10.035, 47.752], [-10.115, 47.802], [-10.355, 47.902], [-10.675, 48.002], [-11.395, 48.152], [-11.715, 48.202], [-12.195, 48.252], [-12.995, 48.302], [-13.715, 48.302], [-14.435, 48.252], [-14.755, 48.202], [-14.755, 47.452]]]}}, {"type": "Feature", "properties": {"t": "2026-08-12T18:23:00Z", "ut_min": 1103, "lat": 46.523, "lon": -10.953}, "geometry": {"type": "Polygon", "coordinates": [[[-13.992, 46.922], [-13.913, 46.873], [-13.673, 46.822], [-13.353, 46.773], [-12.953, 46.723], [-12.312, 46.672], [-10.312, 46.672], [-9.832, 46.723], [-9.593, 46.773], [-9.433, 46.822], [-9.273, 46.873], [-9.193, 46.922], [-9.193, 47.072], [-9.273, 47.123], [-9.513, 47.273], [-9.832, 47.373], [-10.152, 47.473], [-10.393, 47.523], [-11.033, 47.623], [-11.433, 47.672], [-11.913, 47.723], [-13.593, 47.723], [-13.992, 47.672], [-13.992, 46.922]]]}}, {"type": "Feature", "properties": {"t": "2026-08-12T18:24:00Z", "ut_min": 1104, "lat": 45.943, "lon": -10.19}, "geometry": {"type": "Polygon", "coordinates": [[[-13.23, 46.343], [-13.07, 46.293], [-12.83, 46.243], [-12.43, 46.193], [-12.03, 46.143], [-11.39, 46.093], [-9.31, 46.093], [-8.91, 46.143], [-8.67, 46.193], [-8.51, 46.243], [-8.43, 46.293], [-8.35, 46.343], [-8.35, 46.443], [-8.43, 46.493], [-8.59, 46.593], [-8.75, 46.693], [-8.91, 46.743], [-9.23, 46.843], [-9.95, 46.993], [-10.27, 47.043], [-10.67, 47.093], [-11.15, 47.143], [-13.23, 47.143], [-13.23, 46.343]]]}}, {"type": "Feature", "properties": {"t": "2026-08-12T18:25:00Z", "ut_min": 1105, "lat": 45.328, "lon": -9.294}, "geometry": {"type": "Polygon", "coordinates": [[[-12.334, 45.728], [-12.094, 45.678], [-11.694, 45.628], [-11.294, 45.578], [-10.814, 45.528], [-10.014, 45.478], [-8.494, 45.478], [-8.014, 45.528], [-7.774, 45.578], [-7.614, 45.628], [-7.534, 45.678], [-7.454, 45.728], [-7.454, 45.828], [-7.694, 45.978], [-7.774, 46.028], [-7.934, 46.078], [-8.414, 46.228], [-8.814, 46.328], [-9.374, 46.428], [-9.694, 46.478], [-10.654, 46.578], [-12.334, 46.578], [-12.334, 45.728]]]}}, {"type": "Feature", "properties": {"t": "2026-08-12T18:26:00Z", "ut_min": 1106, "lat": 44.713, "lon": -8.398}, "geometry": {"type": "Polygon", "coordinates": [[[-11.438, 45.163], [-11.358, 45.113], [-10.718, 45.013], [-9.758, 44.913], [-9.038, 44.863], [-7.198, 44.863], [-6.798, 44.913], [-6.638, 44.963], [-6.558, 45.013], [-6.478, 45.063], [-6.478, 45.163], [-6.558, 45.213], [-6.718, 45.313], [-6.798, 45.363], [-7.038, 45.463], [-7.358, 45.563], [-7.758, 45.663], [-7.998, 45.713], [-8.238, 45.763], [-8.558, 45.813], [-8.878, 45.863], [-9.678, 45.963], [-10.398, 46.013], [-11.438, 46.013], [-11.438, 45.163]]]}}, {"type": "Feature", "properties": {"t": "2026-08-12T18:27:00Z", "ut_min": 1107, "lat": 44.043, "lon": -7.293}, "geometry": {"type": "Polygon", "coordinates": [[[-10.333, 44.493], [-10.013, 44.443], [-9.693, 44.393], [-9.293, 44.343], [-8.813, 44.293], [-8.253, 44.243], [-7.373, 44.193], [-6.093, 44.193], [-5.693, 44.243], [-5.453, 44.293], [-5.373, 44.343], [-5.373, 44.493], [-5.533, 44.593], [-5.693, 44.693], [-5.853, 44.743], [-6.173, 44.843], [-6.493, 44.943], [-6.733, 44.993], [-7.213, 45.093], [-7.693, 45.193], [-8.013, 45.243], [-8.813, 45.343], [-9.373, 45.393], [-10.333, 45.393], [-10.333, 44.493]]]}}, {"type": "Feature", "properties": {"t": "2026-08-12T18:28:00Z", "ut_min": 1108, "lat": 43.372, "lon": -6.188}, "geometry": {"type": "Polygon", "coordinates": [[[-9.228, 43.872], [-9.068, 43.822], [-8.748, 43.772], [-8.428, 43.722], [-8.028, 43.672], [-7.548, 43.622], [-6.988, 43.572], [-6.348, 43.522], [-4.348, 43.522], [-4.108, 43.572], [-4.028, 43.622], [-4.028, 43.722], [-4.188, 43.822], [-4.348, 43.922], [-4.748, 44.072], [-5.068, 44.172], [-5.868, 44.372], [-6.108, 44.422], [-6.668, 44.522], [-6.988, 44.572], [-7.308, 44.622], [-7.628, 44.672], [-8.108, 44.722], [-8.668, 44.772], [-9.228, 44.772], [-9.228, 43.872]]]}}, {"type": "Feature", "properties": {"t": "2026-08-12T18:29:00Z", "ut_min": 1109, "lat": 42.594, "lon": -4.687}, "geometry": {"type": "Polygon", "coordinates": [[[-7.727, 43.144], [-7.567, 43.094], [-6.847, 42.994], [-6.447, 42.944], [-5.967, 42.894], [-5.007, 42.794], [-4.287, 42.744], [-2.687, 42.744], [-2.527, 42.794], [-2.447, 42.844], [-2.527, 42.944], [-2.767, 43.094], [-3.167, 43.244], [-3.807, 43.444], [-4.207, 43.544], [-4.847, 43.694], [-5.087, 43.744], [-5.887, 43.894], [-6.207, 43.944], [-7.407, 44.094], [-7.727, 44.094], [-7.727, 43.144]]]}}, {"type": "Feature", "properties": {"t": "2026-08-12T18:30:00Z", "ut_min": 1110, "lat": 41.817, "lon": -3.185}, "geometry": {"type": "Polygon", "coordinates": [[[-6.225, 42.417], [-6.145, 42.367], [-5.825, 42.317], [-5.505, 42.267], [-4.785, 42.167], [-4.385, 42.117], [-3.585, 42.017], [-3.105, 41.967], [-2.625, 41.917], [-2.065, 41.867], [-1.265, 41.817], [-0.705, 41.817], [-0.465, 41.867], [-0.465, 41.967], [-0.545, 42.017], [-0.705, 42.117], [-0.945, 42.217], [-1.505, 42.417], [-1.665, 42.467], [-2.385, 42.667], [-2.785, 42.767], [-3.185, 42.867], [-3.425, 42.917], [-3.905, 43.017], [-4.145, 43.067], [-4.705, 43.167], [-5.345, 43.267], [-5.665, 43.317], [-6.065, 43.367], [-6.225, 43.367], [-6.225, 42.417]]]}}, {"type": "Feature", "properties": {"t": "2026-08-12T18:31:00Z", "ut_min": 1111, "lat": 41.817, "lon": -3.185}, "geometry": {"type": "Polygon", "coordinates": [[[-6.225, 41.917], [-5.985, 41.867], [-5.265, 41.717], [-5.025, 41.667], [-4.465, 41.567], [-3.585, 41.417], [-3.265, 41.367], [-2.305, 41.217], [-0.945, 41.017], [-0.225, 40.917], [-0.145, 40.917], [-0.145, 41.667], [-0.705, 41.817], [-1.105, 41.917], [-1.745, 42.067], [-2.705, 42.267], [-2.945, 42.317], [-3.185, 42.367], [-3.745, 42.467], [-4.065, 42.517], [-4.385, 42.567], [-4.705, 42.617], [-5.105, 42.667], [-5.585, 42.717], [-6.225, 42.767], [-6.225, 41.917]]]}}, {"type": "Feature", "properties": {"t": "2026-08-12T18:32:00Z", "ut_min": 1112, "lat": 41.817, "lon": -3.185}, "geometry": {"type": "Polygon", "coordinates": [[[-6.225, 41.617], [-6.145, 41.567], [-5.745, 41.417], [-5.185, 41.267], [-4.785, 41.167], [-4.385, 41.067], [-3.425, 40.867], [-2.705, 40.717], [-0.625, 40.317], [-0.305, 40.267], [-0.145, 40.267], [-0.145, 41.167], [-0.225, 41.217], [-0.465, 41.267], [-1.665, 41.517], [-2.145, 41.617], [-2.705, 41.717], [-3.025, 41.767], [-3.665, 41.867], [-4.065, 41.917], [-4.545, 41.967], [-5.185, 42.017], [-6.145, 42.017], [-6.225, 41.967], [-6.225, 41.617]]]}}, {"type": "Feature", "properties": {"t": "2026-08-12T18:33:00Z", "ut_min": 1113, "lat": 41.817, "lon": -3.185}, "geometry": {"type": "Polygon", "coordinates": [[[-4.945, 41.067], [-4.865, 40.967], [-4.705, 40.867], [-4.625, 40.817], [-4.225, 40.667], [-4.065, 40.617], [-3.745, 40.517], [-3.185, 40.367], [-2.385, 40.167], [-1.745, 40.017], [-0.865, 39.817], [-0.385, 39.717], [-0.145, 39.667], [-0.145, 40.617], [-0.305, 40.667], [-0.785, 40.767], [-1.345, 40.867], [-1.665, 40.917], [-2.305, 41.017], [-2.625, 41.067], [-3.025, 41.117], [-3.585, 41.167], [-4.705, 41.167], [-4.865, 41.117], [-4.945, 41.067]]]}}, {"type": "Feature", "properties": {"t": "2026-08-12T18:34:00Z", "ut_min": 1114, "lat": 41.817, "lon": -3.185}, "geometry": {"type": "Polygon", "coordinates": [[[-2.785, 40.067], [-2.625, 39.967], [-2.385, 39.867], [-1.985, 39.717], [-1.665, 39.617], [-0.145, 39.617], [-0.145, 39.967], [-0.465, 40.017], [-1.105, 40.117], [-1.505, 40.167], [-1.985, 40.217], [-2.625, 40.217], [-2.785, 40.167], [-2.785, 40.067]]]}}]}