{"type": "FeatureCollection", "name": "Visibilidad eclipse 2026 - bandas de parcialidad", "source": "Elementos besselianos NASA GSFC + Espenak/Meeus, limitado por atardecer", "features": [{"type": "Feature", "properties": {"band": "10"}, "geometry": {"type": "MultiPolygon", "coordinates": [[[[7.191683608654731, 25.0], [4.242461916151408, 25.0], [4.50701144355151, 25.6], [5.700344443679967, 26.8], [5.9579468862431115, 27.4], [7.135567276408264, 28.6], [7.3865533342844065, 29.2], [8.551649129542772, 30.4], [8.797753480090226, 31.0], [10.527998264650366, 32.8], [10.76899856431055, 33.4], [13.0543618893655, 35.8], [13.290874691300102, 36.4], [17.82466253912481, 41.2], [18.057647386291755, 41.8], [19.188095135253047, 43.0], [20.085728112635618, 43.6], [24.045944220767648, 47.8], [24.94547777015677, 48.4], [26.07974067961926, 49.6], [26.98081485008315, 50.2], [28.117058497207807, 51.4], [29.019194212926013, 52.0], [29.588216707400925, 52.6], [30.491379109502482, 53.2], [31.060997505569645, 53.8], [33.773939491647326, 55.6], [34.34447194484479, 56.2], [37.9657160509176, 58.6], [39.206136868965906, 59.2], [43.16002085761654, 61.6], [45.0, 62.49208129055196], [45.0, 60.935708151004455], [40.83911413989245, 58.6], [33.91778319519666, 53.8], [33.345715759749964, 53.2], [30.962572534054868, 51.4], [27.776377875002595, 48.4], [26.87339921912785, 47.8], [22.895237422930105, 43.6], [21.9950910921918, 43.0], [20.861169887908193, 41.8], [20.627121304389103, 41.2], [16.093062589582573, 36.4], [15.85826695493792, 35.8], [13.584901680433042, 33.4], [13.348096484122005, 32.8], [11.635248249523206, 31.0], [11.39583192107107, 30.4], [10.247825418510653, 29.2], [10.005576006843354, 28.6], [8.85065679627099, 27.4], [8.605019230058156, 26.8], [7.441354154729896, 25.6], [7.191683608654731, 25.0]]]]}}, {"type": "Feature", "properties": {"band": "30"}, "geometry": {"type": "MultiPolygon", "coordinates": [[[[2.9855835470482814, 27.4], [4.20687975793398, 28.6], [4.473987336077393, 29.2], [5.671008968618032, 30.4], [5.929487950586862, 31.0], [7.691457685511376, 32.8], [7.939700730547075, 33.4], [10.246756203954824, 35.8], [10.486150151934062, 36.4], [15.019428781758196, 41.2], [15.250300742376151, 41.8], [16.374450848647278, 43.0], [17.267801835177064, 43.6], [21.19502604067396, 47.8], [22.08864522910664, 48.4], [25.233078607232112, 51.4], [27.591123707721874, 53.2], [28.15600442225747, 53.8], [30.854021944323488, 55.6], [31.420933648703436, 56.2], [35.028911204387484, 58.6], [36.26665911605307, 59.2], [40.21621622859097, 61.6], [45.0, 63.91940875937432], [45.0, 62.49208129055196], [43.16002085761654, 61.6], [39.206136868965906, 59.2], [37.9657160509176, 58.6], [34.34447194484479, 56.2], [33.773939491647326, 55.6], [31.060997505569645, 53.8], [30.491379109502482, 53.2], [29.588216707400925, 52.6], [29.019194212926013, 52.0], [28.117058497207807, 51.4], [26.98081485008315, 50.2], [26.07974067961926, 49.6], [24.94547777015677, 48.4], [24.045944220767648, 47.8], [20.085728112635618, 43.6], [19.188095135253047, 43.0], [18.057647386291755, 41.8], [17.82466253912481, 41.2], [13.290874691300102, 36.4], [13.0543618893655, 35.8], [10.76899856431055, 33.4], [10.527998264650366, 32.8], [8.797753480090226, 31.0], [8.551649129542772, 30.4], [7.3865533342844065, 29.2], [7.135567276408264, 28.6], [5.9579468862431115, 27.4], [5.700344443679967, 26.8], [4.50701144355151, 25.6], [4.242461916151408, 25.0], [1.1577743427599911, 25.0], [1.4521456174296925, 25.6], [2.704622386812807, 26.8], [2.9855835470482814, 27.4]]]]}}, {"type": "Feature", "properties": {"band": "50"}, "geometry": {"type": "MultiPolygon", "coordinates": [[[[-2.507452552991402, 25.0], [-2.092187187829382, 25.6], [-0.6222150352839865, 26.8], [-0.2750127478748717, 27.4], [1.0787529225401975, 28.6], [1.3926592781570295, 29.2], [2.6749195691408887, 30.4], [2.965551401049302, 31.0], [4.806315632299532, 32.8], [5.070966478355704, 33.4], [7.428951796060929, 35.8], [7.674877686233783, 36.4], [12.20675808415331, 41.2], [12.432636377956964, 41.8], [13.542066996723964, 43.0], [14.425892525157748, 43.6], [18.27288450131514, 47.8], [19.152482974293804, 48.4], [22.22715778487605, 51.4], [24.54089632896025, 53.2], [25.09242669887431, 53.8], [27.7506706329347, 55.6], [28.30772017506295, 56.2], [31.878192512799526, 58.6], [37.04063106639494, 61.6], [45.0, 65.27343143254329], [45.0, 63.91940875937432], [38.073429877346456, 60.4], [36.26665911605307, 59.2], [35.028911204387484, 58.6], [31.420933648703436, 56.2], [30.854021944323488, 55.6], [28.15600442225747, 53.8], [27.591123707721874, 53.2], [26.692996755837978, 52.6], [26.128976818455904, 52.0], [25.233078607232112, 51.4], [24.10708219916425, 50.2], [23.21213970199963, 49.6], [22.08864522910664, 48.4], [21.19502604067396, 47.8], [17.267801835177064, 43.6], [16.374450848647278, 43.0], [15.250300742376151, 41.8], [15.019428781758196, 41.2], [10.486150151934062, 36.4], [10.246756203954824, 35.8], [7.939700730547075, 33.4], [7.691457685511376, 32.8], [5.929487950586862, 31.0], [5.671008968618032, 30.4], [4.473987336077393, 29.2], [4.20687975793398, 28.6], [2.9855835470482814, 27.4], [2.704622386812807, 26.8], [1.4521456174296925, 25.6], [1.1577743427599911, 25.0], [-2.507452552991402, 25.0]]], [[[-30.0, 25.0], [-30.0, 32.73556687133901], [-26.489512500142947, 30.4], [-23.38986106989084, 28.6], [-19.8, 26.78016708063613], [-15.616016053689702, 25.0], [-30.0, 25.0]]]]}}, {"type": "Feature", "properties": {"band": "70"}, "geometry": {"type": "MultiPolygon", "coordinates": [[[[-30.0, 32.73556687133901], [-30.0, 49.910423092324805], [-26.138905840306027, 46.0], [-22.8, 43.031806191297676], [-19.611338864331106, 40.6], [-15.901837855750546, 38.2], [-11.4, 35.799527597111954], [-7.8, 34.23754317831019], [-4.8, 33.1476392876618], [-0.6, 31.9027277189088], [0.0, 31.943923347575367], [0.6, 32.193199611293736], [1.4463200026772896, 32.8], [1.879112639297004, 33.4], [4.543089397253876, 35.8], [4.823770850839534, 36.4], [9.346015001976081, 41.2], [9.548263849464835, 41.8], [10.57482318800068, 43.0], [11.412118601218609, 43.6], [13.294735312437846, 46.0], [14.041124220069886, 47.2], [14.235848344946321, 47.8], [10.2, 49.24849344086395], [7.8, 50.37558765234905], [5.079913002308748, 52.0], [2.4, 54.194451946804065], [-0.23605448576489638, 57.4], [-1.2893204739866861, 59.8], [-1.9104307432638363, 62.2], [-1.9779409904339016, 63.4], [-1.7942623164576013, 64.6], [-1.2228311678244703, 66.4], [-0.6133825368142746, 67.6], [0.2151711301153731, 68.8], [1.3031966465888214, 70.0], [3.8885832682584818, 71.8], [45.0, 71.8], [45.0, 65.27343143254329], [37.04063106639494, 61.6], [31.878192512799526, 58.6], [28.30772017506295, 56.2], [27.7506706329347, 55.6], [25.09242669887431, 53.8], [24.54089632896025, 53.2], [22.22715778487605, 51.4], [19.152482974293804, 48.4], [18.27288450131514, 47.8], [14.425892525157748, 43.6], [13.542066996723964, 43.0], [12.432636377956964, 41.8], [12.20675808415331, 41.2], [7.674877686233783, 36.4], [7.428951796060929, 35.8], [5.070966478355704, 33.4], [4.806315632299532, 32.8], [2.965551401049302, 31.0], [2.6749195691408887, 30.4], [1.3926592781570295, 29.2], [1.0787529225401975, 28.6], [-0.2750127478748717, 27.4], [-0.6222150352839865, 26.8], [-2.092187187829382, 25.6], [-2.507452552991402, 25.0], [-15.616016053689702, 25.0], [-19.8, 26.78016708063613], [-23.38986106989084, 28.6], [-26.489512500142947, 30.4], [-30.0, 32.73556687133901]]]]}}, {"type": "Feature", "properties": {"band": "90"}, "geometry": {"type": "MultiPolygon", "coordinates": [[[[-25.504851768844105, 45.4], [-30.0, 49.910423092324805], [-30.0, 68.4229988146406], [-25.846492875774494, 60.4], [-23.4, 56.54292617385568], [-19.8, 52.19323223342912], [-14.795353161557731, 47.2], [-12.469963746749904, 45.4], [-10.15755027643683, 44.2], [-8.81764916617839, 43.0], [-7.8, 42.444670197052815], [-6.078950070869613, 41.8], [-4.8, 40.910506708913026], [-3.0, 40.444578883641036], [-2.575015022103075, 40.0], [-1.8, 39.652846934267885], [-0.6, 39.48138891744398], [0.5137807119260246, 38.8], [2.4, 38.41462277187008], [3.0, 38.0468033707652], [4.2, 37.914705077378535], [4.8, 38.13283594293887], [5.521566203244207, 38.8], [6.0, 39.51790872920092], [5.4, 39.8674937490479], [4.2, 39.92103743633836], [3.157776162113927, 40.6], [1.8, 40.82799504654486], [0.6, 41.547261187610545], [-0.7302085459436528, 41.8], [-1.8, 42.60979700693717], [-3.6, 43.22806706292777], [-4.816334710972044, 44.2], [-7.2, 45.32137670754707], [-8.52146644587393, 46.6], [-12.006337639345155, 49.0], [-16.928296890302505, 55.0], [-19.949942008891906, 59.8], [-21.127939720827595, 62.2], [-22.086389986942, 64.6], [-24.13591433874406, 71.8], [3.8885832682584818, 71.8], [2.0395157315791854, 70.6], [0.7230772767587721, 69.4], [-0.6133825368142746, 67.6], [-1.4549115999856297, 65.8], [-1.9040215937330083, 64.0], [-1.990108903907426, 62.8], [-1.6574851971704165, 61.0], [-0.8162114209465228, 58.6], [-0.23605448576489638, 57.4], [2.197886380759275, 54.4], [5.079913002308748, 52.0], [7.8, 50.37558765234905], [9.6, 49.52281103672971], [14.235848344946321, 47.8], [13.709627911187587, 46.6], [11.412118601218609, 43.6], [10.57482318800068, 43.0], [9.548263849464835, 41.8], [9.346015001976081, 41.2], [4.823770850839534, 36.4], [4.543089397253876, 35.8], [1.8791126392970041, 33.4], [1.2, 32.60809568606554], [0.0, 31.943923347575367], [-0.6, 31.9027277189088], [-4.8, 33.1476392876618], [-7.8, 34.23754317831019], [-11.4, 35.799527597111954], [-15.6, 38.01860032448111], [-19.611338864331106, 40.6], [-22.761437068461245, 43.0], [-25.504851768844105, 45.4]]]]}}]}